,Unnamed: 0,Id,Name,Description,Add,Region,Town,Tel,Opentime,Px,Py,Class
0,3814,C3_397000000A_000257,興隆居,一大早來到興隆居，真的是人聲鼎沸，創立於1970年的興隆居，以提供「清晨的第一道美食」自居，每天早上熱騰騰出爐的各種美食，的確是挑動每個人的味蕾。在琳瑯滿目的選擇中，最具人氣的就是湯包，使用梨山的高山高麗菜，以及半肥半瘦的胛心肉，加入蔬菜豬大骨高湯，現拌、現包、現蒸，一口咬下鮮甜的湯汁溢出，讓人回味無窮。,高雄市前金區六合二路186號,高雄市,前金區,886-7-2616787,每日03:00-11:00,120.2936,22.63033,3.0
1,3815,C3_397000000A_000258,味味香廣東汕頭牛豬羊肉爐,雖然是平價的火鍋，工夫一點也不馬虎，使用扁魚、柴魚等20多種材料熬製湯頭，無論選擇何種肉類，都能嘗到湯頭加分的效果。味味香現在已傳至第二代，將近50年歷史，老闆特別推薦沙茶羊肉和砂鍋魚頭，還有自己製作的豆皮，沾上店家自行調配的沙茶醬，更是讓人欲罷不能，可別小看沾醬，這可是使用2、30種配料做成的獨門醬料，別處嘗不到。 這家店適合三五好友相約一起來，別忘了點幾道小炒和幾瓶啤酒，大夥兒開懷暢飲。,高雄市鹽埕區富野路100號,高雄市,鹽埕區,886-7-5518588,每日11:00-14:00；17:00-01:00,120.2837,22.62851,3.0
2,3816,C3_397000000A_000259,老周燒肉飯,在炎熱的港都，一碗香噴噴的燒肉飯最能趕走暑意，讓人胃口大開，而一提到燒肉飯，許多人第一個想到的便是老周燒肉飯。從三民市場發跡的老周燒肉飯，至今已有30多年歷史，開設了6家分店，保留古早美味的燒肉飯看似簡單，白飯上放著幾片燒肉和嫩薑，不過品嘗後卻讓人印象深刻。燒肉飯的肉片選用里脊肉，切成薄片後，在特製醬料中醃漬一段時間，醃漬出來的肉入味但不會太鹹，客人點餐後放在炭火架上燒烤，吃起來軟嫩多汁，還帶點甜味，十分開胃。,高雄市三民區三民街152號,高雄市,三民區,886-7-2411257,每日09:00-21:30,120.29233,22.63588,3.0
3,3817,C3_397000000A_000260,潮州牛肉店,堅持用現宰新鮮的台灣牛肉，作全牛的料理，其產品有牛肉全席、牛鞭燉烏骨雞、麻油牛果；其中堪稱招牌的有牛腩火鍋、牛雜火鍋、牛片鍋。,高雄市小港區沿海一路211號,高雄市,小港區,886-7-8030668,每日11:00-14:00；17:00-21:00,120.35229,22.56682,3.0
4,3818,C3_397000000A_000261,雞老二食補雞湯,這是一間位在高雄市區的土雞城，由於現今異國美食林立。土雞城算是一種本土也是傳統的料理店，就快被遺忘，享用美食時，讓您有多一種選擇。,高雄市前金區七賢二路255號,高雄市,前金區,886-7-2828097,每日17:00-02:00,120.29209,22.63179,3.0
5,3819,C3_397000000A_000262,壹貳樓古蹟餐廳,有人因而為古建築的愛護而來「觀仰」，相信山形屋將以一種清新而富在地情感的知性風貌，持續與高雄人生活在一起。業者也因現有樓層來作為最直接的包裝命名「壹貳樓古蹟餐廳」。,高雄市鼓山區臨海三路14號,高雄市,鼓山區,886-7-5321233,每日11:00-13:30(晚至14:00)；17:00-19:30(晚至20:00),120.274783,22.622554,3.0
6,3820,C3_397000000A_000263,高雄第一家刀削麵,「高雄第一家刀削麵」適合喜歡粗厚、新鮮麵食的客人，因為點好麵食之後，廚師會拿起一大塊生麵團，技巧性的切下一片片約一公分寬的麵條，再搭配大塊牛肉、牛肉湯、牛筋或是肉燥，並且有蔬菜、豆腐等等小菜。,高雄市新興區忠孝一路257號,高雄市,新興區,886-7-2385591,每日11:30-13:50；17:30-19:50六日公休,120.30596,22.63155,3.0
7,3821,C3_397000000A_000264,成家鴨肉麵,老闆黃志明提到「母親傳下來的煙燻烹調法，許多過程是完全要靠經驗來掌握，像是煙燻的時候，一旦火侯時間過了，煙燻的美味就變成焦苦了。堅持傳統作法的結果，鴨子的味道吸引了許多人，讓不敢吃鴨肉的人也成了客人，是最讓店家感到驕傲的。,高雄市三民區澄清路719號,高雄市,三民區,886-7-3815672,每日08:00-21:00,120.34666,22.64652,3.0
8,3822,C3_397000000A_000265,徐家料理行,徐家起初是在市場販賣，後來了解客人反應漸佳，於是決定在自家前面做一個店面，原本只是一個不起眼的車庫，但經過老闆的精心巧思，裝潢一番，整個氣氛感覺都變的相當溫馨，再加上老闆堅持自己唯一的信念，就是做到「品質穩定」，讓顧客感受到店家的用心。,高雄市三民區禮明路93巷32號,高雄市,三民區,886-7-3822089,平日07:30-13:30；15:30-18:30假日07:30-13:30每週六公休,120.32471,22.64072,3.0
9,3823,C3_397000000A_000266,康家小燒餅店,高雄小燒餅已有50年歷史，純手工製作，用料實在，價格低廉，店家康木火表示傳統燒餅很快就會硬掉、口感差，所以研發小甜餅，使用國外進口的原料，可保持鬆軟，並且採用西式點心作法，堅持不使用回鍋油，出爐後不僅外皮金黃酥脆，內餡的香氣滋味令人垂涎。,高雄市三民區建國二路155號,高雄市,三民區,886-7-2359952,每日05:00-20:00(6:00-7:00燒餅種類較齊全),120.30762,22.63734,3.0
10,3824,C3_397000000A_000268,天福樓小館,堅持以最新鮮的食材，烹調出各道的美味佳餚，其歷久不衰的獨特風味，及道道地地的北平口味，正是大家一再前來，並介紹親朋好友美食珍饌的原因。 各式北平小炒、精緻小菜、烙餅、餡餅、粥、蒸餃、烤鴨、歡迎小型團體、家庭、生日聚餐‧從清淡口味的小米粥、爽口小菜、糟溜魚片……到美食口味的芹炒蝦仁、蔥爆牛肉、五更腸旺……都能滿足每個人的味覺；店內菜色非常多樣化不及備載，請您一定要來試試，我們將以最熱誠的服務，迎接閣下您的蒞臨 ！,高雄市苓雅區青年二路89號,高雄市,苓雅區,886-7-3387020,每日11:00-14:00；17:00-21:00,120.2987,22.61874,3.0
11,3825,C3_397000000A_000269,廣東汕頭勝味飲食店,已傳承三代的「廣東汕頭勝味沙茶火鍋」，仍堅持延續第一代創始人許清波先生的作法，湯頭及沙茶醬料都是遵循古法手工精心調配，製作過程雖費時又雜瑣，但都是為了要滿足老饕們挑剔的味蕾，有許多客人是從第一代吃到第三代，已經是當老爺爺、奶奶了更是攜家帶眷的來品嚐，在食材方面的挑選更是講究，特別推薦的是每日由台南善化原場地直送低溫冷藏新鮮牛肉，特殊的刀工切法讓牛肉本身不論是刷、燙或是熱炒，都能夠呈現最佳的口感，店內的五花豬肉片和羊肉片，還有更加推薦沙鍋魚頭，都是老饕客常點的食材。,高雄市鹽埕區七賢三路65號,高雄市,鹽埕區,886-7-5511352,每日11:00-14:00；17:00-00:00,120.28082,22.62437,3.0
12,3826,C3_397000000A_000270,鄧師傅滷味,鄧師傅餐飲在高雄生根已有二十多年，從第一家中正店開始，我們一直秉持著『今日的努力、明日的信譽』及『品質是保證、過程是關鍵』的經營理念，不斷的改進、不斷的重複實踐。在沒有做任何廣告宣傳下，二十多年來鄧師傅餐飲的口碑，藉由顧客信賴、口語相傳， 在南臺灣地區已有近千萬人次光顧消費，也因此榮獲1998年消費者推薦最佳餐廳。同時在國際化的過程中，經由所有同仁的努力，於1999年榮獲優良商店連鎖體系國家認證的肯定、2000年榮獲HACCP認證、2002年獲GHP認證及2004年經濟部商業司GSP金牌服務國家認證。,高雄市新興區中正三路82號,高雄市,新興區,886-7-2361822,每日11:00-21:00,120.30756,22.63126,3.0
13,3827,C3_397000000A_000274,寒軒國際大飯店-觀海軒中餐廳,寒軒國際大飯店 40 樓觀海軒中餐廳，為南台灣最高的中餐廳，以港式珍饌及中華料理聞名，供應道地港式飲茶、粵菜料理，極受饕客們喜愛。擁有大面落地觀景窗的觀海軒，可覽盡高雄港、遠眺旗津及高雄壽山美景，讓用餐更添幾許悠閒。,高雄市苓雅區四維三路33號40樓,高雄市,苓雅區,886-7-3322000,每日11:30-14:00；17:30-21:00,120.31084,22.61917,3.0
14,3828,C3_397000000A_000275,小王牛肉麵,在六合路上的小王牛肉麵館，老闆王士春表示堅持採用半筋半肉的上品牛肉，筋中帶Q，配上獨家特殊藥材熬燉，肉鮮湯美，仔細和老闆一探究竟後，發現此店牛肉竟是採用當日現宰的土產牛肉，讓人忍不住一口接著一口，店裡的招牌菜特製牛鞭麵，不僅男的吃可以滋補身體，女性在經期過後食用，更可以養顏美容，更值得一提的是，店內的「燉牛鞭」和「牛尾」更是看了口水直流，這絕對是全台灣從北到南走透透，再也品嚐不到的美食了。,高雄市新興區六合一路94-1號,高雄市,新興區,886-7-2360075,每日11:00-21:00,120.30805,22.63267,3.0
15,3829,C3_397000000A_000276,龍珠灣餐廳,特別請出具有五十年設計經驗的資深林設計師重出江湖，全新設計裝潢超大空間的龍珠灣餐廳，配備有一流完善的燈光、空調、影音設施。大、中、小包廂空間規劃，都設有KTV，卡拉OK，還配合深具服務熱忱及經驗的”龍珠灣外場服務團隊”。內場有全新自動化廚房設備，另外獨立設有素食廚房，用心至極備感溫馨。,高雄市三民區有光路43號,高雄市,三民區,886-7-3972930,每日09:00-14:00；16:00-20:00,120.33416,22.63666,3.0
16,3830,C3_397000000A_000277,大都邑餐廳,自民國七十八年成立至今，以『精緻料理，專業服務，大都邑和您一起精彩生活』的理念，造就了大都邑公司的一貫宗旨，並『以多年的服務經驗與品質保證，獲取最高評價的口碑』，承辦屏東縣議會大樓落成典禮餐會、陸軍官校畢業典禮餐會、海軍司令部集團結婚餐會等無數場次餐會及茶會，一路走來，精益求精，始終如一。,高雄市三民區臥龍路47號,高雄市,三民區,886-7-3850000,每日08:00-19:00,120.32954,22.63833,3.0
17,3831,C3_397000000A_000278,康平刀削麵(五彩元寶),「康平刀削麵」以中國傳統五行做變化，以高雄市遠洋漁業作基礎，利用本地特產旗魚、鮪魚、雞肉、蝦仁、軟絲為餡心，菠菜、枸杞、蕃茄汁、墨魚汁為皮，做出綠色的翡翠魚餃；白色的白玉旗魚餃；紅色的蕃茄蝦仁餃；黑色的墨香軟絲餃；黃色的枸杞雞肉餃。,高雄市苓雅區苓雅一路265號,高雄市,苓雅區,886-7-3328338,每日10:30-20:00每週日公休,120.30853,22.62029,3.0
18,3832,C3_397000000A_000279,美濃客家菜,爐子上的蔬肉燉鍋，把古老的紅磚砌牆燻得微溫，遠遠就能看到二層樓高的建築，搭配原木桌椅，還有一群遠道而來的饕客。 推薦餐飲：客家封肉蹄膀、客家野蓮。 交通資訊：捷運紅線左營站1號出口，重和路右轉華夏路，快速道路橋下(全程步行約15分鐘)。,高雄市左營區華夏路1062號1樓,高雄市,左營區,886-7-3431100,每日11:00-14:00；17:00-21:00,120.30726,22.68251,3.0
19,3833,C3_397000000A_000280,四海一家,左營區最大型一層樓建築的喜宴場所，有可容納百桌的宴會大廳及親友聚餐的雅緻小廳，能享受到精緻的美食佳餚，味美價廉，是親友聚餐、喜宴盛會等最佳的場所。 餐廳緊臨海軍軍區圍牆外，周圍有樹蔭林立寬廣的停車場及休憩的小公園，帶給您愜意的用餐環境，遠離都市的塵囂。除了餐廳外，旁邊還有平實的住宿部。,高雄市左營區實踐路211號,高雄市,左營區,886-7-5812087,每日11:30-13:30；17:30-21:00,120.28781,22.68944,3.0
20,3834,C3_397000000A_000281,天仁茗茶喫茶趣,店內設二間貴賓室，可提供顧客用餐品茗，另設有投影設備，可提供商務人士會議之需求，及讓愛茶人抒發茶情的園地。喫茶趣位於大遠百12F，視野佳，在餐點上訴求食材天然健康及餐點美味，是享受喫茶樂趣的好情境，喫茶趣以多年來累積的對茶的專業及堅持，提供愛茶人多元的茶品及茶料理選擇，另設有茶禮品區是送禮的最佳選擇。,高雄市苓雅區三多四路21號12樓,高雄市,苓雅區,886-7-3383528,平日11:00-22:00 假日11:00-22:30,120.30395,22.61307,3.0
21,3835,C3_397000000A_000283,正忠排骨,正忠排骨飯起源於高雄市，創立於1991年，創辦人王致中先生熱心社會公益。秉持「取之社會，用之社會」的理念，力挺各類公益活動。取名「正忠排骨飯」，有一段鮮為人知的故事，王老闆創業之初，在三民區正忠路向黃正忠先生租屋經營小吃店。與”正忠”二字結下不解的因緣。故以及副本土味的「正忠排骨飯」為名，王致中董事長，捐贈「排骨飯免費券」贊助捐血活動，更將企業公益化，每一間分店都是伊甸社會福利基金會的守護商店。,高雄市三民區正忠路63號,高雄市,三民區,886-7-3853850,每日10:30-20:00,120.33017,22.64232,3.0
22,3836,C3_397000000A_000284,南臺灣餐飲店,在這邊可以品嘗道地的茂林原鄉風味餐，如「吉拿富」、「綁粽」、「石板烤肉」、「香蕉樹豆湯」、「香筍豆腐」等，都是餐廳女主人「玉梅姐」的創意料理。此外，當地的特色植物─月桃，除了可以利用本身不同的粗細，編織成大大小小的提袋外，還可以在料理中擔任最佳配角， 如「吉拿富」這道料理，利用了月桃梗，將小米、山豬肉、芋頭粉等食材綑綁，再進行蒸煮，當打開鍋蓋的同時，淡淡的月桃香味四溢，猶如大自然的芬多精，讓人享受與沉溺。 如要品嚐原鄉風味餐， 請先預約 。,高雄市茂林區茂林里 113號,高雄市,茂林區,886-7-6801893,每日11:30-21:30,120.67175,22.88654,3.0
23,3837,C3_397000000A_000286,懷玉美食,進入多納里後，在門口不遠之處就可看到大大的招牌寫著「懷玉美食」，裡面的餐點非常具有原民風味，好吃又不貴，山蘇爽脆可口，石板烤肉 Q 嫩彈牙，還有一股微醺的柴火味，風味之獨特，是只有來到多納，才會有的原民風味。 消費推薦商品: 石板烤肉、原民風味餐。,高雄市茂林區多納里 93 之 1 號,高雄市,茂林區,886-7-6801173,平日10:00-15:00(16:00)假日10:00-17:00,120.78096,22.92212,3.0
24,3838,C3_397000000A_000287,燕巢風味外省麵,這家餐館古樸淳實、內在更是真材實料、完全是純手工製作的中版〈型〉麵條，麵條Q勁十足、配上 獨特的醬汁、讓人不禁回味！老闆標榜客人第一、服務至上。推薦〈牛肉麵、牛肉拌麵〉。,高雄市燕巢區中民路674號,高雄市,燕巢區,886-7-6161493,每日10:30-14:30；17:00-20:30 週六公休,120.35893,22.79314,3.0
25,3840,C3_397000000A_000289,泥火山圓伯土雞城,燕巢區因為有著獨特的自然景觀，一路上山就看到這種有如月球表面的山峰座落，加上夕陽黃昏，好不壯觀啊 ，而在這泥火山頂，最著名的就是這獨有的泥漿雞啦！！這泥漿雞在加入半瓶米酒後 ，裝進隔熱帶，外層再包上報紙，就要裹泥漿了內～之後烤一烤就可以吃了。 好吃的東西是值得等待的，在這同時當然就要去著名的泥火山探險，享受自然景觀， 而且這可是全台特有的泥漿火山喔，因為是自然保留區，所以入內一律要填寫個人資料啦。這可是大自然的藝術品啦，火山噴流口能間歇性地噴出泥漿，近距離觀看還可以聽到噗通噗通的聲響內，這個烏山頂泥火山的噴泥錐，可是全省規模最大的非常值得來觀看，其中一座已成休眠狀態 兩座尚在活動中，但是爆發的可能性極低啦 ，大家可以放心。那個泥漿雞差不多也好了！這不但鎖住了雞的原汁原味，也鎖住了美味啊 ！所以這個湯汁更是精華中的精華，喝起來米酒飄香，順口不膩，滋補養生。,高雄市燕巢區深水里烏山巷200號,高雄市,燕巢區,886-7-6153879,每日10:00-20:00不定休(請預先電話詢問),120.41272,22.78211,3.0
26,3841,C3_397000000A_000290,大中包子店,介於豫湘美食和北方碳烤燒餅店之間；道地的北方口味，全手工製作的鮮美包子，最代表眷村懷舊味，熱騰騰的包子一口咬下，酸菜的甘甜、豬肉的鮮美、香辣的口感，令人永遠都忘不了的好滋味。,高雄市左營區城峰路309號,高雄市,左營區,886-7-5889334,每日08:30-17:00,120.29199,22.67617,3.0
27,3842,C3_397000000A_000291,克難美食館,克難美食館是從過去的自立新村搬過來的，賣的都是過去眷村的家常菜，像是紅燒黃魚、魚香肉絲、糖醋排骨等，此外，愛吃韭菜水餃的朋友，水餃內餡韭菜分量很多，香氣逼人，水餃皮厚薄適中，是不錯的選擇，還有麵食、飯類、小菜、滷味等，都帶有懷舊眷村味。,高雄市左營區城峰路56號,高雄市,左營區,886-7-5811905,每日11:00-14:30；17:00-21:00週二公休,120.28931,22.67395,3.0
28,3843,C3_397000000A_000292,余家第一家正老牌刀削麵,用餐時間客人總是絡繹不絕，大家為的就是要嚐到招牌的刀削牛肉麵，老闆現削現煮，煮出來的麵條超有嚼勁，除了湯的牛肉麵，店裡還有一種牛肉乾拌麵，醬汁格外香濃。,高雄市左營區左營大路 611-1 號,高雄市,左營區,886-7-5823683,每日10:45-14:00；16:45-20:00 每週一公休,120.29803,22.69213,3.0
29,3844,C3_397000000A_000293,北方麵食老牌吃吃看,這裡主要賣北方麵食，從餅類到麵食都有，麵糰現揉，餅類有捲餅、餡餅、烙餅、蔥油餅、韭菜盒子等；麵食類則有牛肉麵、大滷麵、榨菜肉絲麵等，水餃與蒸餃也都深受大人小孩喜愛，口味傳統又道地。,高雄市左營區海功路14號,高雄市,左營區,886-7-5825053,每日10:30-14:00；16:00-20:00,120.29879,22.69372,3.0
30,3845,C3_397000000A_000294,三牛(犇)牛肉麵,三隻牛疊在一起的「?」字念ㄅㄣ，牛肉麵用的麵條是手工拉麵，口感彈Q又有嚼勁，牛肉則選用牛腱心，帶一點筋。吃起來滿軟嫩的，湯頭則放了大量蔥花和小白菜，味道濃郁好喝。,高雄市左營區勝利路85號,高雄市,左營區,886-7-5887264,每日11:00-20:30,120.29278,22.6782,3.0
31,3846,C3_397000000A_000295,楊記餡餅粥,位於鳳山區光遠路上，是一家老字號的北方麵食館，除了蔥油餅、韭菜盒子、蒸餃、捲餅、餡餅和小米粥外，也賣牛肉麵和炸醬麵，店家的餡餅飽滿又扎實，吃的時候要小心，以免噴汁被燙口。,高雄市鳳山區光遠路303號,高雄市,鳳山區,886-7-7423777,每日11:00-13:30；17:00-20:00,120.35747,22.62589,3.0
32,3847,C3_397000000A_000296,王冠牛肉麵館,已有50年歷史的王冠牛肉麵館，以融合老家安徽和四川口味，研發出獨門的紅燒牛肉麵，湯頭香醇甘甜、麵條彈Q滑順、牛肉軟嫩不柴，營造出整體好口感，是鳳山區知名的牛肉麵館。,高雄市鳳山區光復路二段91-3號,高雄市,鳳山區,886-7-7474266,每日11:00-14:30；16:30-20:30,120.34735,22.6291,3.0
33,3848,C3_397000000A_000297,阿三麵,阿三麵其實是非常簡單的古早味乾麵，麵條燙煮後僅以醬油和豬油拌過，再加上豆芽菜和豬肉片，儘管不放肉燥，卻可以讓人忍不住一口接一口，如果您是重口味一族，拌入岡山特有的豆瓣醬，風味更佳。,高雄市岡山區維新路2-2號,高雄市,岡山區,886-7-6216930,每日07:30-17:00,120.29561,22.79345,3.0
34,3849,C3_397000000A_000298,沈家包子,沈家包子除了有純手工自製的肉包、菜包還有層次豐富的花捲，口感Q彈有嚼勁，另外猶如法國千層派的外省千層糕，共有甜、鹹和南瓜等三種不同口味，甜的加冬瓜糖，鹹的則夾肉，至於南瓜口味則有著淡淡的香甜味。,高雄市岡山區大義二路86號,高雄市,岡山區,886-7-6252318,每日1400-賣完為止,120.28504,22.78846,3.0
35,3850,C3_397000000A_000300,鼎泰豐,創立於1958年的鼎泰豐，在1972年由原來的食用油行轉型經營小籠包與麵點生意。 開賣小籠包後，便用心專注於品質與服務的提升，來自四面八方的佳評如潮，並在各家美食報章雜誌的介紹下，漸入佳績，至今不僅是一般市民的最愛，更是許多政商名流、國際級影星讚不絕口指定必嚐的頂級美食。1993年1月17日鼎泰豐被紐約時報評選為全球十大最具特色的餐廳之一，且更被評選為世界十大餐廳中的唯一華人餐廳。 2010~2012年香港分店更是獲得世界級美食權威米其林一顆星的評鑑，這是台灣餐飲業品牌的殊榮，也是台灣餐飲品牌第一次獲得米其林的肯定，台灣本店與世界各地的分店更是與有榮焉。 鼎泰豐海外分店遍及美國、日本、韓國、新加坡、中國、香港、印尼、馬來西亞、澳洲與泰國...等國家。鼎泰豐的美味，不僅征服台灣人的味蕾，更是要讓全世界都能一同享受到這份來自台灣的經典美味。,高雄市左營區博愛二路777號B1(漢神巨蛋購物廣場),高雄市,左營區,886-7-5533312,平日11:00-21:30假日10:30-21:30,120.30307,22.67003,3.0
36,3851,C3_397000000A_000301,山東姥姥麵食館,推開復古大紅門，看到牆上的大陸剪紙裝飾與古典儉樸風格，您就是進了「山東姥姥」家。蒸籠與爐台上的熱氣，撲鼻而來的有餃類的鮮、麵類的濃、餅類的香，多款北方餐點供您選擇，這可是老闆王觀亭的母親，分享自家的傳統手藝的一份心意。,高雄市鼓山區裕誠路1678號,高雄市,鼓山區,886-7-5540303,每日11:00-21:00,120.294235,22.661511,3.0
37,3852,C3_397000000A_000302,劉家酸菜白肉火鍋,同樣是讓人回味的眷村美食，另一家50年的老店，原先的老闆是以刀削麵與水餃等麵食類起家，再轉交給現任老闆王鴻庚之後，除了手藝與口感到度，自己從書籍資料中摸索研究，發展出令人驚嘆的招牌酸白菜火鍋。一桶桶正在發酵的酸白菜以人工定時翻動，夏天醃製的時間約3~5天，冬天則需約一個星期，打開後散出沉沉的酸香味，不僅不嗆鼻，還帶點自然酵素香氣。以雞骨架熬煮兩小時的湯底，刷上一片薄而不油的豬肉片，搭配酸白菜的誘人香氣，真是美味極品！,高雄市左營區介壽路9號(中正堂旁),高雄市,左營區,886-7-5816633、886-7-5823050,每日11:00-22:30 除夕公休(特殊優惠時段14:30-16:30；21:00以後火鍋半價),120.279943,22.684263,3.0
38,3853,C3_397000000A_000303,高雄國賓大飯店-川菜廳,中國古典風韻與現代美學設計相契合，象徵傳統與創新。五星級的精湛廚藝，提供正宗傳統、口味獨到的四川料理，值得再三品味。,高雄市前金區民生二路202號,高雄市,前金區,886-7-2115211,每日11:30-14:00；17:30-21:00,120.29059,22.62405,3.0
39,3854,C3_397000000A_000305,水源羊肉爐,最著名的招牌羊肉爐，堅持選用每日現宰的黑山羊，採用上等排骨部位，以十全大補為基礎，搭配數十種中藥秘方，及特殊藥酒醃肉與提味。加了蕃茄的黑亮湯頭，醇厚沉香、不燥不膩；排骨沾上特調醬料，Q嫩夠味好口感，搭配蔬菜與凍豆腐，此般絕妙滋味，也吸引了不少知名藝人與政商名流前來品嚐。 店內提供了數不清也看不盡的菜色，有多款羊肉料理現點現炒，特別推薦大骨湯，大骨外有富含膠質的肉與筋，內有可用吸管品嚐的濃郁骨髓，兼具趣味與美味。 老闆娘阿香姐忙進忙出熱情的招呼著，堅持不漲價，就是要讓每位遠道而來的客人輕鬆享受一整桌的佳餚，自在的吃飯喝酒聊天。特別請大家認明，本店僅小港一家分店，外面絕無其他分店。歡迎大家呼朋引伴的來享樂！,高雄市鹽埕區七賢三路255號 (興華街口，鹽埕分局對面),高雄市,鹽埕區,886-7-5212590,每日17:00-01:30每月近月底公休一日，日期不定,120.28446,22.630866,3.0
40,3855,C3_397000000A_000306,牛老大牛肉館,牛老大牛肉館已營業13年，之所以能受饕客青睞的原因，在於老闆高進吉對食材品質的堅持，選用成本比一般貴上三倍，且絕無灌水的珍貴台灣牛。精挑細選頂級的五花肉與瘦肉，每日請專任司機在下午五點與九點半間，由台南直接送達至四家店，嚴格控管讓牛肉於八小時內送上桌，真的超新鮮。 牛老大的招牌牛肉鍋，改良滾湯沖生牛肉的傳統做法，參考日本涮涮鍋，讓客人輕鬆品嚐最佳口感的牛肉。湯頭完全不馬虎，選用牛大骨，搭配台灣的紅蕃茄、白蘿蔔與高山高麗菜，不需調味即可呈現自然的香氣與甘甜。牛肉以手工切片處理，老闆建議涮肉時，變色就剛剛好，佈滿油花的粉嫩牛肉，味濃鮮甜、Q嫩不澀，入口即化的滋味絕對會寵壞您的嘴。,高雄市前金區自強二路18號,高雄市,前金區,886-7-2819196,每日11:30-14:00；17:00-02:00週一公休,120.29658,22.62232,3.0
41,3856,C3_397000000A_000307,汕頭泉成沙茶火鍋,「泉成汕頭火鍋」成立於民國32年，以六把竹板凳和一罈沙茶醬開始，這獨特風味的沙茶與湯頭美味，經過一甲子的傳承，至今已到第三代，為服務北高雄顧客，年輕的老闆張瑞麟，幾年前在博愛路巨蛋站附近，開設裕誠旗艦店，讓這家高雄人從小吃到大的家鄉口味老店，流傳至今依然讓人回味。 當然這家店的主角就是─沙茶，除了融於湯頭、佐於沾醬，還有最多人選擇的沙茶牛肉中。香嫩的新鮮牛肉片，裹上特殊風味沙茶醬，淋到麵條及白飯中，絕妙搭配，真是說不出的好滋味。 搭配各種湯頭，你絕不能錯過頂級的沙朗牛肉及霜降牛肉，在冒著白煙的火鍋中輕涮幾下，佐獨家沙茶醬，吃過的都說讚，另外數十種的火鍋料及海鮮，都是當天採買，售完為止喔。 為了讓年輕消費者有多重選擇，現在更推出麻辣鴛鴦鍋，紅白鍋底搭配果凍鴨血及手工老豆腐，不僅是無限量供應，還贈送油切消脂茶，讓您在享受美食之餘，不怕造成身體負擔。,高雄市新興區中山橫路7號,高雄市,新興區,886-7-2885599,每日11:00-01:00 (收客至晚上11點30分),120.30128,22.63191,3.0
42,3857,C3_397000000A_000309,高雄圓山飯店萬壽廳,精緻美食是澄清湖圓山大飯店的最佳口碑之一，無論是以健康自然為訴求的萬福中餐廳，亦或供應精緻美饌的萬壽西餐廳、情趣雅緻的大廳酒吧，不分晨昏午晚都等著您來細細品嘗。,高雄市鳥松區圓山路2號,高雄市,鳥松區,886-7-3705911,每日11:30-14:00；17:30-21:00,120.34333,22.65725,3.0
43,3858,C3_397000000A_000310,意之仰酸白菜火鍋店,老闆堅持以自己研發有機高山大白菜來醃製，搭配純手工製作出傳奇中的黃金酸白菜，再加上本店特調養生酸白菜醬，以及精選白肉片，完全以台灣飲食文化為主題的在地味道呈現。,高雄市三民區河堤路620號,高雄市,三民區,886-7-3107888,平日11:00-14:00；17:00-22:00假日11:00-22:00,120.31527,22.66734,3.0
44,3860,C3_397000000A_000315,咖哩事典,咖哩事典堅持採用天然食材，不添加人工色素、香料的健康食品來服務廣大的顧客，開幕至今，廣受好評，咖哩事典不落俗套，不斷地研發獨特的新產品，堅持提供給顧客最天然、最獨特的餐點，因此，在日式餐飲的熱潮下，亦能建立起良好的口碑，亦帶動南部地區特有的飲食文化。,高雄市苓雅區青年二路91號,高雄市,苓雅區,886-7-3388811,每日11:30-21:30(最後點餐時間至20:45),120.29866,22.6187,1.0
45,3861,C3_397000000A_000316,陶板屋,結合簡約、溫馨、現代和風的用餐氣氛，猶如享受一場日式人文的視覺饗宴。,高雄市新興區中山二路482號,高雄市,新興區,886-7-2822225,每日11:30-14:30；17:30-22:00,120.3021,22.62097,1.0
46,3862,C3_397000000A_000317,鈺善閣,以「養生而不殺生」理念為您在生活壓力、緊張、憂心的環境裡，提供一種包含天然、健康、精緻與美味的素食料理，在這裡，我們呈獻給您的不只是素食或葷食的選擇，而是讓您懷著興奮及愉快的心情，感受我們用心料理的天然食材。 倘若用一句話來形容「鈺善閣 素 養生懷石料理」，我想是「一口詩意頌盡春夏秋冬四季」，這句話可以從菜色呈現過程理解，懷石料理一道道小巧而精緻，小菜與主菜之間，都是師傅細心安排計畫。就像是鈺善閣的Logo，它代表著大自然的生生不息以及中國人的思想，也就是我們所說的「圓滿」。,高雄市鼓山區美術北三路225號,高雄市,鼓山區,886-7-5227850,每日11:30-14:00；17:30-21:00,120.28657,22.66362,1.0
47,3863,C3_397000000A_000318,松野壽喜燒,專營日式壽喜燒及涮涮鍋，數十種菜色無限量任您單點。,高雄市新興區中正三路68號,高雄市,新興區,886-9-83669739,每日11:00-14:00；17:00-21:30,120.30864,22.631101,1.0
48,3864,C3_397000000A_000319,酒田日本料理,這家店開了大概有18年，以前是個不起眼的小店，但是打那時候起做的東司就很特別。」常客「陳小姐」回憶說：「雖然現在水果入菜早已不稀奇，可是10多年前，老闆就開始做炸榴槤等菜色，可以說是很大膽地嘗試。,高雄市三民區鼎力路38號,高雄市,三民區,886-7-3473047,每日11:00-14:00；17:00-21:30,120.32202,22.66319,1.0
49,3865,C3_397000000A_000320,大八日本料理,從民國79年大八民生店到現在~大八日本料理已滿20歲了！ 一路走來堅持”用心料理、用情服務”，我們一直不斷學習求新求變，為了呈現給喜愛大八的客人~更好的料理、更新的感官享受。感謝南部地區的好朋友一直支持大八並給我們鼓勵。,高雄市苓雅區四維二路144號,高雄市,苓雅區,886-7-3344141,每日11:30-14:00；17:30-21:30,120.31506,22.62141,1.0
50,3867,C3_397000000A_000325,帕莎蒂娜日本料理 Hashi,Pasadena歷經10年法式料理、義式料理、歐式烘焙經驗，帕莎蒂娜首度走入東方料理。秉持一貫對食材本質真味的洞悉與堅持，以及對每一種細微技術，日復一日永不懈怠的磨練與精進。帕莎蒂娜日本料理選擇天婦羅、壽司、甜點為主題，在日式簡約中追求極致，尋求上善如水之境。服務項目：午餐、晚餐。,高雄市苓雅區建國一路252號,高雄市,苓雅區,886-7-7253655,11:30-14:30；18:00-21:30 除夕至初二公休,120.32718,22.63314,1.0
51,3868,C3_397000000A_000326,手築日本料理,手築秉持一期一會的服務熱忱精神，把每次與顧客的際遇，都當作唯一的一次般珍惜著。,高雄市鼓山區昌盛路59號,高雄市,鼓山區,886-7-5557679,每日11:30-14:00；17:30-20:50,120.3001,22.66382,1.0
52,3869,C3_397000000A_000328,歐士達平價異國輕食館,除了好吃的義大利麵，還有多種口感獨特的焗烤，燉飯，日式蓋飯等異國風味輕食，每一樣多色、香、味俱全而且份量大，明亮舒適的環境，用心製作的料理，溫馨的服務，平價的消費，只要90元起，歡迎您來品嚐。,高雄市新興區錦田路52號,高雄市,新興區,886-7-2295332,平日11:00-14:30；17:00-21:30假日11:00-21:30每周二公休,120.31034,22.63002,1.0
53,3870,C3_397000000A_000329,NEW HOUSE歐風新食館,提供喜愛義式風味的顧客多種餐點選擇，義大利麵、燉飯、焗飯及各種不同風味之醬汁-健康蕃茄主義、北義大利奶油 醬汁、綠色奇蹟香草醬汁、活力點子南瓜醬汁、白酒醬汁、還有特殊異國風味的咖哩醬汁，並提供給愛好素食主義者素 食餐點，及特別的墨魚義大利麵讓想嚐鮮的您，多種不同的選擇。,高雄市左營區富國路117號,高雄市,左營區,886-7-5565338,每日11:00-22:00,120.30629,22.66075,1.0
54,3873,C3_397000000A_000337,冒煙的喬Smokey Joe's美式墨西哥餐廳,AMY`S墨式料理滿足南台灣饕客。1995年冒煙的喬美式墨西哥餐廳忠孝店帶動了休閒餐飲的一股旋風，為南台灣異國料理熱身。每天傍晚大排長龍等位，成為忠孝路的一景，享受大口吃肉大口暢飲的隨興風格；全館洋溢著異國料理的香氣，美墨風味人氣料理不脛而走，於是開分店的因子從消費者身上發酵而來。可觀賞世足賽轉播。,高雄市新興區忠孝一路208號,高雄市,新興區,886-7-2816123,週一～週五11:00~14:30/17:30~24:00週六/日及例假日11:00~24:00(詳細各分店營業時間請見官網),120.30601,22.6287,1.0
55,3874,C3_397000000A_000342,lovely童話,走進新堀江的小巷，在眾多服飾店中醒目佇立著一間特別的餐廳－lovely童話，落地窗式黑色風突顯了低調的華麗，店內的義大利麵、燉飯、焗烤、獨特的風味餐點可任由顧客品嚐，最大的特點在於非常多的菜色種類，店長精心於每季菜色的變化與突破，讓顧客感受到每天都像童話般的新奇。,高雄市新興區文橫二路143巷36號,高雄市,新興區,886-7-2820689,每日11:30-22:00每月最後一週週一公休,120.30282,22.62251,1.0
56,3875,C3_397000000A_000344,帕莎蒂娜 駁二倉庫餐廳,2012.1.31開幕 高雄首家倉庫餐廳，Pasadena結合駁二藝術特區濃厚的人文氣息，以美食再造倉庫故事，是駁二藝術特區的新地標。提供手工窯烤比薩、漢堡、燒烤、啤酒等；更為了紀念從1928年建造至今的老糖倉，設計推出了1928黑糖主題系列料理，適合三五好友歡聚分享。 服務項目：手工窯烤比薩、漢堡、燒烤、啤酒、牛排、海鮮、沙拉、湯品 / 麵包、生鮮、西點。,高雄市鹽埕區大勇路1號(駁二藝術特區 C3倉庫),高雄市,鹽埕區,886-7-5311106,烘焙坊：週二~週五11:30-21:00週六~週日11:00-21:00餐廳：週二~週五12:00-14:00、14:30-17:00、17:30-21:00週六~週日11:30-21:00,120.28544,22.61856,1.0
57,3876,C3_397000000A_000346,三民第一公有市場 - 彩秀素食,吃膩了大魚大肉，想換點不ㄧ樣的口味嗎？位於三民第ㄧ公有市場內的彩秀素食，提供了多樣選擇，讓顧客可以吃到美味又健康的素食，此外彩秀素食在三民第一市場已具有25年經營歷史，目前由第二代接手經營，希望能將傳統美味傳承下去。 店內美食有紫菜糯米捲、破卜子、香菇頭、八寶捲、芝麻沙拉捲、髮菜根、素腰子、炸芹菜、炸芋條、香豆腐、煙燻豆包等多樣素食，最特別的是以手工製作的『紫菜素肉捲、河粉沙拉捲、煙燻素肉捲』，為本店獨家料理，口感極佳，有著素食料理特有的清香，有機會可以親自來嚐鮮。,高雄市三民區中華三路285號,高雄市,三民區,886-7-2418293,每日05:00-賣完為止,120.29308,22.63588,8.0
58,3877,C3_397000000A_000347,菜根香素食館,菜根鄉素食館創立於民國七十二年夏。當時素食不普遍，為提供素食者方便，菜根鄉素食館因而成立。時至今日，歷經素食文化的遷流轉變，菜根鄉亦從傳統飲食方式，走向天然、健康、美味的新訴求。,高雄市新興區民生一路23號,高雄市,新興區,886-7-2273333,每日11:00-14:00；17:00-21:00,120.31301,22.62808,8.0
59,3878,C3_397000000A_000348,人道素食餐廳,秉持著最新鮮的食材，來推廣齋食料裡，烹飪出各種不同風味的菜餚，讓尊貴的您品嚐到健康養生的精緻天然美食，並相信我們的信念與堅持。 有機蔬菜沙拉、法式西餐、精緻中式料理、漢方養生料理、日式、泰式料理、港式點心、哈根達斯冰淇淋、精緻西點以及200多道各國菜餚盡在人道，請您千萬別錯過台灣第一品牌。,高雄市三民區九如一路426號,高雄市,三民區,886-7-3861234,平日11:30-14:00；17:45-21:00假日11:30-14:00；17:30-21:00,120.33056,22.63887,8.0
60,3879,C3_397000000A_000349,幸福素食館,曾謝捉月老闆提到由於自己吃素的原因，故想要經營一家素食餐廳，而後改為素食自助餐館，現由二姐妹掌管經營，依然接受外燴服務，另有麵食提供，因為少了經濟合菜，但如果三五好友來想要享用，老闆也可以現炒幾樣小菜，提供給愛好素食口味的顧客，是他們最佳的選擇。,高雄市左營區店仔頂路110號,高雄市,左營區,886-7-5827455,每日10:00-19:00,120.29053,22.68497,8.0
61,3880,C3_397000000A_000351,河邊餐廳(素食店),河邊素食餐廳成立於民國83年，有鑒於飲食文化變遷，顧客對優質健康飲食的需求，食用素食人口倍增，為服務更多的顧客，成立「河邊素食餐廳」，佔地約150坪，經營項目有自助餐、經濟合菜、便當外送。,高雄市前金區市中一路290號,高雄市,前金區,886-7-2612168,每日11:00-14:00；17:00-22:00,120.28872,22.63256,8.0
62,3882,C3_397000000A_000353,上海素食餐廳,上海起源於30年前，由老闆、老闆娘一點一滴辛苦建立，由屏東市上海路一間小吃部到現今的好幾間分店，上海堅持一致的理念，要讓客人吃的健康、自然、營養、美味，將素食成為不只是出家人或老年的專屬食物，而是老少咸宜的健康飲食。崇尚天然食材：如-福菇、珊瑚菇、百合、淮山、竹笙、黃茸、百果、榆茸、蔗苗等。,高雄市三民區九如二路128號,高雄市,三民區,886-7-3232745,每日11:00-14:00；17:00-21:00,120.30975,22.64099,8.0
63,3883,C3_397000000A_000354,佛光素食館,素食具有豐富的營養物質，如維生素、礦物質、纖維素……等，因此長期吃素的人，淡嗜慾、清神志、腦力敏捷、活力充沛、精神飽滿、耐力持久、延緩老化、身材姣好、少惱少病。現代人居於健康的理由，目前社會上吃素的人口一直在增加當中。但是飲食的方法與內容不正確的話，結果就不如想像中那麼完好，因此佛光素食注重的色香味內容，讓客人可以吃出營養，吃出健康，佛光素食是喜歡素食消費者的好選擇。,高雄市新興區林森一路6號,高雄市,新興區,886-7-2150059,每日10:30-13:30；16:30-20:30,120.305265,22.623828,8.0
64,3884,C3_397000000A_000355,慈香庭蔬食餐飲,提供健康的用餐環境，透過純天然新鮮食材，特選國內外養生蔬果，蔬菜熬製湯底入味，清爽少油膩，近百道多國蔬食料理，是健康新鮮養生的堅持。,高雄市三民區九如一路613號,高雄市,三民區,886-7-3964778,每日11:00-14:00、17:00-21:00週二公休,120.32472,22.63928,8.0
65,3885,C3_397000000A_000356,全省素食之家,『全省素食』如此簡單的名字，卻道盡了我們的堅持與理想。『素食潮』終將成為未來飲食文化主流，所以我們將健康養生素食文化，延伸到 台灣全省各個角落，『全省素食』由此而來。創辦人陳思女士，更希望以美食廣結善緣，並倡導善心、善念與善行。因為『全省素食』了解尊重 生命的意義，並達到健康養生及愛美的時尚潮流。並希望社會各界與素食同業共襄盛舉，開創『健康化、藝術化、生活化、時尚化』新古典主義 ~也就是『素食愛美新生活』。,高雄市前金區文武三街145號,高雄市,前金區,886-7-3338811,每日11:30-14:00；17:30-21:00,120.298288,22.620578,8.0
66,3886,C3_397000000A_000359,大溝頂阿囉哈滷味,從鹽埕發跡的滷味，創立於1949年，已經有近60年歷史了，據說當初是以手推車沿街叫賣，發展至今在高雄共有3家店，是名氣響叮噹的老店。阿囉哈滷味種類很多，約有30多種，好吃的秘訣在於以使用許多中藥材小火慢慢熬煮入味，濃郁的滷汁香味很重，難怪一吃就上癮，欲罷不能。其中許多人的最愛就是別稱「口香糖」的滷味鴨腱腸，因為很有嚼勁，很像口香糖的口感，味紸很香，非常適合當作下酒菜。?相關圖片：相關連結：大溝頂阿囉哈滷味,高雄市鹽埕區大仁路158號旁,高雄市,鹽埕區,886-9-30103443,每日11:00-01:00,120.28278,22.62649,4.0
67,3887,C3_397000000A_000360,國民市場魚丸料理,沒去過這家店，光聽名字會以為它置身在傳統市場中，到現場才知是一家裝潢非常新穎的明亮店面。其實「國民市場」的店名其來有自，沈家人在忠孝路夜市附近的國民市場內擺攤賣魚丸已30多年，各種手工製作的魚丸相當受老主顧喜愛。目前店內提供的丸子多達8種，鮮甜的湯頭融合了魚肉精華，拿來烹煮魚丸更是相得益彰，只要加上少許芹菜末，就是一碗令人再三回味的好湯。除了招牌魚丸湯外，店家特製的旗魚脯飯。以白飯淋上肉燥湯汁，再灑入香噴噴的旗魚鬆，佐以青翠的小黃瓜片，讓人忍不住一口接著一口扒絞肚子裡。,高雄市苓雅區林森一路243號,高雄市,新興區,886-7-2360867,每日11:00-21:00,120.30491,22.63475,4.0
68,3888,C3_397000000A_000361,黑輪伯仔,三民市場小小的巷弄裡，卻隱藏著許多美味又便宜的小吃店，其中靠近自強路口的這攤黑輪伯仔，雖然沒有店面，但每天都門庭若市，一走近就能聞到陣陣香氣，招牌烤黑輪幾乎是每位客人必點，由於是手工製作，烤至微焦的黑輪讓人食指大開，最近還推出麻辣口味，乍看之下不怎麼辣，可是後勁很強，喜歡吃辣的人可以挑戰。攤子還有賣糯米腸、香腸，以及種類很多的關東煮，價錢十分便宜，兩個人吃飽飽100元有找。,高雄市三民區三民街191號,高雄市,三民區,886-7-2011020,每日10:30-21:50農曆17號固定公休,120.29159,22.63548,4.0
69,3889,C3_397000000A_000362,清溪小吃部,位於三鳳中街市場內的清溪小吃部，店面小小的，賣的東西也不多，但每一樣都是招牌，因為料多實在，米糕、鹹湯圓、蝦丸、肉丸每種小吃都很夠味，如果想要嘗試每個口味，可以點一碗綜合湯，鹹湯圓、蝦丸、肉丸都有了，一碗湯三種口味，再加上米糕，點些切仔料，一點小錢就能吃得很滿足。店家還推出低溫宅配服務，滿足無法實地造訪的人，以及思念家鄉口味的遊子。,高雄市三民區三鳳中街80-1號,高雄市,三民區,886-7-2867767,每日11:30-20:00每週日公休,120.29422,22.63763,4.0
70,3890,C3_397000000A_000363,新興第二公有市場 - 香香肉圓,香香肉圓創業迄今已30餘年，此店老闆遵循古法採手工製作，不但用料紮實，每日前來品嘗的饕客絡繹不絕，甚至有客人不遠千里而來，只為品嚐屬於家鄉味的地方小吃，且該店曾受多家地區媒體報導，諸多政商、演藝界人士更是座上賓，還有許多遠赴外地發展之本地人，每逢南下必攜家帶眷到此回顧屬於童年的記憶和家鄉味，並帶回當為餽贈親友之伴手禮。 香香肉圓由一位阿嬤奮力經營，阿嬤經營的不只是ㄧ家肉圓攤而已，還典藏了許多高雄人的童年回憶，30年來足以改變許多人事物，唯一不變的是阿嬤對在地美食的用心經營和維護。,高雄市新興區建興里南台路161之10號,高雄市,新興區,886-7-2863179,每日06:30-13:00,120.29856,22.63545,4.0
71,3891,C3_397000000A_000364,鮮焗家,這是一家平民價位的小店，由於開在學校旁邊，所以都是便當價位的餐點， 推薦他的燻雞焗烤飯，只要60元還附上飲料、小布丁，真的很好吃，絕對是大碗又便宜的選擇。,高雄市三民區大昌一路38號,高雄市,三民區,886-7-3802901,每日11:00-20:30,120.32766,22.65312,4.0
72,3892,C3_397000000A_000365,月娥鴨肉,月娥鴨肉擁有二十多年的歷史，從挑選鴨子到滷味的中藥材，無不是遵照古法製成。選用養殖70-80天左右的中鴨，採當天現宰現賣，湯頭特色是用紅頭提味，紅頭則是每天用鴨油爆香。,高雄市前金區自強二路72號,高雄市,前金區,886-7-2114602,每日11:00-19:30每周三公休(建議事先打電話詢問),120.29587,22.62418,4.0
73,3893,C3_397000000A_000366,茗城小吃,老闆林俊宏表示他們的虱目魚丸絕對不含防腐劑及硼砂，吃了健康又安心，原料食材都是上等之選，只因為看到客人可以把他們的料理吃光是他最大的成就感，所以對料理可是十分講究，每天自己也會吃上兩碗，順便也可以嚐試口味。,高雄市旗津區通山路2號,高雄市,旗津區,886-7-5715858,每日05:00-13:00,120.26942,22.61299,4.0
74,3894,C3_397000000A_000367,鹽埕老攤冬粉肉,民國20年，從阿公挑扁賣冬粉肉算起，陳黃記的歷史至今已經有75年了，現在傳到第三代，用餐空間也改成古色古香裝潢的店面，老闆說，店鋪中擺放的古風裝飾比如電影海報、尪（台語ㄤ）仔標都是個人收藏，也會隨心情更換。招牌冬粉肉和米糕會顧及老客戶的權利，則追隨阿公的古早味不敢更改，老闆則推薦菜單上的瓷碗燉湯也是人氣料理唷！,高雄市鹽埕區北斗街10號,高雄市,鹽埕區,886-7-5218870,每日08:30-20:00每周三公休,120.2848,22.63177,4.0
75,3895,C3_397000000A_000368,金城鴨肉專門店,金城鴨肉所出產的各項產品，即其秉持此股固執的毅力，不惜成本且不放手的幹勁所創造出來的。幾凡親赴鴨場嚴選鴨隻，精調配料、試味……等無不係其躬親，鍥而不捨，歷經無數次的嘗試。亦常為了烹飪時間、方法、火候的掌控，緊守灶旁不離，雖寒天裡揮汗如雨，長夜觀察微調，做工用心之深，從金城鴨肉一道道價廉物美膾炙人口的鴨肉美食可為見證。,高雄市前金區五福三路62號,高雄市,前金區,886-7-2415419,每日10:00-20:30,120.29681,22.62192,4.0
76,3897,C3_397000000A_000371,郭家肉粽、碗粿,每天賣出將近1000個粽子！誰能想像50年前的肉粽郭還只是臨時攤販，不但飽受風吹雨淋之苦，還得擔心有天會被取締。如今他已擁有一家店面，更讓不少政商名流特別「聞香而來」。口味很簡單，但材料實在，服務迅速，是【郭家肉粽】贏得消費者青睞的主因。累積三代五十年製作肉粽的經驗，在高雄市小吃界享有一片盛名，吸引對台灣傳統小吃喜愛者的光臨。,高雄市鹽埕區北斗街19號,高雄市,鹽埕區,886-7-5616020,每日07:00-23:00(每月月中公休),120.28423,22.63166,4.0
77,3898,C3_397000000A_000372,尚芳土魠魚羹,「做生意強調細水長流，所以寧願薄利多銷，也不希望為了多賺客人ㄧ點錢，而去犧牲掉品質的要求。」老闆娘說，店裡賣的土魠魚羹所使用的土魠魚，不會參雜其他口感不同的土魠魚來魚目混珠，或進行加工，處理過程也非常嚴謹，即使怕腥味的客人來吃，也能吃到美味又新鮮的土魠魚羹。,高雄市鹽埕區富野路22號,高雄市,鹽埕區,886-7-5214520,每日10:30-19:30,120.28536,22.62784,4.0
78,3899,C3_397000000A_000373,555薑母鴨,九尾雞的湯跟外面不一樣，我們用了很多時間熬出來的滋味非常香，薑母鴨也是經過很多過程，跟外面真得不一樣。 湯頭非常濃郁，中藥香氣逼人，不自覺都會喝上好幾碗，天氣冷來喝更棒。鴨肉肉質鮮美，鴨皮在嘴裡好像一下就化開了！,高雄市三民區十全二路109號,高雄市,三民區,886-7-3211307,每日17:00-01:30,120.29988,22.64551,4.0
79,3900,C3_397000000A_000374,陳家鹽水鴨,看著一隻隻如同雙胞胎模樣的淡咖啡色鹽水鴨，優雅地排排掛上架，散發出誘人香氣，真令人口水直流。推薦您不可錯過另一道「香酥鴨」，濃郁的香氣有別於鹽水鴨的風味，很值得品嚐。另外千萬別忘了要搭配他們獨家的酸菜或四川泡菜，這樣吃來才會超夠味！,高雄市鼓山區明誠三路745號,高雄市,鼓山區,886-7-5546836,每日09:00-21:00,120.292957,22.660959,4.0
80,3901,C3_397000000A_000375,六合夜市-檸檬愛玉,老闆採用高山愛玉籽，將它削皮晒乾後，以一定的比例和水搓揉，做成軟中帶Q又入口即化的愛玉，再加上現榨檸檬汁，清爽可口、消暑解渴；另外可搭配粉圓、仙草的綜合口味，口味也很獨特；另一項人氣飲品-古早味粉圓，小小的粉圓香Q可口帶點黑糖的味道，可是本店40年的老招牌哦！也是一年四季都可以品嚐到的好味道。,高雄市新興區六合二路 89-1號前,高雄市,新興區,886-7-2873675,每日17:00-02:00,120.29885,22.6319,4.0
81,3902,C3_397000000A_000377,六合夜市-鄭老牌木瓜牛奶,看到招牌上滿滿都是名人的簽名，從名人到藝人，來過六合夜市的幾乎都喝過鄭老牌的木瓜牛奶，選用屏東上等淺黃木瓜、高雄牧場每日現送的特級鮮乳，加上獨家秘方熬煮的糖水，果汁香濃且散發出獨特的風味；新鮮飽滿的番茄切盤，配上獨特沾醬，成為名人老饕們的最愛。還有鄭老爹都會在攤位前親切的招呼客人點餐，英文、日文、廣東話、上海話皆可通，深受外國觀光客的喜愛，並且獲得96年高雄市政府建設局英語標章服務商店認證，所以千萬不要錯過喔！,高雄市新興區六合二路1號前,高雄市,新興區,886-7-2863074,每日16:00-02:00,120.30115,22.63256,4.0
82,3903,C3_397000000A_000378,六合夜市-方記水餃,六合夜市的招牌美食-方記手工水餃，最大的特色就是每張水餃皮，都是店家現場手工一張一張所?出來的；加上採用新鮮的溫體豬肉與韭黃所調配的內餡，以現包現煮的方式，讓顧客嚐到最新鮮的手工水餃。還有不要忘了點一碗料多實在的酸辣湯哦。”沒有好的食材，就沒有好的味道” 這是老闆堅持多年的經營理念，也是35年來六合夜市最夯的道地美食。,高雄市新興區六合二路 23號前,高雄市,新興區,886-936-423850,17:00 PM－02:00AM,120.30108,22.63258,4.0
83,3904,C3_397000000A_000379,六合夜市-鱔魚姐鱔魚麵,民國42年創立迄今已55年歷史，目前是第二代接班傳承台南傳統小吃-鱔魚麵。主要食材---鱔魚都是當日下午現宰，魚肉新鮮富膠質、養顏美容，加上店家自製的意麵一起拌炒，鮮甜香Q彈牙的好滋味，連大人小孩都無法抵抗；有許多都是三代同堂一起來品嚐，再加上鱔魚姐親切熱情的招呼，真不愧是六合夜市最受歡迎的招牌美食之ㄧ。,高雄市新興區六合二路16、18號前,高雄市,新興區,886-7-2860010,每日18:00-03:00,120.30125,22.63289,4.0
84,3905,C3_397000000A_000380,蔡家烏魚子,本店成立已20多年，是專賣有『高雄烏金』之稱的烏魚子/烏魚腱，烏魚在每年冬至前後二個星期，會從北海回流至高雄外海產卵，而漁民在此時所抓的烏魚也是最肥厚的(這是大海賜予漁民的年終獎金)，運用技巧取出烏魚子後再利用冬陽晒乾，富含深海DHA，廣受國內外遊客的喜愛，尤其更是日本遊客採買禮品的最佳伴手禮。烏魚腱是烏魚的胃，經清洗晒乾後再烘烤，其咬勁及箇中滋味更是令人回味無窮的。,高雄市新興區六合路與自立路口,高雄市,新興區,886-7-2862637,每日17:00-03:00,120.30115,22.63287,4.0
85,3906,C3_397000000A_000381,六合夜市海產粥、鹹圓湯,只要走進六合路與自立路口，可以看到大排人龍的攤位，就是六合夜市超人氣美食－海產粥與鹹圓湯，料多實在又新鮮的海鮮加上熬煮多時的魚高湯，煮成鮮美的海產粥是老饕們的最愛，傳統現包的鹹圓湯皮Q肉鮮，以及魚丸湯，也是令人無法抗拒的美食。,高雄市新興區六合二路94號前,高雄市,新興區,886-7-2872223,每日17:30-03:30,120.2987,22.63212,4.0
86,3907,C3_397000000A_000382,六合夜市-土魠魚羹,熱賣40多年的好味道。土魠魚是來自純淨無汙染的深海，捕獲後急速冷凍以保持魚肉新鮮；烹煮時先以獨門醬料醃製多時後，再沾粉現炸，堅持不用回鍋油，如此才能炸出金黃酥脆的外皮，而裡面的魚肉卻是細緻軟滑又彈牙。而以大白菜、扁魚所熬煮的高湯，再以太白粉勾芡，湯鮮清淡中帶點微甜；最後將現炸的魚肉放入魚羹中，再配上獨門調配辣椒醬、陳年五印醋、白胡椒，一碗招牌的土魠魚羹保證讓顧客百吃不厭、回味無窮。,高雄市新興區六合二路14號前(屈臣氏前),高雄市,新興區,886-7-2855057,每日16:00-01:30,120.30131,22.63291,4.0
87,3908,C3_397000000A_000383,永泰烤鴨夾餅,烤鴨夾餅是老闆每天將精選現烤的鴨肉，加上小黃瓜、洋蔥、酸菜以及老闆娘特地前往北京學習製作的甜麵醬，滋味甘美鮮甜，再夾上特製的脆餅，吃起來皮Q肉香不油膩，再加上特製的辣椒醬，口感酥脆讓人不禁一口接一口，也讓外國觀光客愛不釋口呢!所以來六合夜市絕對要來嚐嚐看喔!,高雄市瑞豐夜市第二排,高雄市,鼓山區,886-919-163604,週二17:00-01:00週四至週日17:00-01:00,120.30014,22.66581,4.0
88,3909,C3_397000000A_000384,輝哥鱔魚意麵,花枝意麵、鱔魚意麵,高雄市苓雅區光華二路438號,高雄市,苓雅區,886-7-7133369,每日17:00-12:00隔週一公休,120.31808,22.6179,4.0
89,3910,C3_397000000A_000385,互得惠企業有限公司-珍芳烏魚子禮盒,隨著台灣經濟的發達，環境的變遷，傳統產業卻逐日凋零，負責人林先生本著對家業的傳承及台灣傳統之熱愛，因此決定設立工廠擴大營業，並創立「珍芳廠」品牌，將人稱達人的父母親之畢生心力，用更專業更衛生的條件，行銷市場、放眼世界，實現扎根台灣，期望「台灣烏魚子」能行銷全世界，成為代表台灣的漁產品。,高雄市前鎮區新衙路296巷81弄13號,高雄市,前鎮區,886-7-8227488,08:30-17:30,120.3128,22.58248,4.0
90,3911,C3_397000000A_000387,老牌雄米糕店,鳳山傳承二代，50年家傳的米糕，米粒軟而不爛，肉燥香而不膩。再配上 以數種中藥燉煮的濃郁湯頭四神湯，又或者來碗由豬骨髓配合中藥慢燉而成 的湯品，還有老滷汁熬的豬腳、豬大腸等更是來客必點的小菜。,高雄市鳳山區興仁里五甲一路22號,高雄市,鳳山區,886-7-7410428,每日10:30-22:30,120.35813,22.62189,4.0
91,3912,C3_397000000A_000388,成男生碗粿肉粽,成男生店名的由來是拿老闆父子的名字各一字來取的：「男」是取自於父親，「成、生」是取自於兒子，以前還有「吃成男生碗粿，包生男生」的話流傳哩！所以店裡最有名的就是碗稞了，吃起來會有彈性。,高雄市苓雅區成功一路169號,高雄市,苓雅區,886-7-3335666,每日07:00-20:00每週三公休,120.2967,22.61621,4.0
92,3913,C3_397000000A_000389,菜粽李 菜粽,是高雄市區的粽子老店，老闆從包料到粽葉，都稟持一貫作法：米粒非長糯米不用，粽葉是自嘉義梅山買來的特級桂竹葉，而花生更是從各地花生園特選的上品，鬆軟得恰到好處。凡是來此吃菜粽，便附送一杯熱決明子茶，清爽解膩，也是店內一大特色。,高雄市苓雅區成功一路159號,高雄市,苓雅區,886-7-3313086,每日06:30-18:30,120.29682,22.61594,4.0
93,3914,C3_397000000A_000390,阿嬤古早味,販售粽子、擔仔麵等，料多實在充滿在地好味道。 阿嬤古早味位於高雄市路竹區大社路80號，經台一線北上右轉直走可達。,高雄市路竹區大社路80號,高雄市,路竹區,886-7-6073808,每日10:00-20:00週日公休,120.24054,22.8499,4.0
94,3915,C3_397000000A_000391,阿婆蔥油餅,這裡蔥油餅也別於一般的，除了原味的之外，最特別的就是她們裡面有加燒肉片，讓你呷好嘛呷飽，這種傳統的加料好味道，讓燕巢區的居民們是深深著迷啊。料豐味美、價格親民。這個總匯蔥油餅，吃下去就像嗑了一個便當一樣，飽足感滿分，食材眾多，搭配起來卻很Match，鹹鹹甜甜的滋味，讓人是意猶未盡啊。,高雄市燕巢區鳳雄里鳳旗路162號(清水寺前),高雄市,燕巢區,886-931-702172,平日11:00-18:30假日公休,120.35405,22.75324,4.0
95,3916,C3_397000000A_000392,燕巢廟口-大腸香腸專賣攤,這間烤香腸攤位在燕巢區有名的威靈寺前，小小的店面卻可以造創出不錯的商機，廣受到在地人的歡迎，在地營業已經長達５６年之久了。店內所販售的香腸和糯米腸，老闆都是完全當天純手工製作，並嚴格要求達到食品衛生安全標準，可以說是非常心。另外也因為吳老闆是純手工製作，雖然營業到晚上七點半，但是往往都會提早賣完。吳老闆說他堅持的理念就是「價錢公道、品質第一、衛生第一」，也因為如此才能打下如此好的口碑！！,高雄市燕巢區中民路540號(威靈寺前),高雄市,燕巢區,886-7-6163270,每日12:30-19:15隔週一公休,120.36361,22.79345,4.0
96,3917,C3_397000000A_000393,海青王家燒餅,原舊店位於海青工商對面、自助新村的巷口，自助新村拆除後已搬遷至左營大路的新店。店家賣的燒餅很特別，別人是燒餅夾油條，但他們卻是燒餅夾小菜，口感格外清爽，燒餅剪開後，由於外型像口袋，所以客人都戲稱口袋餅。,高雄市左營區左營大路2-43號,高雄市,左營區,886-7-5813491,每日05:30-12:00(12:30),120.28702,22.67604,4.0
97,3918,C3_397000000A_000394,鳳邑麵線,鳳邑麵線賣的是肉圓、米糕、四神湯等傳統的台灣小吃，麵線糊是店內人氣招牌，其肉羹以豬梅花肉製作，醃製裹粉後，放進大骨湯裡熬煮，小腸則事先清洗汆燙，並用自釀藥酒去腥，口感軟中帶Q，非常美味。,高雄市鳳山區安寧街2巷8號,高雄市,鳳山區,886-7-7100067,每日11:30-19:30,120.3536,22.61863,4.0
98,3919,C3_397000000A_000395,南台(雄)記虱目魚粥店,飯湯是南部特有美食型態，店家以虱目魚骨高湯做底，客人點菜時，將高湯加進白飯裡，再搭配蚵仔、虱目魚背肉切片、芹菜、蒜頭酥和肉燥，就是一碗熱騰騰、香噴噴的虱目魚粥。,高雄市鳳山區五甲一路22號,高雄市,鳳山區,886-7-7470957,每日23:00-07:30每周二公休,120.35813,22.62189,4.0
99,3920,C3_397000000A_000396,南台春捲,曾榮膺鳳山傳統小吃冠軍的南台春捲，以配料豐富多樣而聞名，蔬菜、蛋皮、香腸等餡料把春捲皮塞滿，加上香甜的花生糖粉，每一口都是香鹹又甜美，就算不是清明時節也要來嚐鮮。,高雄市鳳山區五甲一路12號,高雄市,鳳山區,886-7-7453415,每日09:00-23:30,120.35835,22.62201,4.0
100,3921,C3_397000000A_000397,煎、炒蛋麵,岡山特有的眷村美食，先用炒鍋將雞蛋、蔥花和豬絞肉拌炒過，鋪在彈Q有嚼勁的麵條上，最後再上頭加一顆半熟的荷包蛋，吃的時候，用筷子把蛋黃戳破，讓金黃色的蛋液流出，拌勻後一起入口，就是超美味的煎炒蛋麵。,高雄市岡山區後協路55巷24號,高雄市,岡山區,886-7-6254847,平日：09:30-13:25周末及國定假日公休,120.28231,22.78482,4.0
101,3922,C3_397000000A_000398,冬粉王,民國59年開店以來，冬粉王搬過三次家，從公園二路、大勇路，到現在的七賢三路，雖然只是簡單的冬粉料理，但蘊藏的美味，卻教許多離鄉遊子念念不忘，大骨高湯是店家的美味秘訣，搭配彈Q滑順的冬粉，不論乾的或是湯的，都很好吃。,高雄市鹽埕區七賢三路168號,高雄市,鹽埕區,886-7-5514349,每日09:00-20:00,120.28286,22.62719,4.0
102,3923,C3_397000000A_000399,米糕城,開店逾60年的米糕城是鹽埕埔知名老字號，就算是小小的一碗米糕，從糯米、肉燥、魚鬆到小黃瓜，整個製作過程全都不假手他人，Q彈的糯米淋上香濃的肉燥，加上新鮮的魚鬆與清爽的小黃瓜，不會太鹹，也不會軟黏，吃起來蘊含著傳統小吃的古早美味。,高雄市鹽埕區大仁路107號,高雄市,鹽埕區,886-7-5333168,每日09:00-22:30,120.28425,22.62558,4.0
103,3924,C3_397000000A_000400,鴨肉珍,沒有醒目的招牌，客人卻源源不絕，鴨肉珍靠著好口碑傳頌千里，強調原汁原味的鴨肉，不需多餘的佐醬，就能吃出鴨肉的鮮嫩甜美，人氣紅不讓的鴨肉飯是用超大片的厚切鴨肉，加上醬油、蔥酥和古早味肉燥；肉汁和滷汁交融出的誘人滋味，讓人食指大動，吃得一點都捨不得剩。,高雄市鹽埕區五福四路258號,高雄市,鹽埕區,886-7-5215018,每日10:00-20:00,120.28091,22.6259,4.0
104,3925,C3_397000000A_000402,小洞天燒餅,小洞天燒餅位於岡山的舊省道路上，在北高雄和老饕們的食單中可是小有名器的，不管是早上還是下午，只要看見長長的排隊人潮就表示你到小洞天附近了。?這裡主要販售食材是燒餅和油條、酥餅，不過最出名的就是酥餅了，不僅價廉味美，酥餅外層酥脆，內層綿軟有層次，甜度也適中，不僅可當早餐，也是下午茶或是宵夜的首選之一喔。,高雄市岡山區岡山路333號,高雄市,岡山區,886-7-6221210,每日05:30-09:30；13:30-18:30每週一公休,120.29541,22.79613,4.0
105,3926,C3_397000000A_000404,倫敦.唐寧街十號英國茶館,以英國首相館指命名的唐寧街十號，用原木的色調、暖黃色的燈光，打造出純正的英式風格。 標榜著完全的現點現作，就連咖啡也是客人點用才開始磨咖啡豆；而這裡的用料非常的講究，完全採用義大利的頂級咖啡豆，料理的食材也是經過精心的挑選，平實的價格更是令人驚艷。 經典的英式風味裝潢，店內播放著迷人的JAZZ樂，處處充滿著歐式的輕鬆優雅氣氛，讓你隨時都可以感受到。,高雄市苓雅區林泉街13號1樓,高雄市,苓雅區,886-7-7266699,每日11:00-22:00每週一公休,120.31978,22.62345,5.0
106,3927,C3_397000000A_000405,夏威夷毛伊咖啡,毛伊咖啡一律使用美國夏威夷原裝進口咖啡豆，這裡的咖啡風味獨特，提供有香草/巧克力/香蕉等各式風味任君選擇。,高雄市左營區博愛二路316號,高雄市,左營區,886-7-5577100,每日08:30-23:30,120.30349,22.6629,5.0
107,3928,C3_397000000A_000406,尚品咖啡,在高雄講到咖啡的品質保證，想到無非就是在高雄十多年品質口感的保證的尚品咖啡，而尚品咖啡漢神店，就是2002年尚品的最新保證。,高雄市苓雅區新田路393號,高雄市,苓雅區,886-7-2158550,每日08:00-22:00(供餐至21:00),120.29427,22.61893,5.0
108,3929,C3_397000000A_000407,杯子咖啡館,顧名思義，杯子咖啡館，就是一家到處都可看到可愛杯子的咖啡館；因為老闆本身喜歡收藏杯子，因此便以杯子為主題開了這家咖啡館，店內陳列了各式各式的杯子。,高雄市苓雅區中興街167號,高雄市,苓雅區,886-7-3392470,每日11:30-22:00,120.303512,22.619521,5.0
109,3931,C3_397000000A_000409,御書房藝廊,創造一個空間，能夠結合興趣、工作和學習，真的很幸福。御書房成立於民國73年9月28日，起源於心中一個藍圖，一個溫馨的生活空間，可以賞圖、可以談心、可以喝茶、可以吃飯、可以讀書、可以開會。,高雄市苓雅區和平一路149之14號,高雄市,苓雅區,886-7-7213556,每日10:30-23:30,120.31995,22.62465,5.0
110,3932,C3_397000000A_000410,步道咖啡,中正路與和平路交接處種植高大蒼綠的樹冠，兩旁人行道稱起綠傘，讓陽光如黃金雨般灑入了如此美景，步道咖啡主人選擇在此營業。這兒白天有古典樂，晚上有爵士樂，日夜輪流播放著，是專為內斂的咖啡愛好者所設計的悠閒自在氛圍。,高雄市苓雅區中正二路67號,高雄市,苓雅區,886-7-2231881,週一、三、四：11:30-23:00週五、六、日：11:00-00:00週二：未營業,120.31749,22.63006,5.0
111,3933,C3_397000000A_000411,咖啡鳥義式濃縮咖啡館,我們在一條靜靜的小巷，沒有太光鮮亮麗的外表，不過我們一直很用心。用心為你做好每一杯咖啡以及每一份三明治。我們也一直很努力，努力維持著這兒難得的自在和諧與環境幽雅的氛圍，如果哪天路過，請你一定要進來體驗一下！,高雄市苓雅區青年一路24號,高雄市,苓雅區,886-7-2272839,週一至週五：09:00-17:00週末及國定假日：08:30-17:30,120.31404,22.62424,5.0
112,3934,C3_397000000A_000412,金礦咖啡,被媒體喻為”港都咖啡傳奇─金礦咖啡，成立至今已逾十年，一直期許為”平價奢華簡單幸福的傳遞者”，多年來提供消費者「便利、新鮮、美味」的咖啡、茶飲、糕點，目前全台門市為高雄15家及台北3家。各門市資訊及優惠歡迎至官網或來電詢問。,高雄市前金區自立二路107號(近六合夜市),高雄市,前金區,886-7-2867799,依各門市營業時間,120.298532,22.631717,5.0
113,3936,C3_397000000A_000414,老爸咖啡,位於高雄機場旁的咖啡館，有絕佳的視野，可以觀看飛機的起降，體驗巨鳥的呼嘯聲，以及喝到好咖啡及小點心。,高雄市小港區明聖街135巷10弄16號,高雄市,小港區,886-912-987852,週五至週三10:00-00:00週四14:00-00:00,120.34418,22.57852,5.0
114,3937,C3_397000000A_000415,美濃客家驛棧擂茶舖,擂茶在客家人豐富多彩的飲食文化中，是最具代表性的一種美味，製作方式古樸典雅，充分表現客家人對中國古代傳統文化的傳承，相傳至今仍是客家人日常生活的主食之一，也是待客的佳餚。擂茶的茶味純，香氣濃，不僅能生津止渴，清涼解暑，而且還有健脾養胃，去熱止渴，提神醒腦、滋補長壽的功能，海峽兩岸許多客家莊仍然保留這種美味文化。,高雄市美濃區成功路142號,高雄市,美濃區,886-7-6818475,每日10:00-18:00,120.54688,22.89429,5.0
115,3938,C3_397000000A_000418,春水堂,以珍珠奶茶聞名全台灣的春水堂，精緻的茶點和餐飲，在極度挑剔美食的高雄市，同樣受歡迎。,高雄市苓雅區和平一路138號1樓,高雄市,苓雅區,886-7-2231436,每日10:30-22:30,120.31913,22.62754,5.0
116,3939,C3_397000000A_000419,華王大飯店-波麗露咖啡廳,精緻西式自助餐、下午茶、各式蛋糕及精心烘焙歐式點心、香醇咖啡。,高雄市鹽埕區五福四路42號,高雄市,鹽埕區,886-7-5518211,每日06:30-10:00；11:30-14:00；14:30-16:30；17:30-21:00,120.2878,22.62167,5.0
117,3940,C3_397000000A_000420,順陽古草茶(古早茶),成立於1985年，在高雄小港當地有口皆碑，知名度頗高。順陽古草茶主要是由12多種青草(有日本的康復力、台灣的清明草、澎湖的鳳茹及外蒙古的沙棘葉...等多項四國珍草)，按一定比例調配，再經古法煉製而成，溫和不傷胃。每天喝能促進身體的新陳代謝、降火氣、潤喉止渴…無咖啡因有別於一般茶葉，睡前飲用還能幫助入睡！,高雄市小港區茂林街3號,高雄市,小港區,886-7-8066067,平日09:00-18:00,120.3669,22.56398,5.0
118,3941,C3_397000000A_000421,老唱片主題咖啡館,湖內區老唱片主題咖啡館，賣的不只是咖啡亦是一個世代的回憶，客人來此用餐可以隨性點播歌曲享受「聽老歌憶舊往」的感動，館內掌櫃更是因材施教，善用老唱片宣導台灣歌謠的流行文化，以台語發音唱片教導漢文八音，發揚台語音韻美學，讓餐館不只是餐館而已，更是文化交流園地。,高雄市湖內區大湖里民權路161號,高雄市,湖內區,886-7-6933480,每日11:00-21:00,120.24358,22.88969,5.0
119,3942,C3_397000000A_000422,老牌牛乳大王,高雄知名的在地老店家，扎根在左營區已經有43年的歷史了！陪伴著左營共同成長，也是左營人老老少少們，共同的回憶。木瓜牛奶、蘿蔔汁、紅茶牛奶是店裡的招牌商品！,高雄市左營區左營大路332號,高雄市,左營區,886-7-5882329,每日11:00-01:00,120.292,22.68646,5.0
120,3943,C3_397000000A_000423,古典玫瑰園-陽光大飯店,陽光大飯店獨家引進英式下午茶第一品牌，古典玫瑰園(Rose House)，不僅提供各式套餐、輕食、下午茶組合及200多種正統英國茶葉提供消費者選擇，更採用紅黑對比設計如西洋棋盤般的桌椅，茶具方面使用高級瓷器，並備有獨立式的包廂，適合親朋好友聚餐的好地方，結合文創與藝術形成優雅自在的下午茶文化。,高雄市苓雅區中華四路75號1樓,高雄市,苓雅區,886-7-2695222,每日11:00-21:30,120.30141,22.61451,5.0
121,3944,C3_397000000A_000424,50年杏仁茶,堅持以中藥用的杏仁豆傳統古法製作，去膜後再研磨成粉，接著混入糯米熬煮而成，完全不添加人工香精，呈現最精純的杏仁清香，從晚上賣到隔天中午，早點、宵夜兩相宜。,高雄市鹽埕區瀨南街223號,高雄市,鹽埕區,886-7-5314979,週一~週六19:00-05:00；週日公休,120.28399,22.62795,5.0
122,3945,C3_397000000A_000425,BIG MA MA義大利麵餐廳,餐廳的風格屬幽暗型，感覺有點像酒吧型態，推門進入還真的有吧檯呢。氣氛很像lounge bar那種暗中帶著暈紅色的燈光，彷彿進入了真的酒吧中呢！除此之外，它還有二樓喔，樓上的風格跟一樓還真的不太一樣呢，空間比較寬敞，沙發和窗簾都是小花色的，搭配藍色的牆壁，使人覺得很溫馨，藍白相間感覺有歐式的風格，再者，牆壁上還放置了很多美食的圖片及復古的卡通和電影照，還有木製的裝飾品及酒瓶，使人覺得在歐式的裝潢中又添加了美式的風格。,高雄市前金區文武二街181號,高雄市,新興區,886-7-2519945,每日10:00-14:30；17:30-22:00,120.3048,22.6217,1.0
123,3946,C3_397000000A_000426,佐佐義義大利麵餐廳,磚牆、黃色油漆、露台、花草擺飾，門前的一株雞蛋花斜度正好，充滿南歐陽光的戶外空間，相對於戶外的寬敞明亮，室內反而顯的幽暗擁擠，昏黃燈光增添幾許浪漫氣氛。採單點制，不管是濃湯、飲料、麵包甚至甜點，需要個別單點。,高雄市新興區民享街97號,高雄市,新興區,886-7-2816869,每日11:30-14:30；17:30-21:00,120.3048,22.6217,1.0
124,3947,C3_397000000A_000428,高廬法式專廚餐廳,以法國鄉村為名，說明這是一家以法式料理為主的餐廳。精選新鮮食材，輔以五星級大廚的精湛手藝，純手工製作每一道佳餚。,高雄市新興區中正四路53號,高雄市,新興區,886-7-2412068,每日11:30-14:30；17:30-21:30每週一公休,120.30009,22.63056,1.0
125,3948,C3_397000000A_000429,安多尼歐法式料理,在煩雜喧囂的市區，安多尼歐給您一個悠閒謐靜的舒適角落，讓您可以慢條斯理的釐清您的思緒、沉澱您的心靈、放鬆您的身體、更可以用最緩慢的步調品嚐最精緻的美食。,高雄市鹽埕區河西路7-1號,高雄市,鹽埕區,886-7-5335330,每日11:45-15:00；17:45-22:00,120.28904,22.62201,1.0
126,3949,C3_397000000A_000431,躲貓貓義式廚房,位於文藻外語學院附近，在安靜的巷弄裡，躲的很好，要仔細才能發現，店內到處是貓貓的身影。,高雄市三民區鼎強街120號,高雄市,三民區,886-7-3100739,週一至週四11:00-15:00週五至週日11:00-15:00；17:00-21:30,120.32105,22.66441,1.0
127,3950,C3_397000000A_000433,波隆那義式麵食餐館,可停民生中山圓環的收費停車場(約離餐廳30公尺)，這是一間很平實的小店，專門賣義大利麵、燉飯、焗烤。餐點除了主餐外，有紅茶和濃湯，價位大約在200元上下，蠻平價的。,高雄市三民區重慶街335巷5號,高雄市,三民區,886-7-3229192,週二至週日11:30-14:00；17:30-21:00 每週一公休,120.3021,22.65077,1.0
128,3951,C3_397000000A_000434,小城堡法式料理,由夏都康堤主廚Jimmy所坐鎮的名店旗下品牌，將訴求高格調的法式料理，以同樣精緻的手法呈現美食風味，有別於高單價的頂端客層，而以中價位引領消費者入門品嚐。,高雄市苓雅區中山二路440號2樓,高雄市,苓雅區,886-7-3349478,每日18:00-用餐完畢(點餐至20:30),120.302785,22.619306,1.0
129,3952,C3_397000000A_000439,歐啦西班牙館,主廚Angel Martos在西班牙以廚藝精湛聞名，曾任西班牙多家旅館及有名餐廳主廚並數度上報。曾為一旅居西班牙的華人發掘並獲邀來台主掌台灣第一家西班牙餐廳，當時極為盛名並為多國拉丁使館人員進出用餐。,高雄市三民區河堤路578號,高雄市,三民區,886-7-3433045,每日11:30-14:30；17:30-21:30通常週三及週四公休(不定時),120.31474,22.66636,1.0
130,3953,C3_397000000A_000440,王品台塑牛排館,王品歷經數千小時的嚴格選材、精心研發之後，發現一頭牛只有最精華的第六至第八對肋骨，得以使『王品台塑牛排』的精髓脫穎而出，是全國唯一能在250℃烤箱烘烤一個半小時，還能保持100% 鮮嫩度的牛排。而且完全符合骨長17公分、重16盎斯的最佳規格。因此，一頭牛只能供應6客王品台塑牛排。,高雄市苓雅區中正三路88號,高雄市,新興區,886-7-2363536,每日11:30-14:30；17:30-22:00(國定例假日彈性延長服務時間),120.30717,22.63124,1.0
131,3954,C3_397000000A_000442,TASTY西堤牛排,西堤牛排TASTY店內供應西式精緻套餐，用餐方式是先讓客人點依次點選８道餐（開胃菜、前菜、沙拉、湯、沙瓦、主餐、甜點、飲料），每道餐均有不同菜色可選擇，點完餐後服務人員將依順序上菜，等客人用完一道菜後才會再上下道菜。,高雄市新興區中山二路472號2樓,高雄市,新興區,886-7-2820712,每日11:30-14:30；17:30-22:00,120.30228,22.62044,1.0
132,3955,C3_397000000A_000444,新國際西餐廳,新國際，陪伴著高雄人走過將近半世紀的時間，是高雄僅存一家老字號西餐廳， 細數過往，許多人第一次吃牛排、第一相親約會，第一次慶祝的甜美回憶，都在這裡誕生。所以，嚴選食材、傳統手工製作、貼心的服務，為新國際的堅持與使命。希望一口好牛排、一份心感動，可以傳承一世紀。?相關圖片：,高雄市前金區民生二路76號2樓,高雄市,前金區,886-7-2618121,每日11:30-14:00；17:00-21:00,120.29668,22.62611,1.0
133,3956,C3_397000000A_000446,阿瑪雷特,在一個未開發的鄉村，充斥著熱情的香味。阿瑪雷特的努力，為這小地方添加了幸福的滋味。 高雄最讓人感覺幸福的小餐廳，喜歡吃簡餐、火鍋、焗烤的朋友， 可以來給阿瑪一些意見，也體會一下阿瑪當初想帶給大家幸福感覺的滋味。 將幸福的美味，帶給每個阿孫。 也希望能在阿孫身上學到很多的幸福！！,高雄市路竹區中興路316號,高雄市,路竹區,886-7-6073967,11:30-22:00,120.26346,22.85658,1.0
134,3957,C3_397000000A_000449,帕莎蒂娜義大利屋,Pasadena義大利屋提供鄉村菜、開胃小品、麵食、比薩、燉飯、甜點等義大利經典料理。 麵食全是手工製作，以1:1比例加入筋性較高的杜蘭小麥粉，呈現帶有彈牙嚼勁的道地口感。 服務項目：午餐、晚餐、下午茶 1樓烘焙坊並設有玻璃屋、2樓餐廳、3樓娃娃屋，是座落於美術館園區的歐式複合式食尚空間。,高雄市鼓山區青海路167號2樓,高雄市,鼓山區,886-7-5530889,午餐：11:30 - 14:00晚餐：18:00 - 22:00下午茶：14:30 - 17:00每週一公休,120.28692,22.65122,1.0
135,3958,C3_397000000A_000450,帕莎蒂娜法式餐廳,Pasadena堅持嚴選頂級食材，強調與季節時令的完美搭配，完整呈現食物自然風味，追求味覺平衡藝術的精準掌握，更由於南台灣漁產新鮮豐富，使得海鮮料理富創意巧思並享有盛譽。藏酒來自世界各地的頂級酒與個性獨具的限量小酒莊酒，讓餐酒體驗更臻於豐富多元。服務項目：午餐、晚餐、下午茶、精緻外燴。,高雄市三民區河堤路298號,高雄市,三民區,886-7-3411256,午餐：11:30 - 14:30 / 晚餐：18:00 - 22:30下午茶　平日：14:30 - 17:00　假日：14:45 - 17:00每週一公休,120.31181,22.66143,1.0
136,3959,C3_397000000A_000453,麗尊酒店-芙悅軒,芙悅軒湘粵料理延續多年經驗的傳承，如今更講究五感到心的心靈饗宴，並以創意為發展料理的核心理念，時尚摩登中西合併的裝潢，更是顛覆以往享受中式餐點的氛圍。其中超人氣明爐櫻桃鴨三吃，更是絕對必品嚐過的菜色！,高雄市苓雅區五福一路105號,高雄市,苓雅區,886-7-2296030,每日11:30-14:30；17:30-21:30,120.313795,22.627124,1.0
137,3960,C3_397000000A_000456,高雄國賓大飯店-粵菜廳,窗外浪漫綠蔭與河畔美景交織，如詩如畫。再優雅溫馨的用餐氣氛中，我們提供您精心烹調的廣東料理及港式飲茶，口感細膩，及至饗宴。,高雄市前金區民生二路202號,高雄市,前金區,886-7-2115211#2485,每日11:30-14:00；17:30-21:00,120.29063,22.62407,1.0
138,3961,C3_397000000A_000457,華王大飯店-港式飲茶華宮廳,各式蒸點、廣式甜品一應俱全，滿足您的味蕾享受。,高雄市鹽埕區五福四路42號,高雄市,鹽埕區,886-7-5518211,平日11:30-14:00；17:30-21:00假日11:00-14:00；17:00-21:00,120.2878,22.62167,1.0
139,3962,C3_397000000A_000458,華園飯店-旺角港式茶餐廳,以時尚質感的Lounge風打造的旺角港式飲茶，絢麗唯美的燈光裝點舒服的沙發座椅與浪漫的用餐環境，營造出不同於以往的港式茶餐廳。突破傳統港式飲茶舊有印象，少了擁擠吵雜的推車叫喊，多了輕鬆愜意的舒適氛圍。旺角菜色多樣、口味多元，所有餐飲堅持現點現做，為的是讓客人品嘗到食物當下最新鮮美味的一刻。除了經典港式料理還有舒服放鬆的慵懶酒吧，讓您飽餐一頓之餘還能愉快的小酌一番。,高雄市前金區六合二路279號1樓,高雄市,前金區,886-7-2410123,每日11:30-14:30；17:30-21:30,120.29085,22.629192,1.0
140,3963,C3_397000000A_000460,海光餐廳,前身是美軍俱樂部，美軍撤退後改為海軍招待所，直到民國83年底才變成現在海光餐廳的型態，餐廳主打江浙菜，紅燒下巴、無錫排骨、煙燻黃魚等經典江浙菜，應有盡有。,高雄市左營區南大路4號,高雄市,左營區,886-7-5821516,每日11:30-14:00；17:00-21:00,120.28676,22.67485,1.0
141,3964,C3_397000000A_000461,著火的牛阿根廷烤肉餐廳,阿根廷烤肉是以木炭，將切好的肉塊放在烤肉架上(Parrilla)，以慢火烘烤肉塊，使肉塊呈現外表香酥內裡鮮嫩多汁，最重要的是僅使用最原始的調味料:鹽巴，帶出烤肉的鮮、甜。所謂烤肉的鮮，是一口咬下烤肉時，在嘴裡會散發出肉的香氣，接下來帶著鮮甜味的肉汁會隨之流出，所呈現的鮮甜是由鹽巴所引導出來的，阿根廷烤肉就是要享受烤肉的原汁原味！,高雄市新興區中正三路122號,高雄市,新興區,886-7-2352000,週二至週五11:30-15:00；17:30-22:30 假日17:00-22:30 週一17:30-22:30，中午不營業,120.30534,22.63138,2.0
142,3965,C3_397000000A_000463,逐鹿日式炭火燒肉,逐鹿位於高雄市彩虹公園內，面對環境清幽的公園，透過大片落地窗，欣賞彩虹公園白天和夜晚展現的各異風情，仿如置身於大自然的懷抱中。店長精挑細選上百種新鮮食材和回味火鍋，搭配不惜成本引進的美式、日式和歐式三種不同風味的頂級冰淇淋，保證一口接一口再也停不住，享受既快樂又熱鬧的燒烤樂趣。,高雄市苓雅區三多四路39號,高雄市,苓雅區,886-7-3355533,平日11:00-15:30；17:00-22:30 例假日11:00-22:30,120.30267,22.61311,2.0
143,3966,C3_397000000A_000464,日式無煙燒肉屋,超HOT的頂級燒肉屋，讓您享受五星級飲食品質，給您超平價消費。中午消費金額每人400元(週一至週五)，而晚上則是450(含假日午餐)，另外本餐廳不再加收服務費。搭捷運紅線至R13(凹子底站)下車後，往巨蛋方向前進，至明誠路左轉後，前行30公尺，即可到達明誠店。,高雄市鼓山區明誠三路433號,高雄市,鼓山區,886-7-5536234,每日11:30-14:30；17:30-22:00,120.3019,22.66093,2.0
144,3967,C3_397000000A_000465,老蔡虱目魚粥,隱身在小巷弄間的老蔡虱目魚粥，卻能吸引許多政商名流前來品嘗，到底它的魅力何在﹖開店50多年來，每天由養殖地進貨，新鮮吃得出品質，魚身肥厚，肉質甜美，而且用整條虱目魚熬煮湯頭，融入精華。你一定得試試虱目魚粥，以在來米和虱目魚丁慢火熬煮，在嚴格火候的控制下，端到客人手上的粥清甜爽口，此外，另外研發的鳳梨豆醬魚肚和魚頭，口味較重，滷到入口即化，搭配滷肉飯剛剛好。,高雄市鹽埕區瀨南街201號,高雄市,鹽埕區,886-7-5519689,每日06:30-14:00；17:00-20:00,120.28382,22.62745,9.0
145,3968,C3_397000000A_000466,河邊餐廳,河邊秉持著誠信的經營方式已四十餘年，擁有豐富的實務經驗及廣大顧客的讚 賞口碑，持續穩定地成長茁壯，並秉持「誠信、創新、優質」的宗旨與同仁共 同努力之下，朝全方面的餐飲供膳服務邁進，讓市民可享受到河邊高優質的服 務，相信必能達成最佳餐飲機構的目標。,高雄市鼓山區蓬萊路23號,高雄市,鼓山區,886-7-5612258,每日11:00-14:00；17:30-21:30,120.2786,22.61862,9.0
146,3970,C3_397000000A_000468,紅毛港海鮮餐廳,紅毛港海鮮餐廳於1989創立以來，秉持著對海鮮的專業認知與敏感度，致力推動『季節海鮮之旅』，呈現海鮮食材的精髓，讓客人吃到當季最肥美的海鮮料理，這也是我們一直所堅持的目標，亦成就了『不是好菜不上桌』的經營精神。,高雄市苓雅區三多三路214號,高雄市,苓雅區,886-7-3353606,每日11:30-14:30；17:30-21:30 初一公休,120.30822,22.61542,9.0
147,3971,C3_397000000A_000469,亞洲活海鮮,亞洲小吃店成立於民國56年左右，開設於紅毛港大林埔附近，其烹飪手藝及菜色皆為家傳手藝。小吃店的客人大部分為熟客，新的客人只要吃過就會被特殊的味道吸引而回籠成為熟客。,高雄市小港區宏平路412號,高雄市,小港區,886-7-8030240,每日10:00-14:00；16:00-22:00,120.35787,22.57009,9.0
148,3972,C3_397000000A_000470,西子灣海鮮餐廳,西子灣海鮮餐廳自民國八十年成立至今已近15年，老闆天未亮即親自至漁貨市場挑選上等新鮮好貨，上一代傳承下來已有35年之漁貨買賣經驗，喜慶宴客、聚餐小酌、到府外燴，另設有包廂KTV全館可席開百桌。,高雄市苓雅區青年二路98號,高雄市,前金區,886-7-2615288,每日11:00-14:00；17:00-21:00,120.29857,22.61897,9.0
149,3973,C3_397000000A_000474,海味澎湖平價活海鮮,著名導演吳念真、蔡岳勳及超級星光大道評審黃韻玲都愛來吃的海鮮店，就是位在民生路上的「海味澎湖平價活海鮮」。來自澎湖的蘇老闆，熟稔澎湖海產與台灣本島極大不同的風味，因此會因應季節性做不同的商品調配，所以在海味，一年四季都能有不同的選擇，而且採用原味烹調的料理方式，絕對能讓客倌您吃到海產的原味與鮮甜。,高雄市新興區民生一路214號,高雄市,新興區,886-7-2823131,每日17:00-02:00週一不定期休息,120.30804,22.62777,9.0
150,3974,C3_397000000A_000482,旗津中洲金聖春活海產,推薦菜色：金瓜米粉、芙蓉蚵仔、螃蟹、五味九孔 平均消費：350元以上/人，以三個人的海鮮餐花費1050元 交通資訊: 1、前鎮渡輪站時刻表。 2、開車經過過港隧道前往。,高雄市旗津區中洲巷68號之22,高雄市,旗津區,886-7-5713603,平日11:00-14:00；17:00-21:00 假日11:00-15:00；16:30-21:00,120.29913,22.57482,9.0
151,3975,C3_397000000A_000483,海濱海產店,「海濱海產店」是隱藏在旗津的中洲渡輪站巷弄之間，靠近過港隧道方向。卻是旗津最有口碑的老店之一。?海濱海產由旗津中洲里在地漁民莊氏兄弟所創立。原本家族是土生土長的中洲漁民，因應高雄過港隧道的開通，遂從麵店和自助餐轉型為海產店，本著漁民對海鮮的瞭解，和在地漁港豐富漁獲，經營約30年，獲得很好的名聲和廣大的客群。,高雄市旗津區中洲巷68-16號,高雄市,旗津區,886-7-5713485,每日11:00-14:00；17:00-21:00,120.29913,22.57482,9.0
152,3976,C3_397000000A_000484,王牌豆花,經營50多年，目前是第三代接手經營，主要商品為冷熱豆花、菊花茶與地骨露。,高雄市前金區六合二路127號,高雄市,前金區,886-937-555561,每日17:00-凌晨05:00,120.29684,22.63122,5.0
153,3977,C3_397000000A_000489,高雄婆婆冰,高雄婆婆冰由蔡趙固女士次子蔡雄數先生經營，秉持著母親的理念，堅持使用天然的材料及當季的新鮮水果製造，用家傳祕方煉製，使得高雄婆婆冰成為港都老饕們的唯一選擇，味道的傳承，以及親切招待，許多顧客吃了幾十年，依然能感受到數十年如以一日的堅持，也代表著高雄婆婆冰一路傳承的理念。,高雄市鹽埕區七賢三路135號,高雄市,鹽埕區,886-7-5616567,每日09:00-24:00,120.28206,22.6264,5.0
154,3978,C3_397000000A_000490,貝殼情人,對貝殼有股超強烈癡迷的陳老闆，因為想多認識台灣其他貝殼迷的同好，所以於2002年在西子灣中山大學旁開設「貝殼情人」。店內從櫥窗、牆壁上、地上、天花板上，都有琳瑯滿目的貝殼，就連餐飲食具器皿也是貝殼，客人來吃冰用餐，手上拿的、裝食物的也都是貝殼，新奇度絕對百分百。一邊享用美食，一邊還可逛逛店內貝殼藝術飾品擺設，超巨大的貝殼雕刻藝品，將帶給您的視覺無比震撼。,高雄市鼓山區蓮海路18-1號,高雄市,鼓山區,886-7-5615103,10:00-19:00每週三公休,120.266978,22.618884,5.0
155,3979,C3_397000000A_000491,品元糖口冷飲工坊,傳承自舅舅獨特手藝的翁老闆，自退伍後即投入剉冰冷飲店的經營已達7年的時間。眾多商品中雪花冰及豆花是翁老闆研發時間最久的品項，尤其是冰品經歷不斷地失敗及改良，才終於有了現在的明星商品--『芒果雪花冰』，其芒果是挑選來自枋山、玉井的新鮮芒果作為主要原料，2007年還獲得由高雄市政府舉辦的刨冰王網路 票選比賽的第一名。 在選材上，很多商家為了獲利可能採用對人體較不健康的原料，但翁老闆秉守良心與品牌，堅持選用無添加防腐劑的材料，翁老闆說：「消費者吃得健康，少賺一點 也沒關係」。 除了剉冰外，品元糖口冷飲工坊還有傳統的茶飲、豆花、綠豆湯、薏仁湯等，讓饕客自由混搭享用；當然為了順應節氣，冬天除了冷飲冰品外，還多了燒仙草、熱湯圓、熱豆花、紫米粥等產品。,高雄市左營區裕誠路159號,高雄市,左營區,886-7-5562748,每日12:00–22:00,120.31131,22.66403,5.0
156,3980,C3_397000000A_000492,光華木瓜牛奶、檸檬王,自民國61年經營金桔檸檬汁和木瓜牛奶為主打商品及各式冷飲，迄今將40年，而現今則為第二代經營。,高雄市苓雅區光華二路402號,高雄市,苓雅區,886-7-7160469,每日09:00-凌晨02:00,120.31841,22.61701,5.0
157,3981,C3_397000000A_000494,榮泉汽水工廠,本廠歷史悠久，歷五十年之經驗，隨科技進步而進步，不斷研究發展精益求精，已成為台灣特產上品特色，，為迎合大多數消費者之最愛，特研發多種口味的產品，極受到大眾歡迎，常蒙各媒體青睞專訪報導，榮獲佳評。,高雄市三民區中華三路322號,高雄市,三民區,886-7-2858101,週一~週六08:30-17:30，週日公休,120.29269,22.63833,5.0
158,3982,C3_397000000A_000495,枝仔冰城,枝仔冰城以生產傳統枝仔冰聞名於南台灣，特色商品還有香蕉雪糕、香蕉聖代、香蕉船、冰大福等多元化的消費，平實的價位，吃冰、用餐都適宜的好所在喔！,高雄市新興區東海街2號,高雄市,新興區,886-7-2261477,每日10:00-22:00,120.31281,22.62865,5.0
159,3983,C3_397000000A_000496,旗津手工玉米花專賣店,本店位於旗津區吉祥街七號，緊鄰廟前路，附近有星光隧道、海水域場、砲台、燈塔等著名景點，我們使用美國進口高級玉米粒、蔬菜油、砂糖等基本原料，外加各種品質優良、安全無虞的配料製作而成各種口味的玉米花。海苔、梅子、楓糖、原味，巧克力是店內最熱賣的口味。喜歡玉米花或沒嘗試過的你，來旗津觀光時請記得來我們店裡試吃喔！,高雄市旗津區吉祥街7號,高雄市,旗津區,886-7-5721819,週一~週五13:30-20:00；假日09:30-21:00,120.26673,22.61266,5.0
160,3984,C3_397000000A_000502,阿綿麻糬,小時候的那段純真歲月，就是跟好友一起玩遊戲，玩累了回到家，阿嬤總是會微笑著問：”ㄟ夭沒？”點一點頭，阿嬤就端出她親手作的麻糬，因為好吃，每次都是吃光光，那種樸實的味道，簡單又幸福的滿足。想起了阿嬤的麻糬，那藉由雙手傳遞的情感，表達的幸福，也想傳遞給大家。 手牽手牽起了親情、友情、愛情，一生中不可或缺的感情因子，用雙手打造的簡單幸福與滿足，就是這樣的麻糬，純手工的麻糬裡面包含著真心，精選在地的食材，是因每個人的故鄉都是最特別的精神寄託，想讓大家體會這樣的情感，讓麻糬成為人與人連繫的一種情感。,高雄市鹽埕區新樂街198-27號,高雄市,鹽埕區,886-7-5319177,夏季營業時間：每日10:30~18:30冬季營業時間：每日10:00~19:00　(全年無休，颱風天除外),120.282463,22.6257,5.0
161,3985,C3_397000000A_000505,九品元黑芝麻糕,用簡單哲學打造最不簡單的品牌內涵，不僅要吃得健康，更要吃得美味。以古銅錢造型作為富貴的象徵，並將這項產品命名為九品元黑芝麻糕 。,高雄市左營區大中二路333號,高雄市,左營區,886-7-3436933,週一至週六及國定假日09:00-18:00〈週日公休〉,120.31255,22.67934,5.0
162,3986,C3_397000000A_000509,老周冷熱飲,在三民市場裡頭，有間創立於1958年的老店，老周冷熱飲賣的是八寶冰、米糕粥、花生湯、紅豆湯等冷熱飲品，不過最受歡迎的還是一顆10元的燒麻糬。熱呼呼的麻糬有花生和芝麻兩種口味可選，選用上等的糯米搗過，放入糖水裡熬煮，淋上特製花生粉或芝麻粉，這時麻糬保有熱度，更加突顯花生或芝麻的香味，記得一定要趁熱吃，風味絕佳。此外，冬天點碗熱呼呼的花生湯或圓仔湯，夏天點八寶冰，搭配著一起吃，更是行家的最佳選擇。,高雄市三民區三民街126號,高雄市,三民區,886-7-2816780,每日09:30-24:00,120.29288,22.63614,5.0
163,3987,C3_397000000A_000510,高雄阿婆仔冰,高雄最具代表性的小吃「阿婆仔冰」，從1934年開店至今，已經走過70多年的歷史，阿婆本名為蔡固，開店初名為「新生號冰果店」，當時高雄女中學生喜歡暱稱老闆「阿婆仔」，因此改名為「阿婆仔冰」。 店裡牆上掛著阿婆仔醃製李鹹的黑白照片，目前已傳到第三代的蔡源鎰，仍抱持著「選用上好原料以純手工製造、不加任何色素香料」的原則經營冰店，從選購材料到醃製過程，都是純手工，不加添加物，難怪會受到高雄人喜愛。 人氣最高自創的阿婆冰，鮮豔的紫色來自新鮮紅龍果，再搭配上各種當季水果，特別受到喜愛，四種醃製水果李鹹、楊桃、鳳梨、芒果青組成的四果冰，酸甜滋味特別消暑。,高雄市鹽埕區七賢三路150號,高雄市,鹽埕區,886-7-5513180,每日09:30-24:00,120.28274,22.6268,5.0
164,3988,C3_397000000A_000511,渡船頭海之冰,以大如臉盆的超大碗冰品著名，分為1倍、2倍、3倍到10倍之多的份量，舖上滿滿水果再淋上草莓糖漿，就是店內人氣冰品水果總匯。這裡的牆壁、桌椅也充滿學生們創意的塗鴉，不管何時都高朋滿座，是學生最愛的聚會地點！,高雄市鼓山區濱海一路76號,高雄市,鼓山區,886-7-5513773,每日11:00-23:00每週一(排除連續假日)/連續假日隔一天公休,120.27107,22.6199,5.0
165,3991,C3_397000000A_000515,屋頂Roof Lounge,Roof屋頂棕櫚餐廳擁有寬敞舒適的室內座席，提供多國飲食選擇，包括泰式料理、馬來風味餐、印尼和雲南菜等，同時更可享用威士忌、各式酒類、香檳、及調酒。餐廳播放的音樂種類有爵士、藍調、以及浩室音樂。,高雄市左營區立文路51號,高雄市,左營區,886-7-5509955,週日至週五18:00-02:30 週六18:00-03:00,120.30574,22.66432,9.0
166,3992,C3_397000000A_000516,C`est La Vie,位於高雄國賓飯店正對面，鄰近愛河的C`est La Vie外觀看起來簡簡單單，然而，當你一旦跨入門內，立即會發現這其實是一家舒適、雅緻的沙發酒吧，除了裝飾以彩繪玻璃，店內還懸掛著枝形吊燈。只消看一眼就能知道，老闆是特別為了年輕族群和生意人能有個喘息放鬆的氣派之地，而打造這方安怡私密的空間。,高雄市前金區民生二路139號,高雄市,前金區,886-7-2611722,每日20:00-04:00,120.29513,22.62515,9.0
167,3993,C3_397000000A_000517,畫堤時尚音樂餐廳,採用現代中國式設計，挑高的屋頂使用改良式的大吊燈，利用燈籠式的雛型，加上流蘇的設計，燈光打在天花板上，有種懷古的氣氛，並收集有關中國風味的燈籠、字畫，成為中國風的Lounge沙發酒吧。 想放鬆時不妨來「畫堤」聆聽輕快的樂團演奏，感受DJ的魅力，還可以透過大面 窗看到港邊的夜景，不同於一般封閉式的沙發酒吧，愜意又宜人。,高雄市三民區同盟二路217號,高雄市,三民區,886-7-3112277,每日17:30-02:00,120.29503,22.64988,9.0
168,3994,C3_397000000A_000518,燈塔美式酒館,要是以酒吧的身分來說，「燈塔」幾乎提供你一切所需。不僅飲料便宜(啤酒100元起)，任何時段烈酒買三送一！啤酒來源甚廣、隨時都有，包括許多受歡迎的比利時品牌、英國伯丁罕啤酒、嘉士伯啤酒和德國鹿伯酒等等。他們的大屏幕電視機藉由小耳朵可播放實況體育節目，每週末夜晚皆固定播出英格蘭超級足球聯賽。每週四晚上10點，舉辦不拘禮節的非正式射鏢比賽，歡迎任何有無經驗者同歡共樂。,高雄市左營區富國路239號,高雄市,左營區,886-7-5592614,週一~週四、週日18:00-02:00週五~週六18:00-04:00,120.30665,22.66473,9.0
169,3995,C3_397000000A_000521,漢來大飯店-45F龍蝦酒殿,窗外星光燦爛，海面漁火點點；室內燭光搖曳，琴韻低沉醉人。高貴典雅的陳設，瀰漫著雅緻浪漫的韻味。您與家人好友輕鬆品嚐美食、啜飲醇酒、眺望港都夜景的最佳選擇。,高雄市前金區成功一路266號45樓,高雄市,前金區,886-7-2135765,每日18:00-01:00,120.2967,22.61961,9.0
170,3996,C3_397000000A_000524,Lamp,400坪的空間最多可容置1800位顧客，打破一般陳舊的座位限制，以分區做空間設計，開放且具設計感的花型沙發與圓形散桌，使整體間更具層次與變化感。中央舞池有專業投射燈光與舞臺區供顧客隨音樂起舞，以愉悅心情進入Lamp最能享受時髦夜店新氛圍。 店內音樂均播放全美暢銷流行排行的熱門舞曲，不定期邀請DJ至現場用MIX手法將音樂變化新調。Lamp提供無限量且不加價的調酒，也就是說菜單上近百款條酒任您暢飲，無論是酷帥猛男喜好的重口味調酒，或年輕女孩青睞色彩繽紛且爽口的調酒，bartender以精湛的手藝與純熟的調酒技術，現場製作出一杯杯令人神往的調酒。佐酒的餐點如酥炸拼盤、德國豬腳等均現點現做，美味的讓人讚聲連連。,高雄市苓雅區自強三路42號3樓,高雄市,苓雅區,886-7-2696527,週三、週五、週六22:00-04:30週四、週日22:00-03:30每週一、週二公休,120.30052,22.61224,9.0
171,3997,C3_397000000A_000528,藍色狂想,「藍色狂想」是孕育出許多大牌歌手的搖籃，如楊培安、康康、黃小琥、老爹...，出唱片前都曾在此長期駐唱，他們以最貼近民眾的距離與互動方式，讓藍色狂想越夜越high。目前不定期豋場的歌手有蕭煌奇、戴愛玲、星光二班賴銘偉、超偶林宗興、高瑞欣等，這些當紅的歌手相當喜歡藉由這種零距離的臨場感，體會高雄人的熱情呢！,高雄市苓雅區五福一路111號,高雄市,苓雅區,886-7-2270505、886-7-2270341,1F open bar：週日~週四18:30-03:00；週五~週六18:30-04:002F live band：週日~週四20:00-00:30；週五~週六20:00-01:30,120.31326,22.62703,9.0
172,3999,C3_397000000A_000532,Marsalis Bar 馬沙里斯爵士酒館,Whisky&Jazz 每個月最後一個星期二店休。,高雄市中正四路71號2樓,高雄市,新興區,886-7-2814078,每日19:00-02:00(公休日是每月最後一個禮拜二),120.29955,22.630385,9.0
173,4000,C3_397000000A_000533,山寨Live Pub,「山寨Live Pub」，成立於2009年11月29日，合作伙伴中超過三分之二平日從事音樂相關工作，且超過半數為原住民，熱情與音樂理所當然的成為「山寨Live Pub」的主要特色。 這裡提供的不只是音樂表演，也包括音樂創作。每星期一晚上九點至十一點的山寨Open Mic，會有音樂創作者以民歌方式發表其作品；星期三晚上十點半至十二點的山寨音雄會，則是音樂團體分享的時刻；星期五晚上同一時段，可在此欣賞山的孩子樂團的演出；星期六晚上，則由曾在藍狂駐唱多時的歌手Amy，為您呈現最歡樂的週末夜。,高雄市前金區新盛二街75號,高雄市,前金區,886-7-2722418,每日20:30-03:30,120.29716,22.62859,9.0
174,4001,C3_397000000A_000536,新統一牛排館,店齡已近40年的「新統一牛排館」， 向來是老高雄人無法忘情的牛排館。座落在愛河畔浪漫音樂下的西式餐廳，昏黃的燈光營造出典雅的氛圍，無論是約會、慶生、好友相聚或洽商，都讓每一位用餐客人有備受禮遇尊榮的感受。,高雄市鹽埕區五褔四路31號,高雄市,鹽埕區,886-7-5511414,每日11:30-14:30；17:30-21:30,120.28816,22.62106,1.0
175,4002,C3_397000000A_000537,京城大飯店-風尚西餐廳,藝術畫廊般典雅氣氛，散發悠靜簡潔的挑高空間美感，柔美燈光舒適的餐桌椅輕鬆自在，最適合商務用餐、家庭聚會是洽商、聊天享受悠閒的頂級西餐廳；名廚師所精心調配的中西合璧主食，配合精緻自助式熱食、冷盤、水果沙拉吧、精緻套餐各式精選飲品，可無線上網有NOTEBOOK即可免費上網；飯店備有停車場(停滿為限) ，適合２０－３０人小型會議聚餐。,高雄市三民區九如二路362號,高雄市,三民區,886-7-3119906,每日11:30-13:50,120.30226,22.64141,1.0
176,4003,C3_397000000A_000539,i River 愛河牛排海鮮自助餐廳,洋溢時尚海洋風的空間設計，擁有全新飲食概念的多國料理自助餐廳，秉持「健康、環保」的經營理念，相當重視食材履歷與遵循食物哩程。 開放式廚房的師傅們，現場完美演繹出一道道健康美食，依傍池畔風光，享受視覺與味覺的盛宴。,高雄市前金區民生二路202號,高雄市,前金區,886-7-2115243,每日06:00-10:00；11:30-14:00；14:30-17:00；18:00-21:00,120.29059,22.62405,1.0
177,4004,C3_397000000A_000546,高雄東山鴨頭,經營已二十多年的攤商，老闆每天到市場精心挑選，經過獨家滷汁調配入味，堅持不用回鍋油油炸，所以滷味香酥入味，搭配特調的胡椒粉更能提升商品的獨特味道，主推鴨頭 鴨脖子、米血等。,高雄市新興區六合二路69-1號,高雄市,新興區,886-961-299022,每日17:00-01:00,120.29913,22.63197,4.0
178,4005,C3_397000000A_000549,海寶國際大飯店- 2F吉祥廳,海寶國際大飯店是南台灣最大的宴會場所，舒適華麗的空間、氣派高雅的水晶燈，都可依照賓客的需求適度劃分。現場並有專人服務以及獨家魔幻燈光上菜秀，適合舉辦喜宴、春酒尾牙、商品發表等各種大型工商聚會活動。,高雄市前金區自強二路171號,高雄市,前金區,886-7-2166666,每日11:00-14:30；17:00-21:30,120.2942,22.62787,1.0
179,4006,C3_397000000A_000550,黃金愛河,「愛河 乘載高雄人無數記憶 譜出多少戀人的衷曲 如今的她 不再被嫌棄 在每個浪漫的夜晚 展演萬種風情 這條獨一無二 以愛為名的川流 儼然成為高雄人心中那分對城市的認同與驕傲」 八年前，懷著對愛河無限的想像與憧憬，我們共同打造了浪漫的「黃金愛河」，與所有市民一同建立那份認同。 睽違五年，擁著沉潛許久的擘劃藍圖，黃金愛河團隊再度回到熟悉的左岸，我們始終相信，愛河，該是充滿甜蜜回憶的地方，期待與您共同找回那份黃金的記憶。,高雄市鹽埕區河西路10號,高雄市,鹽埕區,886-7-5315889,每日16:00-00:30,120.28912,22.62267,9.0
180,4007,C3_397000000A_000674,高雄牛乳大王,高雄牛奶大王算是本土連鎖餐飲的傳奇，早在麥當勞等國際速食引進台灣之前，高雄牛奶大王已經是響叮噹的招牌了。高雄牛奶大王的招牌當然是木瓜牛奶，算是現打果汁飲料的始祖。,高雄市前金區中華三路65-5號,高雄市,前金區,886-7-2823636,每日07:00-凌晨02:00,120.29722,22.62531,5.0
181,4008,C3_397000000A_000697,高雄國賓大飯店-i River愛河牛排海鮮自助餐廳,高雄國賓大飯店積極規劃穆斯林友善餐廳與客房，期能以食宿完整配套服務，爭取更多穆斯林旅客青睞，包括在一樓MARKET CAFÉ自助餐廳廚房設置專屬區域，將餐具廚具另行擺放、區隔使用，食材原物料則由經過依斯蘭教認證的供應商進貨，滿足回教徒對於用餐環境的嚴格標準；在客房部份，提供禮拜方向指引標章、穆斯林禮拜時間表、膜拜毯、免治馬桶等，經由觀光局委託中國回教協會認證，頒發「穆斯林友好餐旅」標章，提供穆斯林旅客完美的寶島旅遊體驗。,高雄市前金區民生二路202號,高雄市,前金區,886-7-2115243,每日11:30-14:00；14:30-17:00；18:00-21:00,120.29059,22.62405,1.0
182,4009,C3_397000000A_000698,高雄翰品酒店-雨桐廳/泉動廳/芒種廳,翰品酒店高雄的穆斯林專屬廳房，是您宴客洽商、款待貴賓最佳場合 ，並可依照貴賓需求提供Muslim Friendly友善餐廳桌席料理，讓您品味精緻的美饌料理及最貼心服務品質。翰品酒店高雄穆斯林專屬廳房位於二樓，包括有雨桐廳、泉動廳、芒種廳等三廳，推出之餐點皆符合認證規定，從獨立的爐具、廚具、餐具、食材、調味料到用餐區域等，均通過穆斯林餐飲認證。為顧客準備豐富桌菜菜單，口味有中菜與粵菜料理，讓回教徒朋友在高雄用餐倍感安心與貼心。,高雄市鹽埕區大仁路43號,高雄市,鹽埕區,886-7-5213899,每日11:00-14:00；17:30-21:00,120.28563,22.62481,9.0
183,4011,C3_397000000A_000718,SikaTeahouse希咔創意商行,希咔手作料理堅持以高雄在地無毒有機蔬菜、橋頭無藥殘喜哈蛋、高大牧場鮮奶、嘉義御牧牛、橋頭雄好豬、橋頭享樂雞等精選食材，創作季節性驚喜餐點。 並以樸美的台灣文化內涵設計用品呈現，誠摯款待每一份緣份，在繁忙華麗的社會氣氛中，重回以前從未懷疑的安心飲食，重現過去時間焠鍊的用心作品，拉近食用者與食器距離，讓每份餐點、每次款待，都變成值得回味的記憶。,高雄市苓雅區林泉街38巷9弄5號,高雄市,苓雅區,886-7-7617617,每日12:00-21:00週一公休，每月另有2日不定公休日,120.3177,22.62358,1.0
184,4013,C3_397000000A_000721,小樂食義麵坊 Viva La Pasta,坐落於鹽埕老區，鄰近駁二藝術特區。屋齡半百的老屋，是鹽埕戰後第一批的三層樓的樓房。店內三米三挑高的天花板、古色古味的線板以及老檜木窗框，全都維持50多年前的原貌。 其主廚是來自台北永康街『騎樓義大利麵鋪』，經過十多年的累積，加上自己有張挑剔的嘴，終於成就了屬於自己的味道。,高雄市鹽埕區五福四路84號1樓,高雄市,鹽埕區,886-7-5316338,週二至週日11:30-14:00；17:00-21:00每週一公休,120.28704,22.62216,1.0
185,4014,C3_397000000A_000722,老四川巴蜀麻辣燙,分店資訊 高雄中華總店 電話：+886-7-2218026/+886-7-2213663 地址：高雄市前金區中華三路23之6號 高雄中山店 電話：+886-7-3351717/+886-7-3356767 地址：高雄市苓雅區中山二路422、424號 從大陸哈爾濱市的一家麻辣鍋，變身為臺灣地區強調川味為主的麻辣鍋連鎖餐飲公司。走進老四川，您將會看到周遭布置著古典雅致的壁畫、書帖、青銅器及燈籠式的吊燈，極力營造出傳統中式情境，讓人立即忘卻外頭車水馬龍的喧囂，迫不及待地想體驗麻辣燙的魅力。遵循四川傳統古法煉製，其精妙之處在於他的麻辣辛香、變化無窮；特有的潑辣豪情、滾燙的紅湯，讓人為之吐舌淌汗。鴛鴦鍋的型式除紅湯外，另一半是養身白味鍋，這款白鍋是用豬大骨和中藥配方熬煮八小時以上而成，湯之甘醇味美，完全沒有藥膳味。,高雄市前金區中華三路23之6號,高雄市,前金區,886-7-2218026,每日11:30-01:30,120.29769,22.62414,3.0
186,4015,C3_397000000A_000723,信誼餐廳,信誼餐廳位於信誼高爾夫球場大樓會館2樓，備有可停320輛車之免費停車位；外觀為高雅古典的閩南式建築，會館內處處可欣賞交趾陶藝術品及球場的精神代表麒麟，充滿古樸典雅的藝術氛圍。 餐廳大片落地玻璃窗，讓陽光、綠意、無垠的藍天和飄渺的雲彩進入，良好的採光及視野，形成令人舒服自在的用餐環境．除了可欣賞到信誼球場的美麗景緻，天氣晴朗時還可遠眺山巒疊翠，雲霧繚繞，伴隨著柔美的陽光及翠綠的草地，予人宛如置身仙境般的感動。 餐廳空間寬達200多坪，可同時容納多達350人，另有小型舞台、投影機組；2個大型宴會包廂信誼廳和麒麟廳，信誼廳內可容納40人用餐，麒麟廳包廂內有大圓桌可容納24人會議用餐．此外，備有1000坪廣大梳整綠地，可供舉辦互惠活動、戶外宴席婚禮使用。 為符合顧客的需求，有不同的場地變化，不論是球敘餐會、婚禮筵席、會議用餐、朋友聚餐、年終尾牙、謝師宴、春酒、壽宴、戶外宴會,高雄市大樹區統嶺里信誼路1號2樓,高雄市,大樹區,886-7-6565035,每日11:00-19:00 (可視顧客需求調整),120.41752,22.77037,3.0
187,4016,C3_397000000A_000724,翰品酒店-品日式料理,集握壽司、壽喜燒、涮涮鍋於一廳，呈現多樣的五星級日式料理。不論您是選擇每日由海港新鮮配送的漁貨做成現點現做的握壽司，或是絕美湯頭與獨家醬料交織美味的壽喜燒、涮涮鍋，都能享受主廚為您精烹的日式美食。,高雄市鹽埕區大仁路43號,高雄市,鹽埕區,886-7-5614688,每日11:00-14:00；17:00-21:00,120.28563,22.62481,9.0
188,4017,C3_397000000A_000725,海景海灣宴席會館,海洋首都-高雄，市容中最足以讓人津津樂道的二大景點，就屬港灣及愛河！而海景海灣宴席會館正坐落於河海交會之處，婆娑港灣與愛河之美近在咫尺！ 海景海灣宴席會館面積800坪，最大容納桌數可達150桌；不論是商務、喜慶宴席或是國內外旅遊團宴席，均可依需求彈性規劃！千萬裝潢陳設高貴典雅，各式獨立包廂均配備高級影音伴唱設施，配合地利之美，打造絕佳用餐環境與氛圍。 海景海灣宴席會館不惜重資，特聘經驗豐富之廚藝團隊提供料理服務，不論是傳統佳餚或是新創料理，務要賓客「吃在嘴裡，感動心裡！」 最美的選擇-就在海景海灣宴席會館！,高雄市苓雅區海邊路45號,高雄市,苓雅區,886-7-2510800,11:00-14:00,,120.29362,22.61834
189,4018,C3_397000000A_000727,董師傅手工麻糬,原味麻糬:採用屏東農產推薦台灣種植之天然的糯米加工製成。 紫米麻糬:採用屏東農產推薦台灣種植之天然紫米加工製成，紫米的外殼比一般的糯米多了一層花青素、葉酸並含有豐富的蛋白質，及鐵、鋅、鈣、磷等人體所須之微量原素等 維生素，且其熱量比糯米低，是一種難得的健康美食。 分店資訊 裕誠分店 電話：&#43,886-7-5562009 地址：高雄市左營區裕誠路454號 左營新光三越百貨彩虹市集 電話：&#43,886-7-2857622 地址：高雄市新興區中山一路209號,高雄市左營區裕誠路454號,,高雄市,,,
190,4020,C3_397000000A_000729,蒸鮮腸粉港式飲茶,選用台灣當地食材，產地直送，運用傳統精湛烹調技藝，融入中式點心深厚的文化底蘊。隨時隨地，輕鬆可享用五星級飯店口味的中華蒸籠點心，是一個三五好友、全家聚餐，或者一個人獨享港式點心的好選擇。 蒸鮮腸粉裕誠店位於繁華的高雄左營區，交通便利捷運可達，臨近瑞豐夜市、漢神巨蛋百貨！ 蒸鮮腸粉澄清店旗艦店，靠近澄清湖，由香港名廚文師傅掌廚，提供粵菜，有著屬於老廣東菜獨有的絕代風華，愛不釋口的新時尚創意美饌東方人文的用餐氛圍，商務餐敘、親友小聚、或單純犒賞自己的美食享受的第一選擇，同時也提供客製化桌菜設計 讓您與宴客擁有賓主盡歡的好時光~ 櫻花蝦絲瓜腸粉、雙菇美人腿腸粉、港式點心(港式蘿蔔糕、香煎韭菜餅、流沙包、手撕雞春捲、芝麻球、侯柱抆牛肚) 當紅炸子雞、重慶水煮牛，老皮嫩肉，xo醬炒蘿蔔糕，糯米鑲雞翅 酒香醉妃鵝，道地廣東粥，臘味煲仔飯、,高雄市三民區青年路二段529號,高雄市,三民區,886-7-7777286,平日11:00-14:30；17:00-21:30假日09:00-21:30 (假日中式早茶),120.34777,22.64697,9.0
191,4021,C3_397000000A_000730,渝陽川菜(渝陽川味小吃),"渝陽川菜創立於1979年, 為高雄地區知名川式中餐廳, 由手藝高超的一流廚師團隊, 特選五星級食材, 提供大家驚豔美食。品嚐大師傅現場親自為您烹製的真功夫菜，歡迎您的光臨。",高雄市新興區六合一路71-1號,高雄市,新興區,886-7-2375619,每日11:30-14:00；17:00- 21:00 除夕至初三公休,120.30728,22.63251,3.0
192,4022,C3_397000000A_000732,福容大飯店,福容大飯店高雄位於鹽埕區五福四路、大成街口，地理環境極佳且交通便利。緊鄰知名景點愛河旁，定位為國際觀光飯店，提供250間客房，設施包括游泳池、三溫暖、健身中心等，並提供全館無線上網服務，備極貼心；專為頂級消費者設計的尊榮樓層，提供氣派奢華的舒適環境，從制高點一覽海洋之都，凡塵喧囂瞬間落盡，是專屬的私密景點，輕啜著一杯紅酒，一天奔波幻化為心中的滿足。 周邊景點多元，潺潺清流的愛河，多元的休閒藝文活動，值得在此度過悠閒時光；氛圍優雅的和平公園，吸引雙雙儷人來此拍攝婚紗；如意橋在夜裡恍若發著光的河流，浪漫美麗。真愛碼頭以雙座風帆的特殊造型，分別對著高雄市區及旗津渡輪碼頭，來到福容可欣賞高雄摩天大樓林立的現代都市風貌，也可眺望高雄海港體驗大船入港的震撼，白天、夜晚各具不同的風貌。福園位於飯店2樓，嚴選當令食材完美呈現經典港式風味，烹飪最頂級的料理，驚艷您的視覺及味蕾，另設有獨立,高雄市鹽埕區五福四路45號,高雄市,鹽埕區,886-7-5511188,福園中餐廳06:30-10:00；11:30-14:00；17:30-21:00阿基師茶樓11:30-14:00；17:30-21:00尊榮廳11:30-14:00；17:30-22:00,120.28771,22.62136,9.0
193,4023,C3_397000000A_000733,肉圓進彰化香菇肉圓,廟口旁總有在地美味，緊鄰於雙慈亭旁的「肉圓進」就是！開業已六十年，第三代老闆黃政進說，家族原在彰化賣肉圓起家，店裡招牌「香菇肉圓」以番薯粉加在來米粉製成外皮，內餡八分瘦肉搭配兩分肥肉，搭配來自埔里的香菇，低溫油炸後吃來一點都不油膩！老顧客習慣稱香菇肉圓為小肉圓，另有加了干貝、蛋黃的「大肉圓」。 除了肉圓，大腸、香腸更是美味，黃政進每天從市場購入大腸皮，以糯米、蝦米、北港花生自行灌製成大腸，紮實且無腥味，挾塊大腸配香腸入口，不需沾醬美味也滿分。,高雄市鳳山區雙慈街2號,高雄市,鳳山區,886-7-7470088,每日08:00-20:00,120.35767,22.62511,4.0
194,4024,C3_397000000A_000734,寒軒大飯店,寒軒大飯店和平店成立於1993年5月7日，之所以名為「飯店」，是為讓顧客只需付出平實的價格，就能享受大飯店級的品質，讓顧客感受物超所值的服務。寒軒大飯店旗下擁有和平店與四維店兩分店，經營項目以港式飲茶、中華料理、大型宴會及商務會議為主，無論營業規模、硬體設備、美食佳餚及服務品質都堪稱為港都餐飲業的第一把交椅。,高雄市苓雅區和平一路33號,高雄市,苓雅區,886-7-7239911,視各餐廳而異,120.32172,22.62015,9.0
195,4025,C3_397000000A_000735,寒軒美饌會館-陽明店,寒軒餐旅事業集團旗下精英打造的寒軒陽明店，佔地約2500坪，全館外觀以大面積採光玻璃建築設計，以明亮時尚的裝潢，打造開闊的用餐空間。寒軒陽明店經營項目以港式飲茶、包廂宴席、會議及喜宴為主，擁有最具規模的五星用餐環境的港式茶樓。,高雄市三民區陽明路201號,高雄市,三民區,886-7-3867533,午餐11:30-14:00；下午茶14:30-16:30；晚餐17:30-21:00,120.3416,22.6412,9.0
196,4026,C3_397000000A_000736,寒軒高雄商旅-2樓都會美饌,Urban Cafe都會美饌是高雄商旅精心設計的美食天地，豐盛精緻的自助餐檯，呈現多元化的中西美饌，搭配海陸主菜，提供自助式早餐、半自助式午、晚餐、套餐、特調酒品及冷熱飲品等，滿足每一位用餐者的不同選擇，伴您渡過晨曦、响午、夜晚的每個用餐時光 餐廳採都會現代風格設計，擁有大面採光落地窗，用餐時憑窗瞭望，鼎新公園的綠意景緻與車水馬龍的繁忙街景盡入眼簾，彷彿坐落於都市叢林中的獨立天地，體驗遠離塵囂的靜謐享受，讓您盡情品嚐每一次的味蕾饗宴。全區並提供無線上網，商務洽談更加便利。,高雄市新興區民族二路33號,高雄市,新興區,886-7-2221333,每日06:00-21:30,120.31288,22.62962,1.0
197,4027,C3_397000000A_000737,寒軒國際大飯店-2樓茶苑,中空挑高的2樓茶苑，提供半自助式午、晚簡餐(主菜加自助餐點沙拉吧)，菜色內容精緻多樣，另有下午茶、各式飲品及酒品。 近年來高雄市府積極提昇港都的文藝氣息，為響應此願景，並讓顧客擁有舒適雅緻的用餐環境，2樓茶苑亦不定期邀請藝術家，展出各式藝術作品，讓消費者享受美食的同時，還能以藝術佐餐，增添文藝氣息。,高雄市苓雅區四維三路33號,高雄市,苓雅區,886-7-3322000,每日10:00-22:00,120.31084,22.61917,1.0
198,4028,C3_397000000A_000738,寒軒國際大飯店-40樓觀海軒,40樓觀海軒中餐廳，以港式珍饌及中華料理聞名，供應道地港式飲茶、粵菜料理，極受饕客們喜愛。擁有大面落地觀景窗的觀海軒，可覽盡高雄港、遠眺旗津及高雄壽山美景，讓用餐更添幾許悠閒。 觀海軒的3間私人宴會包廂「寰宇廳」、「嘉賓廳」及「群賢廳」，採整面落地的景觀玻璃設計，走入包廂內讓人感覺彷彿踩在港都變化萬千的市港美景上，享受色香味美的精湛料理同時，宛如置身美食天堂，是您宴請嘉賓或私人聚餐最體面的場合。,高雄市苓雅區四維三路33號,高雄市,苓雅區,886-7-3322000,每日11:30-14:00；17:30-21:00,120.31084,22.61917,9.0
199,4029,C3_397000000A_000739,漢來蔬食(巨蛋店),漢來蔬食餐廳，以「自然原味、生產履歷、產地直送、新鮮時令」 的訴求研發菜單，呈現更多元、安心的飲食樂趣。,高雄市左營區博愛二路777號5F,高雄市,左營區,886-7-5552882,平日11:30-14:30；17:30-21:00假日11:00-21:00,120.302285,22.669592,3.0
200,4030,C3_397000000A_000740,漢來大飯店-牛排館,港都頂級牛排館，是行家饕客品嚐上等羊排、海鮮及美國特級牛排的最佳所在。採用特殊碳烤方式烹調，自然風味畢露。,高雄市前金區成功一路266號45樓,高雄市,前金區,886-7-2135763,每日11:30-14:30；17:30-22:00,120.2967,22.61961,1.0
201,4031,C3_397000000A_000741,漢神大飯店-鐵板燒,東方美食技藝之寶，簡約的包廂式設計，創意的圓型桌面，黑、金色調呈現時尚低調奢華風格，港景宜人。,高雄市前金區成功一路266號45樓,高雄市,前金區,886-7-2135767,每日11:30-14:30；17:30-22:00,120.296624,22.61948,1.0
202,4032,C3_397000000A_000742,漢來大飯店-池畔餐廳,位於11樓的露天泳池，悠閒氛圍、迷人景緻；池畔吧台供應簡單輕食及飲料。午晚餐供應美味義大利麵套餐、牛排或德國豬腳等西式套餐。,高雄市前金區成功一路266號11樓,高雄市,前金區,886-7-2135753,平日11:30-14:30；17:30-21:30假日11:30-14:30；14:30-17:00；17:30-21:30,120.2967,22.61961,1.0
203,4033,C3_397000000A_000743,日本料理弁慶,料理長伍味澤和實親自掌廚，與日本最大高級食材供應商合作，供應創意料理、頂級會席料理，另有多種超值定食滿足顧客不同的需求。,高雄市前金區成功一路266號10樓,高雄市,前金區,886-7-2135731,每日11:30-14:30；17:30-21:30,120.2967,22.61961,9.0
204,4034,C3_397000000A_000744,漢神大飯店-港式海鮮火鍋,南台灣唯一以活海鮮為主要食材的港式海鮮火鍋，全新設計風格，簡約華麗，另備有包廂供您風光宴客。,高雄市前金區成功一路266號10樓,高雄市,前金區,886-7-2135752,每日11:30-14:30；17:30-21:30,120.2967,22.61961,9.0
205,4035,C3_397000000A_000745,紅陶上海湯包,精湛的手工捏出鮮嫩多汁、渾然有致的湯包，皮薄餡多湯汁燙口，道地正統的上海湯包盡皆在此。,高雄市前金區成功一路266號10樓,高雄市,前金區,886-7-2135751,每日11:30-14:30；17:30-21:30,120.2967,22.61961,3.0
206,4036,C3_397000000A_000746,翠園粵菜餐廳,香港名廚精心烹製極品粵菜及各色港式飲茶美點。適合家族親友餐敘小聚。,高雄市前金區成功一路266號10樓,高雄市,前金區,886-7-2135737,每日11:30-14:30；17:30-21:30,120.2967,22.61961,3.0
207,4037,C3_397000000A_000747,福園台菜餐廳,供應道地創意台菜料理，精選各式新鮮海產，好菜四季皆宜。,高雄市前金區成功一路266號9樓,高雄市,前金區,886-7-2135739,每日11:30-14:30；17:30-21:30,120.2967,22.61961,3.0
208,4038,C3_397000000A_000748,漢來大飯店-糕餅小舖,位於飯店大廳，循著糕餅香氣就能找到的溫馨小角落，由點心名廚親製麵包、蛋糕、手工巧克力及餅乾等，漢來美點遠近馳名。,高雄市前金區成功一路266號大廳,高雄市,前金區,886-7-2135788,每日11:00-22:00,120.2967,22.61961,5.0
209,4039,C3_397000000A_000749,漢來海港,360坪寬敞明亮的挑高樓層用餐空間，一覽無遺的港灣景緻，開放式餐檯，供應多達100餘種中西日式料理。 分店資訊漢來店電話：+886-7-2135762地址：高雄市前金區成功一路266號43樓漢神巨蛋店電話：+0800-621-688地址：高雄市左營區博愛二路777號5樓,高雄市前金區成功一路266號43樓,高雄市,前金區,886-7-2135762,每日06:30-10:30；11:30-14:00；14:30-16:30；17:30-21:30,120.2967,22.61961,9.0
210,4040,C3_397000000A_000751,Mixer Bar 攪拌器美式小酒館,MIXER位於新崛江商圈旁的文化路與仁愛二路上屬於美式普普風6、70年代的復古式裝潢，老舊的沙發、華麗的氛圍、慵懶的音樂、獨家的餐點口味，一切都讓你置身其中時像走入時光隧道，值得一探究竟。,高雄市新興區文化路6號,高雄市,新興區,886-7-2153197,週二至週日20:00-03:00 每週一公休,120.30736,22.62445,9.0
211,4041,C3_397000000A_000752,麗尊酒店-艾可柏菲自助餐廳,以精緻風味的美食自助餐著稱，挑空中庭、現做熱食結合各國佳餚。全區精緻裝潢，青銅鑄金藝術隔屏優雅舒適，大片落地窗俯瞰五福路國際觀光大道，供應各式早、午、下午茶及晚餐等美饌，另提供客房及外燴服務。,高雄市苓雅區五福一路105號2樓,高雄市,苓雅區,886-7-2296030,平日06:00-10:00；11:30-16:00；17:00-21:30假日11:30-16:00；17:00-21:30,120.31379,22.62712,9.0
212,4042,C3_397000000A_000845,食尚藝術,輕熟世代，一群在社會上工作多年的設計師朋友，有鑒於現代人健康理念開始普遍，因此選擇不追求高產量而以生產健康安全的果乾為目標，透過顏色、線條基礎元素加上熱情，將藝術元素融入商品，自成獨特品牌－食尚藝術。希望吃了食尚藝術食品的人都能感受到幸福及健康。,高雄市左營區高鐵路123號B2,高雄市,左營區,886-7-5502120,AM11:00 - PM22:00,120.30916,22.68789,5.0
213,4043,C3_397000000A_000847,粉紅窩咖啡屋,粉紅家族-粉紅窩咖啡屋 從建築外觀到內部裝潢均以粉色系列呈現，經由華麗水晶燈折射，搭配獨一無二的大圖佈景，在服務人員的引領下，進入童話故事般的夢幻世界，每家店有不同的主題也成為當地亮眼時尚地標。 除了夢幻的用餐環境外，店內供應「義大利麵」、「燉飯」、「小火鍋」、「蜜糖土司」、「水果蛋糕」以及多種飲品、輕食與下午茶套餐等各種精緻餐點，絕對是個適合「姐妹淘分享心情」、「情侶浪漫約會」、 「親子互動聚會」的首選。 來到港都，不到最具特色的粉紅窩，絕對令你留下遺憾。,高雄市左營區南屏路369號,高雄市,左營區,886-7-5222345,AM11:30 ~ PM22:00 (睌上21:00後不供餐，每週一公休),120.29972,22.66816,1.0
214,4044,C3_397000000A_000855,喜憨兒天鵝堡餐廳,國道十號嶺口交流道旁，一座藍頂白牆的城堡，住著以此為家的喜憨兒，一同工作、生活與遊戲。在占地兩千坪的天鵝莊園裡，以自然農法栽植蔬果與香草，提供餐廳製作風味料理。 我們提供風味套餐、輕食套餐、下午茶、自助式團膳(25人以上)；咖啡、香草茶、蛋糕等。以及喜憨兒手作餅乾、香草茶包、天鵝手工皂等伴手禮。期待您的蒞臨!,高雄市旗山區南勝里得勝巷2-1號,高雄市,旗山區,886-7-6665482 #135 or #136,每日10:00-17:00,120.45626,22.79642,9.0
215,4045,C3_397000000A_000873,Deer Grassland 鹿仔草冰店,父子攜手創建的古草味冰店，以家鄉嘉義縣鹿草鄉為名，招牌冰品鹿草挫冰，使用新鮮牧草製成，帶綠色色澤，草味中帶一點甘蔗的甜，有別於一般挫冰，創意十足。,高雄市三民區綏遠二街188號,高雄市,三民區,886-7-3229576,週一～週日11:30-21:00 (週三休息),120.29857,22.64939,5.0
216,4046,C3_397000000A_000874,ICE+艾司加冰屋,強調不使用人工香料、色素和果糖，為健康加分。玉荷包荔枝雪花司諾，採用新鮮高雄大樹荔枝製成，入口後盡是滿滿玉荷包氣味，清甜爽口，既消暑又清爽無負擔。,高雄市鳳山區文衡路491號,高雄市,鳳山區,886-7-7803178,平日11:30-22:00週末11:00-22:00,120.34645,22.64168,5.0
217,4047,C3_397000000A_000876,古錐家,使用產地直送萬丹大紅豆搭上來自京都宇治的抹茶粉！ 飽滿鬆綿的紅豆舖滿半碗，淋上特製的香醇抹茶醬，最上面是自製濃厚抹茶冰淇淋，搭配渾圓飽滿的手工湯圓，還可以插上可愛手工餅乾增加趣味，滿滿的料給你大大滿足 ！！！,高雄市鼓山區濱海一路58號,高雄市,鼓山區,886-7-5336558,週五12:00 ~ 18:00；週六～週日12:00 ~ 21:00,120.27151,22.62001,5.0
218,4048,C3_397000000A_000878,那個年代杏仁豆腐冰,來自台南的人氣冰品店，招牌必點冰品「布丁杏仁綜合牛奶冰」，除了豆腐、杏仁冰等古早風味外，還帶一顆傳統烤布丁，淡雅香氣，最具特色。,高雄市新興區新田路127號,高雄市,新興區,886-7-2610468,AM11:00 ~ PM23:00,120.30429,22.62239,5.0
219,4049,C3_397000000A_000879,那間手作霜淇淋,設計感十足店家，店內水果系霜淇淋強調新鮮水果製成，天然的水果香氣，淡雅順口，而現點現做的餅品，香脆好吃，對於品質的堅持，讓許多人一試成主顧。,高雄市前鎮區文橫三路162號,高雄市,前鎮區,886-7-3359888,PM13:00 ~ PM22:00,120.307,22.61324,5.0
220,4050,C3_397000000A_000880,東門茶樓,瑞豐夜市旁裝潢古色古香建築，店內招牌蜜餞降火冰茶，使用純天然食材「洛神、烏梅、甘草、仙楂」熬煮而成，並加入蜜餞打製成冰涼的冰沙，是消暑解渴的聖品。,高雄市鼓山區東門路445號,高雄市,鼓山區,886-7-5553637,每日14:00 ~ 22:00,120.29861,22.66624,5.0
221,4051,C3_397000000A_000881,枝仔冰城,老字號冰店，總店位在旗山老街。古早風味麵茶冰，略帶芝麻顆粒香氣，搭配上細緻的香蕉冰，無敵對味，更能凸顯清冰的香甜，儼然是另一種小清新。,高雄市旗山區中山路109號,高雄市,旗山區,886-7-6612066,每日09:00 ~ 22:30,120.48199,22.88824,5.0
222,4052,C3_397000000A_000882,皇冠冰城,皇冠冰城兄弟研發各式古早味冰品，遵循古法延伸出更多元健康的低脂水果霜淇淋，採新鮮水果特製，現點製作，口口都是新鮮滋味，還可以吃到水果顆粒、果肉。,高雄市小港區高坪十七街151號,高雄市,小港區,886-7-8902218,週一～週五10:30 ~ 21:30；週六～週日10:00 ~ 22:30,120.39105,22.55969,5.0
223,4053,C3_397000000A_000969,高雄大碗公冰,"大碗公成立於1995年,以天下第一大碗公冰聞名國內外。 堅持採用新鮮香甜的水果、遵循古法熬煮的黑糖漿水、符合衛生標準的冰磚、精緻的食材與澎湃的份量， 長期累積了許多忠實顧客。現在擁有鑽石冰.綿綿冰.手作嫩仙草.手作豆花.飲料與甜品。 目前全高雄市已有五家直營門市。 於2011年榮獲國家消費者優良商品金牌獎。更於2015年榮獲台灣冰甜品類第一品牌。",高雄市鼓山區濱海一路107號,高雄市,鼓山區,886-7-5333228,每日10:00-23:30,120.27055,22.61968,5.0
224,4054,C3_397000000A_001209,日食生活,"酥脆的金黃表皮、中空的軟綿層次，以及不甜膩的麥芽內餡大受日本顧客喜愛， 期望透過我們的手作小陽餅，讓大家品嘗到安心食材的原味,與感受南方陽光般的溫暖風味。",高雄市苓雅區四維三路8巷51號,高雄市,苓雅區,886-7-3337599,每日12:00-19:00每周一公休,120.310445,22.620647,5.0
225,4056,C3_397000000A_001211,綿菓子工坊,招牌甜點 棉花糖冰棒 甜點介紹 世界第一支棉花糖冰棒，獨家研發而成，吃得到冰棒與棉花糖的絕妙搭配，冰棒口味有蘇打、芒果牛奶、桔香檸檬、養樂多，打卡還可免費加配料，有甜甜圈餅乾、跳跳糖、滿天星配料、QQ棉花糖等共有16種搭配唷！ 類型 台式,高雄市三民區嫩江街2巷8號,高雄市,三民區,886-7-3223827,每日12:30-19:30,120.298051,22.641146,5.0
226,4057,C3_397000000A_001212,橋南水磨豆花,招牌甜點 水磨豆花 甜點介紹 北高雄純手工豆花，配上老師傅古法炒糖，一口就給你懷念古早味。 類型 台式,高雄市橋頭區橋南路225號,高雄市,橋頭區,886-7-6112278,週一至週五13:00-21:00週六10:30-21:00週日10:30-20:00,120.314534,22.751323,5.0
227,4058,C3_397000000A_001215,鹽埕吳家豆花,招牌甜點 金桔豆花 甜點介紹 酸酸甜甜的金桔，搭配傳統豆花，酸甜好滋味,高雄市鹽埕區富野路70號,高雄市,鹽埕區,886-981-615230,11:00-19:00,120.284447,22.628167,5.0
228,4059,C3_397000000A_001216,九記食糖水,招牌甜點 黯然銷魂西米露（芋頭椰汁西米露）Taro Coconut Milk With Sago 甜點介紹 芋頭經過慢火熬煮至芋泥狀溶於口中，風味清淡甜而不膩，回味無窮。 類型 港式,高雄市苓雅區林南街4號,高雄市,前鎮區,886-7-2232889,週一~週日13:30-22:00,120.302992,22.606361,5.0
229,4060,C3_397000000A_001217,奈良櫻手作烘焙,招牌甜點 櫻花乳酪派 甜點介紹 將來自日本的櫻花蜜融入乳酪中 搭配脆口的塔皮，底層加上手工熬煮的覆盆子醬香濃不膩口，外觀再點綴日本空運充滿幸福浪漫的吉野櫻。 類型 日式,高雄市鳳山區三民路287巷4號,高雄市,鳳山區,886-7-7409916,每日09:00-18:00,120.357463,22.625666,5.0
230,4061,C3_397000000A_001218,Fun Tower日式可麗餅,招牌甜點 Fun Tower日式可麗餅 甜點介紹 嚴選枋山愛文芒果，淋上日本沖繩黑糖以及搭配上明治芒果冰淇淋絕配！ 類型 日式,高雄市左營區明華一路158號,高雄市,左營區,886-7-5569960,每日08:30-18:00每週二公休,120.30697,22.662951,5.0
231,4062,C3_397000000A_001219,吉初豆花,招牌甜點 一抹相思白玉 甜點介紹 給潔白的玉染上一抹淡淡的相思，紅豆薏仁為基底，配上手作湯圓與一抹湯汁。 類型 日式,高雄市楠梓區惠民路32號,高雄市,楠梓區,886-7-3648118,每日12:00-23:00,120.299,22.725034,5.0
232,4063,C3_397000000A_001220,波波莉可洋果子,招牌甜點 小戚風系列蛋糕 甜點介紹 使用日本空運烤模加上師傅多年累積的技術烤出了口感輕柔蓬鬆的戚風蛋糕，搭配上各種口味的鮮奶油及水果每口都能嚐到滿滿的幸福感~ 類型 日式,高雄市前金區仁義街273號,高雄市,前金區,886-7-2160899,每日12:00-21:00每週二公休,120.300559,22.621513,5.0
233,4064,C3_397000000A_001221,先生 SENSEI千層,招牌甜點 抹茶千層蛋糕 甜點介紹 使用日本丸久小山園抹茶粉；台灣頂級芒果；醫生的招待所；IG拍照打卡熱門。 類型 日式老屋,高雄市前鎮區民權二路180號,高雄市,前鎮區,886-7-3344527,每日12:30-18:30,120.311776,22.6071,5.0
234,4065,C3_397000000A_001222,書店喫茶 一二三亭,招牌甜點 冰淇淋煎餅 甜點介紹 現點現做、三種口味可供選擇。 類型 日式老屋,高雄市鼓山區鼓元街4號2樓,高雄市,鼓山區,886-7-5310330,每日10:00-18:00,120.274011,22.620527,5.0
235,4066,C3_397000000A_001223,裸體主義,招牌甜點 季節限定漬櫻花抹茶千層 甜點介紹 日本嚴選酸鹹滋味漬櫻花醬，搭配濃厚抹茶千層層次鮮明，令人驚艷。 類型 日式老屋,高雄市新興區達仁街88號,高雄市,新興區,886-7-2228250,平日11:00-18:00假日11:00-18:30,120.308999,22.630033,5.0
236,4067,C3_397000000A_001224,光悅茶屋Koetsu Teahouse,招牌甜點 水羊羹 甜點介紹 日式風味，水分較高的羊羹，甜而爽口，適合佐熱茶享用。 類型 日式老屋,高雄市鼓山區鼓山一路53巷107號,高雄市,鼓山區,886-7-5310455,每日11:00-21:30每週二公休,120.277606,22.626422,5.0
237,4068,C3_397000000A_001225,三餘書店,招牌甜點 櫻花櫻桃戚風蛋糕 甜點介紹 使用有機茶葉製成的戚風蛋糕，夾著飽滿的櫻桃李梅內餡，淋上清爽的優格乳霜醬，撒上花充滿春天氣息的櫻花，讓您的味蕾享受甜蜜層次所帶來的驚喜。 類型 日式老屋,高雄市新興區中正二路214號,高雄市,新興區,886-7-2253080,每日13:30-22:00每週二公休,120.315569,22.630624,5.0
238,4069,C3_397000000A_001226,兔思糖法式甜點,招牌甜點 超濃丸久小山園真抹茶蛋糕 甜點介紹 精選極上食材，茶韻醇厚回甘，清爽不甜不膩，饕客強力推薦！ 類型 法式,高雄市前鎮區沱江街183號,高雄市,前鎮區,886-7-3341168,週四至週五16:00-19:00週六11:00-14:00,120.314093,22.608472,5.0
239,4070,C3_397000000A_001227,亞力的家法式薄餅小館,招牌甜點 11吋法式手工千層蛋糕 甜點介紹 由十一吋蛋糕分切成單片的千層蛋糕，餅皮使用有機養生蛋製成，加上自製的卡士達奶霜內餡一層一層包覆著餅皮，口感滋潤順口。 類型 法式,高雄市苓雅區中山二路342號,高雄市,苓雅區,886-7-3385665,平日11:00-21:00假日10:00-21:00每週二公休,120.303842,22.616373,5.0
240,4071,C3_397000000A_001228,蘿芙甜點Loft Pâtisserie,招牌甜點 莓果 蘿芙甜 甜點介紹 蓬鬆輕盈的香草戚風蛋糕，搭上自製香草卡士達，並以日本空運來台的100%歐姆生乳裝飾，呈現最純粹的滋味~ 類型 法式,高雄市鼓山區美術東二路61號,高雄市,鼓山區,886-7-5553252,12:00-21:00,120.287772,22.652785,5.0
241,4072,C3_397000000A_001229,E'Z Chocolat手工巧克力(青年路),嚴選產地精選調溫巧克力和天然食材創作出一顆顆不同風味的美味巧克力，招牌創作塩之花帶有伯爵茶香味和法國玫瑰塩提昇口感層次是店內的人氣口味。,高雄市苓雅區青年二路51號,高雄市,苓雅區,886-7-3383371,每日12:00-21:00,120.300285,22.61927,5.0
242,4073,C3_397000000A_001230,Macchiato-手作千層蛋糕專賣,招牌甜點 法式手作千層蛋糕 甜點介紹 完美手作工藝，層層堆疊薄可透光的蛋皮超過40層，極致的要求，只為最完美的呈現。 類型 法式,高雄市新興區中正三路121號,高雄市,新興區,886-7-2163121,每日13:00-21:00週六公休,120.305452,22.630974,5.0
243,4074,C3_397000000A_001231,南風洋菓子,招牌甜點 水果千層 甜點介紹 平價甜點，每一口都吃得出真材實料。 類型 法式,高雄市三民區同盟二路37號,高雄市,三民區,886-7-3229558,週二至週六12:00-22:00每週日、週一公休,120.302069,22.651388,5.0
244,4075,C3_397000000A_001232,TST,招牌甜點 法式磅蛋糕甜甜圈 甜點介紹 法國百年甜點磅蛋糕 “京都抹茶草莓 法國可可貝芮巧克力 有機清新檸檬 類型 法式,高雄市苓雅區廣東一街115號,高雄市,苓雅區,886-7-7230770,每日10:00-19:00每週四公休,120.319152,22.622824,5.0
245,4076,C3_397000000A_001233,NaMa奈瑪烘焙工坊,招牌甜點 千層蛋糕 甜點介紹 選用新鮮的食材交疊濕潤Q軟的薄皮，每一口都能吃到滿滿的內餡，喜歡千層蛋糕的朋友千萬別錯過囉！ 類型 法式,高雄市楠梓區海專路207號,高雄市,楠梓區,886-7-3633207,每日11:00-23:00,120.313127,22.724695,5.0
246,4077,C3_397000000A_001234,Velvet patisserie 法絨法式手工甜點,招牌甜點 桂花柚香莓果塔 甜點介紹 桂花襯托蜂蜜柚子慕斯，佐以新鮮覆盆子及手作淋面，裡層百香果馬斯卡邦，酸酸甜甜且層次分明 類型 法式,高雄市鼓山區美術南二路33號,高雄市,鼓山區,886-7-5527727,每日12:00-20:30,120.284441,22.650437,5.0
247,4078,C3_397000000A_001236,貝瑞家,招牌甜點 卡納蕾 甜點介紹 法國貝瑞先生，傳承家鄉口味，法式手作點心。 本店熱銷商品卡納蕾，焦糖表層，外脆內軟，交織出多層次味蕾。 類型 法式,高雄市三民區鼎華路165號,高雄市,三民區,886-7-3808860,週二至週日12:00-19:00每週一公休,120.316091,22.651861,5.0
248,4079,C3_397000000A_001237,朵莉甜廚,招牌甜點 可麗露 甜點介紹 一位女孩特地遠渡重洋到法國藍帶取經，為了想把生活小確幸分享給每一個人，希望不分男女老少都能擁有簡單的甜甜幸福。 類型 法式,高雄市苓雅區廈門街14號,高雄市,苓雅區,886-7-2293666,每日10:30-19:00每週二公休,120.313577,22.625834,5.0
249,4080,C3_397000000A_001238,梅森維拉玻璃屋,招牌甜點 梅森維拉意象 甜點介紹 在玻璃屋裡，花盛開，蝴蝶飛翔，清爽的檸檬內餡，搭配綜合莓果花香芬芳，莓果酸甜，搭配檸檬內餡，如果置身玻璃屋的清透幸福感。 類型 法式,高雄市鼓山區博愛一路433巷20號,高雄市,三民區,886-7-5500569,週二、週四09:00-17:00、18:00-22:00週三、週五、週末09:00-17:00、17:30-22:00每週一公休,120.303084,22.641962,5.0
250,4081,C3_397000000A_001239,品黑,招牌甜點 夏日之戀 甜點介紹 品嚐蛋糕中的精品~香濃而不膩乳酪球三種層次風味一次品嚐手工餅乾的口感使人一口接一口 類型 法式,高雄市鹽埕區大公路59號,高雄市,鹽埕區,886-7-5211613,每日11:00-20:00,120.283824,22.626891,5.0
251,4082,C3_397000000A_001240,艾樂比,招牌甜點 芒果慕斯蛋糕 甜點介紹 芒果切片，交織出一朵朵盛開的玫瑰，芒果玫瑰慕斯蛋糕，您一定要親口品嚐。 類型 老屋法式,高雄市鹽埕區新興街137號,高雄市,鹽埕區,886-7-5211147,週三至週四12:00-20:00,120.28199,22.627508,5.0
252,4083,C3_397000000A_001241,歐朵貝兒杯子蛋糕手創坊,招牌甜點 美式杯子蛋糕、季節小甜派、手作甜點 甜點介紹 高雄第一家最具特色美味的杯子蛋糕和純手作季節甜點專賣。 美式塔派和戚風蛋糕，也絕對不能錯過喔~ 類型 美式,高雄市三民區民族一路261號,高雄市,三民區,886-7-3827333,每日13:30-21:00每週二公休,120.314781,22.651529,5.0
253,4084,C3_397000000A_001242,Dogoodcoffee&dessert,招牌甜點 那個冰的生乳酪(口味不定時更新) 甜點介紹 冷凍的生乳酪，有著雪糕般的冰涼口感，酸甜清爽的滋味，一直都是do good夏日的人氣商品。 類型 美式,高雄市鹽埕區必信街116-1號,高雄市,鹽埕區,886-7-5213635,每日10:00-18:00每週二公休,120.280247,22.621714,5.0
254,4085,C3_397000000A_001243,Poppy waffle高雄左營,招牌甜點 鬆餅禮物盒 甜點介紹 高雄唯一客製化畫盤，比利時鬆餅搭配焗烤、綿密卡士達、比利時果餡、明治冰淇淋等任選4種口味搭配。 類型 比利時,高雄市左營區富國路292號,高雄市,左營區,886-7-5508265,每日11:00-21:00,120.306787,22.663547,5.0
255,4086,C3_397000000A_001244,伴珈家,"招牌甜點 Dutch baby 鐵鑄鬆餅 甜點介紹 來自德國的家庭鬆餅由雞蛋,糖，麵粉和牛奶混合,放入鑄鐵鍋裡烘烤出外酥內軟的鬆餅。 類型 德式",高雄市鼓山區美術東七街102號,高雄市,鼓山區,886-7-5225252,每日10:00-18:00每週二公休,120.289643,22.662101,5.0
256,4087,C3_397000000A_001264,Saycheese起司餃專賣店,精選菜色 香草羅勒起司餃、焗烤馬鈴薯 介紹 特製餃子薄皮，配上各式內餡，加上濃郁起司，撒上特製研磨海苔粉。 烹煮分類 炸,高雄市三民區永吉街59號,高雄市,三民區,886-933-590027,週一至週六15:00-21:30每週日公休,120.306652,22.644307,1.0
257,4088,C3_397000000A_001265,米卡希達墨西哥廚坊,用墨西哥特製的玉米粉製成的脆餃、暴漿的內餡‚口口吃出墨西哥香濃好滋味‚配上道地用辣椒製成海鮮香辣湯‚爽口好鮮味。,高雄市苓雅區新光路140巷39號,高雄市,苓雅區,886-7-2691433,週一、週三至週五 11:00-15:00；17:00-21:00周末 11:00-22:00每週二公休,120.299075,22.6117,1.0
258,4089,C3_397000000A_001266,迪立印度健康蔬食坊,精選菜色 印度咖哩餃(佐羅望子醬)、印度扁豆湯 介紹 有機黃肉馬鈴薯，加26種香料、蔬菜手工自製而成咖哩餃，佐酸甜羅望子醬，搭配清爽高蛋白質的扁豆湯 烹煮分類 炸,高雄市苓雅區中正二路56巷33弄2號,高雄市,苓雅區,886-908-831365,週四至週一 11:30-14:30；17:30-20:30每週二、週三公休,120.319001,22.632216,1.0
259,4090,C3_397000000A_001267,高雄H2O水京棧國際酒店-京悅軒,精選菜色 三餃關係、不吃後悔牛肉麵 介紹 三餃關係:採用香蕉加上起司與酥皮，由小火酥炸，蹦出新滋味，是餐後不可缺少的甜點。 烹煮分類 炸,高雄市鼓山區明華路366號,高雄市,鼓山區,886-7-5537001,每日11:30-14:00；17:30-21:00,120.302102,22.662787,3.0
260,4091,C3_397000000A_001268,豚將日本拉麵-六合店,精選菜色 唐揚餃子、辛辛豚拉麵 介紹 餃子以油炸的方式，表皮呈現金黃色、口感酥酥脆脆，搭配辛辛豚拉麵辛辣的風味，是最佳組合選擇。 烹煮分類 炸,高雄市新興區六合一路57-8號,高雄市,新興區,886-7-2387777,每日11:00-14:00；17:00-21:00,120.30784,22.632493,1.0
261,4092,C3_397000000A_001269,著火的牛,精選菜色 阿根廷炸餡餅(餃)、根廷炭烤牛排 介紹 Empanada 是阿根廷到處可見的小美食，親手製作的餡餅，每一顆都充滿道地的風味 烹煮分類 炸,高雄市新興區中正三路122號,高雄市,新興區,886-7-2352000,每日11:30-15:00；17:30-22:30週末11:30-15:00；17:00-22:30每週一中午公休,120.305347,22.631381,2.0
262,4093,C3_397000000A_001270,黛麗莎拉丁美洲西班牙餐廳,精選菜色 西班牙小脆餅、南瓜濃湯 介紹 西班牙道地家常小美食，100%純手工麵皮及餡料，有雞肉、奶油及起司口味+香濃滑口的南瓜濃湯。 烹煮分類 炸,高雄市鹽埕區五福四路146-2號,高雄市,鹽埕區,886-7-5513233,每日11:00-22:00,120.284869,22.623274,1.0
263,4094,C3_397000000A_001271,MLD台鋁美食街-悅品點心,精選菜色 韭菜鮮蝦餃、紅油炒手＋鹹檸七 介紹 天然蔬菜汁揉成翡翠外皮，入口韭菜清香、蝦清甜，最宜搭配重口味配菜。 烹煮分類 蒸,高雄市前鎮區忠勤路8號,高雄市,前鎮區,886-7-5365388,11:30-21:00,120.303739,22.604038,3.0
264,4095,C3_397000000A_001273,Trattoria Venti,精選菜色 鮮蝦義大利麵餃、鳳梨氣泡水 介紹 內餡使用起司、杏鮑菇及剁碎的白蝦肉，搭配紅醬與奶醬調配的濃郁醬汁。 烹煮分類 煮,高雄市鼓山區青海路277號,高雄市,鼓山區,886-7-5500150,每日11:30-15:30；17:30-21:30,120.285161,22.651406,1.0
265,4096,C3_397000000A_001274,上品齋山東水餃專賣店,精選菜色 黑豬肉海藻水餃、牛肉丸子湯 介紹 嚼勁外皮多汁內餡，滿口淡淡的紫菜香氣！來晚牛大骨熬製的牛肉丸子湯暖心。 烹煮分類 煮,高雄市三民區山東街127號,高雄市,三民區,886-7-3110267,每日10:30-14:00；16:30-20:00每週六公休,120.311468,22.644009,3.0
266,4097,C3_397000000A_001276,川寧食堂,精選菜色 黃金蛋餃、麻辣臭豆腐 介紹 精選優質豬心頭肉快刀剁末調味，配合在地土雞蛋手工煎皮包覆，成就美食。 烹煮分類 煮,高雄市前鎮區正勤路11號,高雄市,前鎮區,886-7-5360216,週二至週日11:00-14:00；17:00-21:00每週一公休,120.303202,22.602271,3.0
267,4098,C3_397000000A_001278,成台灣虱目魚專賣店,精選菜色 虱目魚鮮蝦水餃、虱目魚肉湯 介紹 每日清晨至漁市新鮮採買魚貨食材，嚴選虱目魚僅有的兩條背脊肉，加入新鮮蝦仁，以手工製作。 烹煮分類 煮,高雄市新興區林森一路242號,高雄市,新興區,886-7-2367698,每日10:00-21:00,120.30516,22.63499,3.0
268,4099,C3_397000000A_001279,果貿吳媽家,精選菜色 韭菜蝦仁水餃、酸辣湯 介紹 新鮮海蝦，脆彈鮮美蝦仁，極鮮爆汁的口感，配上獨特內餡，香濃滑順的酸辣湯是唯一的首選搭配。 烹煮分類 煮,高雄市左營區翠峰路8號,高雄市,左營區,886-7-5887857,每日10:00-21:00,120.289703,22.671432,3.0
269,4100,C3_397000000A_001280,德藝小築 German Kitchen,精選菜色 德國馬鈴薯餃子球Kartoffelklöße(酸菜餡) 佐獵人蘑菇醬、煙燻啤酒烤脆皮豬五花 介紹 馬鈴薯揉製球狀包覆培根拌炒德國酸菜餡， 淋上特製德式獵人蘑菇醬汁。 烹煮分類 煮,高雄市左營區南屏路296號,高雄市,左營區,886-7-5529699,週二至週五17:30-22:00週末11:00-14:30；17:30-22:00每週一公休,120.298684,22.668609,1.0
270,4101,C3_397000000A_001281,冒煙的喬美式墨西哥餐廳-高雄自由店,精選菜色 自製煙燻雞肉菠菜起士義大利方餃麵、義大利香料麵包+特製主廚濃湯 介紹 將獨特風味的煙燻雞肉包入自製的菠菜麵皮中，搭配瑪斯卡邦起司，風味絕佳!! 烹煮分類 煮,高雄市左營區自由二路318號,高雄市,左營區,886-7-9607715,每日11:00-00:00,120.30869,22.665172,1.0
271,4102,C3_397000000A_001282,馬扎爾東歐餐館,精選菜色 捷克麵糰子(捷克餃子)、香烤豬肉佐酒燉紫甘藍 介紹 捷克傳統餃子，搭配煙熏豬肉、 燉紫甘藍、 酸菜及芥末籽醬 烹煮分類 煮,高雄市左營區天祥二路111巷20號,高雄市,左營區,886-7-5563235,週二至週日11:30-15:00；17:30-21:00每週一公休,120.313316,22.668313,1.0
272,4103,C3_397000000A_001283,莎曉克羅埃西亞廚房Croatian Kitchen,精選菜色 克羅埃西亞梅子水餃、東歐肉捲 介紹 馬鈴薯外皮包梅子餡，淋上糖與酸奶油。 配東歐肉捲，雙層獨特口感麵包，有嚼勁。 烹煮分類 煮,高雄市苓雅區河北路17號,高雄市,苓雅區,886-929-588928,週二至週五11:30-14:00；17:00-21:00週末11:30-15:00；17:00-21:00每週一公休,120.331015,22.623732,1.0
273,4104,C3_397000000A_001284,路竹四寶双生魠魚焿,精選菜色 番茄虱目魚水餃、番茄虱目魚丸湯 介紹 品味田野的天然香氣 享受自然的海洋氣息 讓您的味蕾回到初始的慾望 烹煮分類 煮,高雄市路竹區民強街1-3號,高雄市,路竹區,886-932-813293,每日06:30-14:00每週六公休,120.262071,22.854389,4.0
274,4105,C3_397000000A_001285,青島餃子專賣店,"精選菜色 韭菜蝦仁豬肉餃子、精燉排骨湯 介紹 新鮮甜美的蝦仁與韭菜一同品嘗時香氣四溢,再搭配精燉排骨湯更加美味 烹煮分類 煮",高雄市仁武區八德南路100巷65號,高雄市,仁武區,886-7-3725656,每日11:00-14:00；17:00-20:00每週日公休,120.337602,22.683098,3.0
275,4106,C3_397000000A_001286,五六煎餃製造所-鼎山店,精選菜色 煎餃、咖啡牛奶 介紹 以高麗菜為主，傳統好滋味。配上自行專屬調配飲品。一早活力的來源。 烹煮分類 煎,高雄市三民區鼎山街587號,高雄市,三民區,886-926-260186,每日06:00-11:30,120.317405,22.650905,4.0
276,4107,C3_397000000A_001287,卡茲咖啡Katsicafé,精選菜色 博雷克BÖREK、帕瑪沙拉 介紹 源自巴爾幹半島，用飛洛餅皮(Filo pastry)餡滿奶酪，蔬菜及肉末。搭配本店任何一款地中海沙拉，清爽美味。 烹煮分類 煎,高雄市鼓山區九如四路1823號1樓,高雄市,鼓山區,886-988-543389,週三至週四12:00-21:30週五12:00-00:00週末12:00-22:30週一、週二公休,120.284264,22.666181,1.0
277,4108,C3_397000000A_001288,合羽亭,"精選菜色 煎餃、烏龍湯麵 介紹 香脆多汁煎餃搭濃厚豆皮香的豆皮屋龍湯麵,讓您這個冬天暖心又暖胃。 烹煮分類 煎",高雄市鹽埕區五福四路30號,高雄市,鹽埕區,886-7-5219779,週一至週三11:00-14:00；17:00-23:00週五11:00-14:00；17:00-23:00週六、週日11:00-23:00每週四公休,120.288491,22.621501,1.0
278,4109,C3_397000000A_001289,泰餃情泰式料理餃子專賣店-瑞豐夜市店,精選菜色 招牌打拋煎餃、塔香綠咖哩餃 介紹 獨家泰式煎餃，將泰式料理打拋肉融入餃子餡製成，高雄啤酒節優勝。 烹煮分類 煎,高雄市左營區南屏路(瑞峰夜市第一排),高雄市,左營區,886-917-662302,週二、週四至週日17:30-23:30每週一、週三公休,120.299353,22.666263,4.0
279,4110,C3_397000000A_001290,餃子の王將 高雄漢神巨蛋店,精選菜色 王將餃子、餃子定食餃 介紹 店內的餃子皮是使用北海道產的小麥粉。皮薄Ｑ嫩很有口感和餃子底部的煎面也是非常酥脆是我們餃子的特徵。 餃子定食:餃子在日本是當作吃飯時的配菜來吃，因此和米飯非常合，皮薄、內餡的味道也調整過。 在漢神巨蛋店內，餃子定食是非常受到大家的喜愛且很有人氣。 烹煮分類 煎,高雄市左營區博愛路二段777號4樓,高雄市,左營區,886-7-5867556,週一至週四11:00-21:00週五11:00-21:30週末10:30-21:30,120.302537,22.669869,1.0
280,4111,C3_397000000A_001291,棉花堡土耳其餐廳,精選菜色 窯烤”堡堡餃”、翡翠沙拉 介紹 新鮮洋蔥及土耳其香料所調製的碎肉內餡，爽滑酥嫩、肉 汁四溢、口感飽滿。 烹煮分類 烤,高雄市左營區裕誠路429號,高雄市,左營區,886-7-5571717,每日10:00-22:00,120.306196,22.665506,2.0
281,4112,C3_397000000A_001293,咖啡林咖啡,店家分類 都會咖啡香 推薦單品 Espresso Sparkling義式濃縮氣泡飲,高雄市三民區鼎祥街12號,高雄市,三民區,886-7-2855300,週二~週日10:0-18:00每週一公休,120.315779,22.665077,9.0
282,4113,C3_397000000A_001294,Acc cafe de coeur 真心豆行,店家分類 都會咖啡香 推薦單品 鹽之花太妃糖拿鐵 !-- 烹煮分類 炸 -->,高雄市前金區七賢二路365號,高雄市,前金區,886-7-2419850,每日09:00-18:00每週二公休,120.288742,22.630716,9.0
283,4114,C3_397000000A_001295,方寸之間,都會咖啡香,高雄市新興區文化路18號,高雄市,新興區,886-7-2159953,週二~週日10:00-20:00週一公休,120.306861,22.624232,9.0
284,4115,C3_397000000A_001297,CHIC CAFÉ 奇可小廚,店家分類 都會咖啡香,高雄市新興區忠孝一路102號,高雄市,新興區,886-7-2157785,每日10:00-22:00,120.306026,22.625278,9.0
285,4116,C3_397000000A_001298,溫室造咖,店家分類 都會咖啡香 推薦單品 溫室特調冰咖啡,高雄市新興區仁愛一街102號,高雄市,新興區,886-7-2828850,每日11:00-18:00,120.307412,22.630406,9.0
286,4117,C3_397000000A_001299,Cest La Vie 瑟拉威咖啡館,店家分類 都會咖啡香 推薦單品 哈洛巴利迪,高雄市新興區民族二路66號,高雄市,新興區,886-7-2232633,每日08:00-20:30,120.313738,22.632518,9.0
287,4118,C3_397000000A_001300,路易‧莎 咖啡Louisa Coffee  高雄中正店,店家分類 都會咖啡香 推薦單品 澳洲小拿鐵,高雄市新興區中正三路68-2號,高雄市,新興區,886-7-2366267,每日07:30-21:30,120.308596,22.631156,9.0
288,4119,C3_397000000A_001301,貓頭鷹咖啡,店家分類 都會咖啡香 推薦單品 精品黑咖啡,高雄市新興區忠孝一路458號,高雄市,新興區,886-7-2361002,平日09:00-18:00週末08:00-18:00每週一公休,120.30645,22.634759,9.0
289,4120,C3_397000000A_001302,洛斯特ROAST,店家分類 都會咖啡香,高雄市新興區七賢二路90號,高雄市,新興區,886-7-2872310,週一至週六12:00-21:00週日10:00-18:00,120.298791,22.634335,9.0
290,4121,C3_397000000A_001303,Amis café 鑀覓咖啡,店家分類 都會咖啡香 推薦單品 冰滴氣水及手工餅乾,高雄市新興區信守街99號,高雄市,新興區,886-7-2236789,每週四~六18:00-12:00週一~三、日公休,120.314646,22.631265,9.0
291,4122,C3_397000000A_001304,atti咖啡研究工坊,店家分類 都會咖啡香 推薦單品 耶加雪夫全餐,高雄市三民區鼎山街611號,高雄市,三民區,886-7-3929937,每日12:00-23:00每週四公休,120.317099,22.650446,9.0
292,4123,C3_397000000A_001305,和。好珈琲店,店家分類 都會咖啡香,高雄市三民區興隆街21號,高雄市,三民區,886-7-3809876,每日09:00-18:00每週一公休,120.319091,22.647038,9.0
293,4124,C3_397000000A_001306,都提咖啡 Dutty,店家分類 都會咖啡香,高雄市三民區吉林街86號,高雄市,三民區,886-7-3233988,週二至週日10:00-21:30週一09:00-21:30,120.306322,22.642403,9.0
294,4125,C3_397000000A_001307,一等一咖啡茶飲,店家分類 文創咖啡香 推薦單品 藝技咖啡(巴拿馬),高雄市鹽埕區新興街28-1號,高雄市,鹽埕區,886-7-5320909,每日10:00-18:00；20:00-22:00,120.280187,22.623571,9.0
295,4126,C3_397000000A_001308,元啡驢派,店家分類 文創咖啡香 推薦單品 咖啡鹹派組合,高雄市鹽埕區建國四路276號,高雄市,鹽埕區,886-7-5330944,每日10:00-20:00每週三公休,120.283426,22.63115,9.0
296,4127,C3_397000000A_001310,Booking書局,店家分類 文創咖啡香 推薦單品 原味拿鐵,高雄市鹽埕區瀨南街177號,高雄市,鹽埕區,886-7-5612220,每日11:00-20:00,120.283329,22.626671,9.0
297,4128,C3_397000000A_001311,大城。小事咖啡館,店家分類 文創咖啡香,高雄市鹽埕區河西路147號,高雄市,鹽埕區,886-7-5219692,平日12:00-21:00周末10:00-19:00每週二公休,120.285919,22.629702,9.0
298,4129,C3_397000000A_001312,美森咖啡 Artisan Cafe,店家分類 文創咖啡香 推薦單品 Nordic Approch 單品咖啡 Kenya PB,高雄市前金區仁義街223號,高雄市,前金區,886-7-2312188,每日11:00-19:00,120.300989,22.620337,9.0
299,4130,C3_397000000A_001313,謎思咖啡,店家分類 文創咖啡香 推薦單品 謎思拿鐵,高雄市前金區市中一路167號,高雄市,前金區,886-7-2010188,每日08:00-18:00,120.291245,22.625412,9.0
300,4131,C3_397000000A_001314,握咖啡 OH！cafe,店家分類 文創咖啡香,高雄市鼓山區濱海二路5號,高雄市,鼓山區,886-7-5337377,平日12:00-20:00週末10:00-20:00,120.270334,22.620012,9.0
301,4132,C3_397000000A_001315,海岸咖啡(大碗公咖啡),店家分類 文創咖啡香 推薦單品 拿鐵咖啡,高雄市鼓山區柴山路31號,高雄市,鼓山區,886-7-5251668,每日12:00-20:00每週一公休,120.254026,22.644417,9.0
302,4133,C3_397000000A_001319,查理布朗咖啡Charlie Brown Café,店家分類 灣區咖啡香 推薦單品 史努比咖啡,高雄市前鎮區中華五路789號3樓,高雄市,前鎮區,886-7-8110838,每日11:00-22:00,120.306611,22.594904,9.0
303,4134,C3_397000000A_001320,黛西堂咖啡豆舖,店家分類 灣區咖啡香 推薦單品 冰萃,高雄市前鎮區中山四路813號,高雄市,前鎮區,886-911-117296,每日10:00-19:00每週日公休,120.316202,22.594786,9.0
304,4135,C3_397000000A_001321,卡契芬世界冠軍咖啡,店家分類 灣區咖啡香,高雄市前鎮區忠勤路23號1樓,高雄市,前鎮區,886-7-9769890,平日09:30-17:30週末09:30-18:30,120.302174,22.604495,9.0
305,4136,C3_397000000A_001322,CUP CAFE' 杯子咖啡館,店家分類 灣區咖啡香,高雄市苓雅區中興街167號,高雄市,苓雅區,886-7-3392470,每日11:30-22:00,120.303529,22.619457,9.0
306,4137,C3_397000000A_001323,My Cofi,店家分類 灣區咖啡香 推薦單品 My cofi手繪拿鐵藝術立體雕花,高雄市苓雅區廈門街19號,高雄市,苓雅區,886-7-2220101,每日08:30-18:00每週四公休,120.314191,22.625676,9.0
307,4138,C3_397000000A_001324,TaMa 咖啡館,店家分類 灣區咖啡香,高雄市苓雅區永康街73號,高雄市,苓雅區,886-7-3346397,每日10:00-18:30每週一、二公休,120.308145,22.617654,9.0
308,4139,C3_397000000A_001326,馞咖啡 Balmy Café,店家分類 灣區咖啡香 推薦單品 手沖咖啡,高雄市苓雅區光華一路207號,高雄市,苓雅區,886-7-3330289,每日13:00-00:00每週二公休,120.315564,22.62347,9.0
309,4140,C3_397000000A_001327,爵爵&貓叔商行,店家分類 灣區咖啡香,高雄市苓雅區興中一路243巷41號,高雄市,苓雅區,886-7-3344630,每日11:00-21:00,120.311169,22.616928,9.0
310,4141,C3_397000000A_001328,咖啡自然醒,店家分類 灣區咖啡香,高雄市苓雅區中山二路463號,高雄市,苓雅區,886-7-5366067,每日08:00-18:00每週二公休,120.30257,22.618329,9.0
311,4142,C3_397000000A_001329,歐舍咖啡 高雄店,店家分類 舊城咖啡香,高雄市鼓山區翠華路491號,高雄市,鼓山區,886-7-5880072,每日09:30-21:00,120.286297,22.665558,9.0
312,4143,C3_397000000A_001330,歐客佬Oklao咖啡農場,店家分類 舊城咖啡香 推薦單品 寮國自營農場掛耳禮盒,高雄市左營區明倫路85號,高雄市,鼓山區,886-7-5522500,10:00-22:00,120.297857,22.667021,9.0
313,4144,C3_397000000A_001331,中外餅鋪,店家分類 舊城咖啡香,高雄市左營區蓮潭路60之1號,高雄市,左營區,886-7-5886366,每日09:00-21:00,120.293461,22.683686,9.0
314,4145,C3_397000000A_001332,奎克咖啡,店家分類 舊城咖啡香 推薦單品 精品莊園,高雄市左營區博愛二路236號,高雄市,左營區,886-7-5570977,09:00-21:00,120.303396,22.660752,9.0
315,4146,C3_397000000A_001333,卡啡那 Caffaina Coffee Gallery,店家分類 舊城咖啡香 推薦單品 冰釀咖啡,高雄市鼓山區美術東二路3號,高雄市,鼓山區,886-7-5520031,09:00-00:00,120.287603,22.651146,9.0
316,4147,C3_397000000A_001334,鼻子咖啡,店家分類 舊城咖啡香 推薦單品 黑糖那堤,高雄市鼓山區龍水里龍水路231號,高雄市,鼓山區,886-7-5588920,平日10:30-22:00週末09:30-22:00每週三公休,120.282709,22.654771,9.0
317,4148,C3_397000000A_001336,左屏商行(咖啡中學),店家分類 舊城咖啡香,高雄市鼓山區青海路392號,高雄市,鼓山區,886-7-5528671,週二至週日14:00-22:00每週一公休,120.285129,22.65159,9.0
318,4149,C3_397000000A_001337,MATTONI Deli Café馬多尼生活餐坊,店家分類 舊城咖啡香,高雄市鼓山區美術東六街246號,高雄市,鼓山區,886-7-5226066,09:00-22:00,120.291749,22.661584,9.0
319,4150,C3_397000000A_001338,各比伊咖啡Gavagai Café,店家分類 舊城咖啡香 推薦單品 單品咖啡,高雄市三民區敦煌路80巷11號,高雄市,三民區,886-7-3958857,每日12:00-23:00每週三公休,120.313305,22.658932,9.0
320,4151,C3_397000000A_001339,季洋莊園咖啡館,店家分類 山城咖啡香 推薦單品 季洋拿鐵,高雄市鳳山區文衡路495號,高雄市,鳳山區,886-7-7781349,週一至週五07:30-22:00 週六至週日08:00-22:00,120.34632,22.641639,9.0
321,4152,C3_397000000A_001340,咖啡。香鞏鞏,店家分類 山城咖啡香 推薦單品 咖啡尋根之旅,高雄市鳳山區誠義路27號,高雄市,鳳山區,886-921-424924,每日12:00-21:00每週四公休,120.360325,22.608509,9.0
322,4153,C3_397000000A_001341,東照山咖啡休閒農場,店家分類 山城咖啡香,高雄市大樹區小坪里小坪路107-2號,高雄市,大樹區,886-7-6528099,每日10:00-22:30每週二公休,120.409014,22.678943,9.0
323,4154,C3_397000000A_001342,大樹有機紅豆咖啡,店家分類 山城咖啡香,高雄市大樹區龍目里龍目路54號,高雄市,大樹區,886-7-6519577,每日10:00-19:00每週一公休,120.408876,22.68903,9.0
324,4155,C3_397000000A_001343,Choosy Gourmet 啡嚐挑剔,店家分類 山城咖啡香 推薦單品 青蛙撞鐵,高雄市仁武區後港巷151之10號,高雄市,仁武區,886-7-3509609,週二至週六11:00-23:00週日11:00-18:00每週一公休,120.336213,22.687858,9.0
325,4156,C3_397000000A_001344,25巷3號caffe,店家分類 山城咖啡香 推薦單品 肯亞 冽里產區 卡洛圖,高雄市大寮區自強街25巷3號,高雄市,大寮區,886-7-7030250,週五至週二10:00-20:00週三10:00-18:00每週四公休,120.392389,22.635333,9.0
326,4157,C3_397000000A_001345,好好 good days,店家分類 山城咖啡香 推薦單品 那瑪夏僑香咖啡三部曲,高雄市甲仙區忠孝路2號,高雄市,甲仙區,886-7-6753838,每日11:00-19:00每週一公休,120.586973,23.082051,9.0
327,4158,C3_397000000A_001346,聖壬園濃縮咖啡,店家分類 山城咖啡香,高雄市旗山區平和街第一公有市場12號,高雄市,旗山區,886-7-6611195,每日07:30-14:30每週二公休,120.482422,22.88926,9.0
328,4159,C3_397000000A_001347,僑香咖啡,店家分類 山城咖啡香,高雄市那瑪夏區達卡努瓦里青山巷30號,高雄市,那瑪夏區,886-937-355210,每日08:30-22:30,120.68235,23.265873,9.0
329,4160,C3_397000000A_001404,果然真好果汁屋,◆Fresh(果汁) 主推飲品 芒果牛奶 飲品介紹 選用當季頂級愛文芒果搭配濃郁奶香，綿密細緻的口感給你滿滿的驚喜!,高雄市新興區自立二路114號,高雄市,新興區,886-7-2852221,每日11:00~22:00,120.298687,22.632177,5.0
330,4161,C3_397000000A_001405,果圓創意茶飲,◆Fresh(果汁) 主推飲品 火龍果香蕉牛奶 飲品介紹 新鮮水果搭配手工水果珍珠，震撼你的視覺，享受你的味覺。,高雄市前鎮區一心一路232號,高雄市,前鎮區,886-7-7228358,週一~週三、週五~週六09:00-21:00週四18:00-00:00週日公休,120.319485,22.607538,5.0
331,4162,C3_397000000A_001406,雲家檸檬大王-熱河店,◆Fresh(果汁) 主推飲品 金桔檸檬 飲品介紹 當天現榨原汁，搭配遵循古法熬煮糖水，在地經營60年歷史，陪伴許多高雄人的回憶。,高雄市三民區熱河一街432號,高雄市,三民區,886-7-3222330,每日10:00~22:30,120.30399,22.64397,5.0
332,4163,C3_397000000A_001407,鮮果時間-No.7 五福大統店,◆Fresh(果汁) 主推飲品 芋圓鮮奶茶 飲品介紹 手工製作九份芋圓，做成珍珠大小，嚼勁十足、吃的到芋頭顆粒。,高雄市新興區五福二路262號,高雄市,新興區,886-7-2613578,每日11:00~22:00,120.301406,22.623547,5.0
333,4164,C3_397000000A_001408,小飲涼茶-高雄總店,◆Shaking(手搖杯) 主推飲品 就愛凍奶 飲品介紹 凍仙草+香醇牛奶，口感層次綿密，大大推薦~,高雄市前金區成功一路276號,高雄市,前金區,886-7-2315677,每日10:00~18:30,120.295587,22.619947,5.0
334,4165,C3_397000000A_001409,水巷茶弄-文橫店,◆Shaking(手搖杯) 主推飲品 寒天愛玉 飲品介紹 寒天採用紅藻萃取而成，搭配滑嫩愛玉，舊雨新知必點的暢銷飲品!,高雄市苓雅區文橫二路85號,高雄市,苓雅區,886-7-5366180,平日10:30~22:00週日11:00~20:00,120.30592,22.61705,5.0
335,4166,C3_397000000A_001410,本家御守茶飲,◆Shaking(手搖杯) 主推飲品 祖傳金棗甘露 飲品介紹 每年冬天選用新鮮金棗釀製，金棗可以潤喉、生津止渴。,高雄市新興區林森一路152之1號,高雄市,新興區,886-7-2161123,每日9:30-00:00,120.3046,22.62947,5.0
336,4167,C3_397000000A_001411,有時喝茶,◆Shaking(手搖杯) 主推飲品 鍋煮奶茶 飲品介紹 鍋煮鮮奶茶是帶有醇厚的麥芽糖的甜香、尾韻是帶有層次感的茶韻。,高雄市左營區富國路145號,高雄市,左營區,886-7-5582668,每日10:00~22:00,120.306384,22.66215,5.0
337,4168,C3_397000000A_001412,香茗茶行(1946)雷芽茶飲聯名概念店,◆Shaking(手搖杯) 主推飲品 香茗招牌鮮奶茶 飲品介紹 每一杯鮮奶茶，採用一瓶高大牧場鮮奶搭配錫蘭紅茶，溫潤鮮奶香與順口茶香。,高雄市鼓山區蓬萊路17號 (棧貳庫),高雄市,鼓山區,886-7-5318568 #2111,每日10:00~21:00,120.277009,22.619,5.0
338,4169,C3_397000000A_001413,神農本舖,◆Shaking(手搖杯) 主推飲品 芒果冰沙 飲品介紹 炎炎夏日，用台灣南部特色水果做成可口美味、美感俱佳的飲品，值您回味。,高雄市三民區同愛街68號,高雄市,三民區,886-7-2858881,每日10:00~22:30,120.300799,22.63715,5.0
339,4170,C3_397000000A_001414,茶仙,◆Shaking(手搖杯) 主推飲品 桑心奶茶 飲品介紹 使用天然的桑葚果粒與冰糖熬煮，再加上一整瓶鮮奶調製而成。,高雄市三民區同愛街61號,高雄市,三民區,886-9-38488669,每日10:30~21:00,120.300633,22.637116,5.0
340,4171,C3_397000000A_001415,黑糖奶奶三犬本舖,◆Shaking(手搖杯) 主推飲品 三寶黑糖鮮奶 飲品介紹 有別於以往飲料裡只有單一珍珠，三寶裡面有珍珠、粉角、粉條三種結合在一起的豐富口感。,高雄市苓雅區光華一路66號,高雄市,苓雅區,886-7-7226379,每日10:00~22:00,120.317395,22.619825,5.0
341,4172,C3_397000000A_001416,極渴,◆Shaking(手搖杯) 主推飲品 黃金奶蓋烏龍 飲品介紹 嚴選自台灣南投高山茶葉、天然蜜香，搭配上奶蓋滑順綿密的口感，襯托茶香自然醇香，味蕾與視覺上完美的饗宴。,高雄市新興區中山一路298號,高雄市,新興區,886-7-2383866,每日10:00 - 20:00,120.30239,22.63567,5.0
342,4173,C3_397000000A_001417,Mini氫一下,◆Sparkling(氣泡) 主推飲品 天然荔枝酵素氣泡飲 飲品介紹 以各式天然水果為基底，搭配天然活性酵素，在酷熱暑中，一尋清涼暢快。~,高雄市小港區桂田街261號,高雄市,小港區,886-7-7913950,每日10:00~22:00,120.355466,22.582348,5.0
343,4174,C3_397000000A_001418,My Way覓味,◆Sparkling(氣泡) 主推飲品 SODA橙 飲品介紹 My Way覓味鮮橙SODA，純鮮榨，無添加物，非濃縮，只有愛戀的微醺口味。,高雄市新興區復興一路81號,高雄市,新興區,886-7-2360963,每日10:00~20:00,120.30809,22.631578,5.0
344,4175,C3_397000000A_001420,太和元氣 冰品,◆Sparkling(氣泡) 主推飲品 養樂多沙瓦 飲品介紹 甜清爽夏天清涼燒烤炸物最佳搭配,高雄市旗津區廟前路1110號,高雄市,旗津區,886-7-5710740,每日10:00~22::00,120.267994,22.612187,5.0
345,4176,C3_397000000A_001421,文誠蜂蜜,◆Sparkling(氣泡) 主推飲品 總統款蜂蜜氣泡飲 飲品介紹 使用來自高雄大崗山的純淨蜂蜜搭配獨家微軟氣泡水，夏暑無糖飲品新選擇。,高雄市鹽埕區大勇路1號C5館,高雄市,鹽埕區,886-9-21260199,週一~週四：10:00-18:00週五~週日(國定假日)：10:00-20:00,120.281657,22.619952,5.0
346,4178,C3_397000000A_001423,麥克山丘軟式可麗餅-高雄南屏總店,◆Sparkling(氣泡) 主推飲品 彩虹方塊 飲品介紹 每日限量的彩虹方塊飲品，不僅好喝，更能在朋友圈打卡炫耀。,高雄市左營區南屏路348號1樓,高雄市,左營區,886-7-5228529,每日14:00~21:00,120.299412,22.667927,5.0
347,4179,C3_397000000A_001425,Old.Trick 佬掉牙商行,◆Alcohol(酒吧) 主推飲品 汗水的印記 飲品介紹 木棉蘭姆酒的辣口、芒果青的酸甜、半天水的柔順，充實滿足幸福。,高雄市鹽埕區大勇路68號1樓,高雄市,鹽埕區,886-7-5519555,每日19:00~02:00,120.28366,22.62309,9.0
348,4180,C3_397000000A_001426,掌門精釀啤酒-青海店,◆Alcohol(酒吧) 主推飲品 美式印度艾爾 飲品介紹 此酒款以大量美式啤酒花、焦糖麥芽為主要風味特色，是掌門的經典紀念酒款。,高雄市鼓山區青海路177號,高雄市,鼓山區,886-7-5522285,每日17:30-01:00,120.28697,22.65129,9.0
349,4181,C3_397000000A_001427,畫坊咖啡餐酒館,◆Alcohol(酒吧) 主推飲品 蒙娜麗莎 Mona Lisa 飲品介紹 以草莓、葡萄、vodka、桑椹酒基底作為調飲，搭配莓果的調性襯托出神秘的口感，如蒙娜麗莎般會心一笑。,高雄市鼓山區哨船街51號2樓,高雄市,鼓山區,886-7-5329340,每日18:00-02:00,120.26914,22.61969,9.0
350,4182,C3_397000000A_001428,萬吧 ONE BAR,◆Alcohol(酒吧) 主推飲品 Gummy Bear 飲品介紹 使用柳橙與蔓越莓搭配琴酒調製的清爽口感，是杯帶有童趣的夏日飲品。,高雄市苓雅區青年一路261巷1號,高雄市,苓雅區,886-7-3313322,每日20:00~02:00,120.316741,22.624694,9.0
351,4183,C3_397000000A_001429,舊鎮餐酒館,◆Alcohol(酒吧) 主推飲品 許仙 飲品介紹 許仙是以蘭姆酒及菊花、龍眼、仙草等中國特色元素調製而成的中式調酒,高雄市前金區新田路178巷13號,高雄市,前金區,886-7-2157388,每日18:00-02:00,120.300808,22.621944,9.0
352,4184,C3_397000000A_001430,藍色狂想Blue Fantasy,◆Alcohol(酒吧) 主推飲品 Beer Mix 飲品介紹 專業Live Band，結合啤酒及伏特加調酒，帶給你Santana充滿鬥志的暑期夜晚。,高雄市苓雅區五福一路111號,高雄市,苓雅區,886-7-2270505,每日18:30-03:00,120.31339,22.6271,9.0
353,4185,C3_397000000A_001431,étage 15 Night Bar,◆Alcohol(酒吧) 主推飲品 莫西多 飲品介紹 蘭姆酒基底伴隨新鮮萊姆與薄荷香氣，口感沁涼清爽，非常適合夏季飲用！,高雄市新興區林森一路165 號 (Hotel dùa R 樓),高雄市,新興區,886-7-5362999,每日18:30-01:30,120.30454,22.630608,9.0
354,4186,C3_397000000A_001432,On the Bridge 紅橋餐廳,◆Alcohol(酒吧) 主推飲品 豪氣打狗 義結金藍 飲品介紹 使用與香檳同等級製程的金黃艾爾打狗啤酒與紅橋餐廳獨家調酒配方碰撞出帶有花果、柑橘香及麥芽的芬芳而成～～豪氣打狗 義結金藍,高雄市鼓山區鼓山一路32-6號 (舊紅色鐵橋上),高雄市,鼓山區,886-7-5316056,每日11:30~14:00、17:30~22:00,120.275732,22.621913,9.0
355,4187,C3_397000000A_001433,城市商旅真愛館 璀璨星空Sky Bar,◆Alcohol(酒吧) 主推飲品 冰火仲夏野莓 飲品介紹 炎夏，鮮豔的紅唇啜飲一口清涼，染上初戀的酸甜滋味。,高雄市鹽埕區大義街1號8樓,高雄市,鹽埕區,886-7-5217973 #9500 #9501,週五~週日：17:30~22:00,120.28488,22.619024,9.0
356,4188,C3_397000000A_001480,大坪頂觀景休閒館,位於清幽的大坪頂之上，鄰近熱帶雨林植物園區，提供中式熱炒、蒸氣火鍋、咖啡甜品的休憩場所，結合人文、藝術規劃庭園造景，可俯瞰整個高雄地區，享受戶外自然新鮮的空氣以及遼闊星空美景、涼風徐徐的浪漫氛圍，放鬆舒適的愜意時光。適合單身消費、情侶約會以及親子朋友或工商團體聚餐等。除了戶外餐廳還有宴會大廳和精緻包廂，腹地廣大，免費停車。結合觀景休閒美食的避暑勝地。,高雄市小港區大房路43-5號,高雄市,小港區,886-7-8911362,每日10:00~14:00下午16:00~凌晨1:00,120.387632,22.56632,9.0
357,4190,C3_397000000A_001552,小越廚創意越式料理,◆赤鍋 主推鍋物 雪花牛肉海陸帽子推推鍋 鍋物介紹 將香嫩肉片和海鮮蔬菜都推進開胃濃郁酸辣越式湯底裡，肉質鮮嫩多汁包覆一層香辣湯汁，吃起來超涮嘴的越式開胃鍋品，邀您一同感受不一樣的異國風味饗宴。,高雄市前鎮區中安路1-1號大道東1F之10(大魯閣草衙道一樓),高雄市,前鎮區,886-7-7917088,週一~週五11:00~22:00週六~週日10:30~22:00,120.329448,22.582119,3.0
358,4191,C3_397000000A_001553,XM麻辣鍋岡山店,"◆赤鍋 主推鍋物 麻辣鍋 鍋物介紹 湯底用大骨熬製數小時後再加入預先炒好的麻辣料而成,麻辣料採用頂級四川大紅袍辣椒、花椒，並使用正宗郫縣豆瓣加上數十種中藥材熬煮而成；煮好的湯底不但香氣撲鼻，且溫和不易造成腸胃不適!",高雄市岡山區中山北路130號,高雄市,岡山區,886-7-6248958,每日11:00-15:30 ,,120.298744,22.796888
359,4192,C3_397000000A_001554,春囍打邊爐,◆赤鍋 主推鍋物 麻奶鍋 鍋物介紹 將青椒花以及中藥下去拌炒，再加入上等麻椒下去爆香，融合濃郁大骨湯和牛奶湯底，又麻又辣又有奶香味的「獨家口味」，讓人回味無窮。,高雄市新興區七賢二路92號,高雄市,新興區,886-7-2853112,平日 11:30-15:00 17:00-23:00假日 11:00-15:00 17:00-00:00,120.298763,22.634322,3.0
360,4194,C3_397000000A_001556,愛食鍋麻辣鴛鴦,◆赤鍋 主推鍋物 麻辣鴛鴦鍋 鍋物介紹 食尚玩家、愛玩客主動報導必吃美食，正宗四川巴蜀麻辣鍋，「三香、三椒、三料、七滋、八味、九雜」，加上霸氣無敵長肉盤和無限量供應的鮮嫩鴨血及豆腐，保證讓你回味無窮。,高雄市前金區新田路252號,高雄市,前金區,886-7-2210288,每日11:30-01:30,120.297992,22.620491,3.0
361,4195,C3_397000000A_001557,木森林香草園,◆黑鍋 主推鍋物 御用甄嬛湯鍋（素食鍋） 鍋物介紹 以一十六種珍貴中藥材，採慢火熬煮方式煉製中藥上湯，輔以臺灣老薑及最適宜藥膳溫補的燉煮成品。滋陰補陽，四季皆宜！！,高雄市六龜區與龍里舊潭211號,高雄市,六龜區,886-7-6895866,週一~週四休園（預訂）週五~週日 10:00-19:00,120.666042,23.012678,3.0
362,4196,C3_397000000A_001558,美崙山溫泉渡假山莊,◆黑鍋 主推鍋物 蟲草花雞湯鍋(雙人鍋) 鍋物介紹 蟲草花燉出來的湯很鮮又滋潤，是冬天進補的好食材，蟲草花性質平和，不寒不燥，對於多數人來說都可放心食用；蟲草花含有豐富的蛋白質，老少咸宜，蟲草花不是花，他是人工培養的蟲草子實體，培養基是仿造天然蟲草鎖含的各種養分，包括穀物類、豆類、蛋奶類等。,高雄市六龜區新發里新開86號,高雄市,六龜區,886-7-6791919,每日11:30~19:30,120.685772,23.067351,3.0
363,4197,C3_397000000A_001559,霖園土雞城,◆黑鍋 主推鍋物 雞仔豬肚鱉 鍋物介紹 雞肉滋補、豬肚Q彈、甲魚富含膠質，以十一種中藥調合，道地美味為您呈現。,高雄市大社區翠屏路108巷6-9號,高雄市,大社區,886-7-3533572,每日11:00-14:00；17:00-22:00,120.369173,22.729194,3.0
364,4198,C3_397000000A_001560,右湶咖啡廣場-林園店,◆清鍋 主推鍋物 五福荔枝鍋 鍋物介紹 使用大樹區荔枝及本店自行栽種百分之百無使用農藥及化學肥料之蔬菜、 根、莖、甘蔗等，以柴火熬成之湯底。,高雄市林園區鳳林路二段1038-1號,高雄市,林園區,886-7-6430368,週二~週五16:30-22:00週六~週日11:00-15:00；16:30-22:00,120.395668,22.514404,3.0
365,4199,C3_397000000A_001561,岡山牛牛肉涮涮鍋,◆清鍋 主推鍋物 牛肉涮涮鍋 鍋物介紹 清甜有彈性的溫體牛火鍋肉片，配以純牛肉與牛骨熬製的美味高湯，輕涮 3-5秒，更能凸顯台灣牛肉的鮮甜與美味。,高雄市岡山區公園西路三段 39-1號,高雄市,岡山區,886-7-6258831,每日11:00-21:30,120.285292,22.795619,3.0
366,4200,C3_397000000A_001562,岡鐵牛鍋物工廠,◆清鍋 主推鍋物 綜合鍋物拼盤 鍋物介紹 使用台灣在地食材溫體牛肉搭配新鮮無農藥蔬菜的綜合鍋物拼盤，結合牛肉、大骨、蔬菜熬煮的岡鐵牛肉湯頭，吃出台灣火鍋文化與特色，也吃得安心與健康。,高雄市岡山區成功路17號,高雄市,岡山區,886-7-6225922,週二~週日11:00~14:30；17:00~22:00,120.294754,22.800358,3.0
367,4201,C3_397000000A_001563,貓頭鷹鍋物,◆清鍋 主推鍋物 秘傳古法上湯 鍋物介紹 採用上選老母雞、金華火腿等多種食材慢火熬煮而成，熬出一點一滴的老母雞精華。,高雄市鳳山區文安街28號,高雄市,鳳山區,886-7-7677711,週二~週五11:00-15:00；17:00-22:00週六~週日11:00-22:00,120.347909,22.64261,3.0
368,4202,C3_397000000A_001564,原生青藝饌,◆清鍋 主推鍋物 野菜汆燙鍋 鍋物介紹 青藝饌養生植物汆燙鍋，為保留野菜風味採用網室種植契作，不用農藥化肥，天天新鮮直送，隨著產季變換菜色，平均每日超過40道菜，累積起來超過六百種。特選從牧場到餐桌，安全、衛生、美味、健康兼附產銷履歷的優質肉品，簡單食材蘊含超凡美味，歡迎大家前來青藝饌品嘗，美感和口感兼具的豐盛佳餚。,高雄市鳳山區文平街210號,高雄市,鳳山區,886-7-7775638,每日11:30-14:30；17:30-21:00,120.35085,22.641883,3.0
369,4204,C3_397000000A_001566,頤和酸菜白肉火鍋,"◆清鍋 主推鍋物 酸菜白肉火鍋 鍋物介紹 有別於傳統東北酸白菜火鍋，頤和採用的是自家醃製的高麗菜酸菜入鍋。 高麗菜酸菜甘甜清脆，酸而不嗆，無論是酸菜的口感還是火鍋湯頭的味道，都與酸白菜大不相同。與特選豬五花的油脂結合後,不油不膩溫和回甘的和諧感，就算是怕酸的饕客們也都能欣然接受喔！ 而無酸不歡的酸迷們，別失望！本店自製韭黃沾醬絕對能讓愛酸成痴的朋友大呼過癮，吃飽了還想再吃幾口的魔力請務必來體驗！",高雄市鳳山區新富路365號,高雄市,鳳山區,886-9-12171391,週一~週日(週三公休)11:30-14:0017:30-21:00,120.346862,22.613963,3.0
370,4205,C3_397000000A_001567,冬鄉小廚,◆清鍋 主推鍋物 正宗遼寧酸菜白肉鍋 鍋物介紹 我們的酸白菜是自然發酵的一年四季都是選用山東大白菜經過14天的發酵搭配上等的五花肉肥瘦2比8的比例再加入螃蟹、蝦米、干貝、紫菜、手工豬肉丸，煮出來的火鍋酸中帶鮮真材實料一次滿足！,高雄市鼓山區西藏街177號,高雄市,鼓山區,886-7-5210363,每日11:30-14:30；17:30-22:00(每週二公休),120.280834,22.65469,3.0
371,4206,C3_397000000A_001568,國蘭花園VILLA會館,◆白鍋 主推鍋物 鱘龍魚火鍋 鍋物介紹 清甜的湯頭，鱘龍魚肉質晶瑩剔透，Q彈十足，滿滿都是美容養顏豐富的膠原蛋白，連骨頭都軟得可以吃，再放入新鮮的蔬菜熬煮，暖呼呼的美味，滿足味蕾與心靈的渴望。,高雄市六龜區寶來里寶來二巷36-30號,高雄市,六龜區,886-7-6882231,每日08:00-22:00,120.700839,23.107593,3.0
372,4207,C3_397000000A_001569,永安西海岸餐廳,◆白鍋 主推鍋物 龍膽涮涮鍋 鍋物介紹 嚴選永安龍膽，當地蔬食，搭配清澈濃郁高湯，享受肉質的Q彈，馥郁於唇齒之中。,高雄市永安區新華路666號,高雄市,永安區,886-7-6910337,每日10:00-14:00；17:00-22:00,120.22375,22.810898,3.0
373,4208,C3_397000000A_001570,風見鷄 鍋物食堂,◆白鍋 主推鍋物 武士地雞豪華海鮮鍋 鍋物介紹 濃郁清甜的雞湯、經過6小時以上熬煮，不添加任何加工物！每日新鮮雞肉，肉質鮮美Q彈無腥味，新鮮手切呈現自然粉紅色澤。小農新鮮直送蔬菜，搭配各式海鮮，海陸味蕾一次滿足！,高雄市鳳山區文藝街276號,高雄市,鳳山區,886-7-7678222,每日11:30-14:30；17:30-22:30,120.352364,22.643547,3.0
374,4209,C3_397000000A_001571,蒸任性活體海鮮蒸氣鍋,◆白鍋 主推鍋物 飛虎金3-4人套餐 鍋物介紹 新鮮的海鮮食材，直接用蒸的方式吃到海鮮的鮮甜原味，沒有一滴油、一點鹽的做法，一種任性的吃法，鮮得令人無法擋！,高雄市前金區自強二路79號,高雄市,前金區,886-7-2722288,每日11:00-22:00,120.295505,22.624564,3.0
375,4210,C3_397000000A_001572,咕咚鼎私房養生火鍋,◆白鍋 主推鍋物 特選海鮮鍋 鍋物介紹 鮮蝦、蛤蜊、小卷、鮮蚵、魚類、鮮干貝、貝類、丸類或其他今日特選海鮮，全部新鮮食材。,高雄市左營區裕誠路275號,高雄市,左營區,886-7-5577736,每日11:00-14:00；17:00-22:00,120.308851,22.66476,3.0
376,4211,C3_397000000A_001573,Smile One精緻涮涮鍋,◆白鍋 主推鍋物 美國Prime沙朗牛海陸套餐 鍋物介紹 嚴選國內有機農產品結合頂級肉品海鮮，湯底可選擇以北海道昆布或特選黑羽雞熬製多時的昆布柴魚湯或九州風味白湯，清甜湯頭更顯食材美味。,高雄市新興區七賢一路311號30樓（高雄福華大飯店）,高雄市,新興區,886-7-2362323 #4301,每日11:30-14:00；17:30-21:00,120.30819,22.634004,3.0
377,4212,C3_397000000A_001574,天水玥秘境鍋物殿,◆白鍋 主推鍋物 老火湯 鍋物介紹 本殿推薦 《老火湯》，湯底是由老母雞、雞架骨、豚骨慢火燉煮而成，濃郁的湯頭喝起來特別幸福 。非常適合大朋友及小朋友喲！,高雄市左營區曾子路105號,高雄市,左營區,886-7-3438188,每日11:00-24:00,120.310202,22.677023,3.0
378,4214,C3_397000000A_001576,繫前緣咖啡館,◆白鍋 主推鍋物 菱角養生火鍋 鍋物介紹 菱角火鍋，湯底分為養生、牛奶、味噌三種口味，此湯底經過繫前緣的不斷嘗試，就是為了避免湯底太過濃郁而搶走菱角的風采，將菱角放入與之熬成湯頭後，要讓湯底帶出菱角的淡香，散發菱角的素雅清香味，才是菱角火鍋的精髓所在。,高雄市左營區孔營路78號,高雄市,左營區,886-7-5887310,每日09:00~22:00,120.295851,22.689541,3.0
379,4215,C3_397000000A_001577,大宅門乾鍋鴨頭一鍋二吃,"◆白鍋 主推鍋物 乾鍋鴨頭 鍋物介紹 結合粵菜的滷香，魯菜的醬香，川菜的麻香，食材經過白滷,醬炒，嗆香而成！",高雄市左營區自由二路338號,高雄市,左營區,886-7-5564078,每日11:00-14:00；17:00-23:30,120.308972,22.665668,3.0
380,4217,C3_397000000A_001579,鼠尾草cafe鄉村廚坊,◆黃鍋 主推鍋物 北海道咖哩風味鍋 鍋物介紹 北海道咖哩風味鍋採辛香的特製咖哩粉加上洋蔥細火慢炒後，燉煮出獨特的濃郁香氣，再搭配濃濃奶香，鼠尾草cafe鄉村廚坊北海道咖哩風味鍋於焉產生,高雄市美濃區中山路2段635號,高雄市,美濃區,886-7-6820578,每日11:00-21:00,120.513916,22.893517,3.0
381,4218,C3_397000000A_001580,茉荳獨享鍋,◆白鍋 主推鍋物 泰式椰奶酸辣鍋 鍋物介紹 泰式湯遇上南洋椰奶與香茅，巧妙的將泰式本身的酸辣變溫和，酸酸奶奶的口感絕對讓您胃口大開。,高雄市三民區博愛一路10號,高雄市,三民區,886-7-3222933,每日11:00-14:00；17:00-21:00,120.303219,22.641768,3.0
382,4219,C3_397000000A_001581,星洲火鍋,◆黃鍋 主推鍋物 新加坡叻沙鍋 鍋物介紹 新加坡最具代表性的料理-叻沙所調製而成，用多種東南亞植物萃取，再加入椰漿與特製鮮蝦醬而成。這道湯底很奇妙，煮什麼料都變得好好吃，單喝湯也很夠味，是許多人指定必嚐的異國料理，更是星洲火鍋最具代表性的口味之一。,高雄市左營區自由二路116號地下一樓,高雄市,左營區,886-7-5509327,平日17:00-23:30假日11:30-23:30,120.309005,22.660298,3.0
383,4220,C3_397000000A_001627,吉林夜市,營業時間 一 二 三 四 五 六 日 15:00-01:00 吉林夜市有將近50年的歷史，位在高雄後火車站，周圍緊鄰知名安寧街服飾批發中心、大連皮鞋街及高雄醫學大學，被稱為「高醫商圈」。營業內容以小吃美食為主，有著種類繁多的美食。由於競爭激烈且位於學區，造就其便宜大碗又不失美味的特色，是鄰近居民、學生和上班族的覓食首選。近年來吉林夜市也成為觀光客熱門造訪夜市之一，每日可見住宿於後火車站附近旅店的觀光客步行到吉林夜市品嘗道地台灣小吃。,高雄市三民區熱河一街與十全一路之間的吉林街,高雄市,三民區,886-7-3228160,週一~週日15:00-01:00,120.306353,22.64463,4.0
384,4221,C3_397000000A_001682,苓雅自強夜市,營業時間 一 二 三 四 五 六 日 17:00 - 02:00 苓雅自強夜市位於苓雅區興中二路與苓雅二路之間的自強三路，鄰近85大樓、高雄圖書館、高雄展覽館、愛河、漢神百貨、三多商圈等各大景點，夜市有各式美食，其中包括知名牛排料理、越式料理、日式料理、鱔魚麵、炒飯、麵食、水餃、臭豆腐、滷味、冷飲等各式料理小吃，因為於各景點交會處及具備各式各樣美食，成為旅遊大啖美食必去行程。,高雄市苓雅區興中二路與苓雅二路之間的自強三路,高雄市,苓雅區,886-7-3368333,每日17:00-02:00,120.29864,22.616989,9.0
385,4764,C3_A15010900H_000096,清逸軒庭園風味餐廳,經營特色：用原木搭建，陳列人文古物，用心打造溫馨用餐環境。以自然農耕無汙染栽培蔬果，給消費者吃的健康安心，獨創研發抗氧化春椿料理、蔬果餐、古早味、梅子餐等。,高雄市六龜區新發里新開90號,高雄市,六龜區,886-7-6791699,事前預約,120.68552,23.06724,3.0
386,4769,C3_A15010900H_000118,南臺灣餐飲店,享用特色風味餐需事先預約服務項目：簡餐、經濟合菜以在地有機蔬菜提供的原住民風味菜：烤肉、烤地瓜,高雄市茂林區茂林里38-2號,高雄市,茂林區,886-9-89489533,事前預約,120.66646,22.88674,9.0
387,4770,C3_A15010900H_000119,瑪姿餐飲店,服務項目：簡餐、經濟合菜、原住民風味菜、石板烤肉、農特產品蔬菜以當地時蔬供應，石板烤肉也是在地石板。,高雄市茂林區多納里6-1號,高雄市,茂林區,886-7-6801827,事前預約,120.71433,22.90965,9.0
388,4772,C3_A15010900H_000122,地瓜餐飲,以當地食材烹調，享用特色風味餐需事先預約，請電洽謝小姐。,高雄市茂林區萬山里38-2號,高雄市,茂林區,886-9-89489533,事前預約,120.68325,22.90668,9.0
389,4778,C3_A15010900H_000131,蝶 Svongvong,營業時間：08:30 ~ 17:30,高雄市六龜區大津里2號,高雄市,六龜區,886-9-89370885,08:30 ~ 17:30,120.6487,22.88005,5.0
